{"type": "FeatureCollection", "properties": {"name": "USACE eHydro Ohio River bathymetric survey extents", "description": "Bounding-box extents of 20 hydrographic survey sounding sets, Ohio River miles 776-976. Extents derived from thinned XYZ sounding coordinates (KYSP-S ftUS -> WGS84). Depths are below Ohio River Datum; NAVD88 offset unavailable.", "authority": "USACE Louisville District (CELRL), eHydro program", "vintage": "2018-06-07 through 2026-09-23", "crs": "EPSG:4326", "sourceCrs": "EPSG:6475", "verticalDatum": "Ohio River Datum", "generated": "2026-10-09", "generator": "tsm confluence-hydraulics wiring (bounding boxes from real sounding coordinates; not full survey geometry)"}, "features": [{"type": "Feature", "geometry": {"type": "Polygon", "coordinates": [[[-89.17936010063755, 37.049920021067194], [-89.0614244326693, 37.05329371037054], [-89.06703393675514, 37.181295707954284], [-89.1851690400747, 37.177916350777146], [-89.17936010063755, 37.049920021067194]]]}, "properties": {"id": "ehydro_OH_LD_CAI_20260914_CS_965_976_SORT", "reach": "CAI", "surveyDate": "2026-09-14", "surveyType": "CS", "mileStart": 965, "mileEnd": 976, "soundingCount": 9453, "depthMinFtBelowORD": -3.8, "depthMaxFtBelowORD": 51.8, "authority": "USACE Louisville District (CELRL), eHydro program", "authorityClass": "OBSERVATION", "horizontalCRS": "EPSG:6475 (NAD83(2011) / Kentucky South, US survey feet)", "verticalDatum": "Ohio River Datum", "verticalDatumNote": "Soundings are depths below Ohio River Datum in feet. ORD to NAVD88 offset unavailable \u2014 not converted, not invented.", "navd88Offset": "unavailable", "method": "Single-beam echosounder, DGPS positioning", "provenance": "USACE eHydro Azure blob store via public FeatureServer; vendored 2026-10-01; SHA-256 in offline-data/regional/hydraulics/bathymetry/raw/SHA256SUMS.txt"}}, {"type": "Feature", "geometry": {"type": "Polygon", "coordinates": [[[-88.00682299310337, 37.79503566946989], [-87.99316860095088, 37.795293765876984], [-87.99336138884517, 37.801735176981076], [-88.00701695362649, 37.80147705891411], [-88.00682299310337, 37.79503566946989]]]}, "properties": {"id": "ehydro_OH_LD_JTMX_20260923_CS_846_847_SORT", "reach": "JTMX", "surveyDate": "2026-09-23", "surveyType": "CS", "mileStart": 846, "mileEnd": 847, "soundingCount": 408, "depthMinFtBelowORD": -3.6, "depthMaxFtBelowORD": 34.5, "authority": "USACE Louisville District (CELRL), eHydro program", "authorityClass": "OBSERVATION", "horizontalCRS": "EPSG:6475 (NAD83(2011) / Kentucky South, US survey feet)", "verticalDatum": "Ohio River Datum", "verticalDatumNote": "Soundings are depths below Ohio River Datum in feet. ORD to NAVD88 offset unavailable \u2014 not converted, not invented.", "navd88Offset": "unavailable", "method": "Single-beam echosounder, DGPS positioning", "provenance": "USACE eHydro Azure blob store via public FeatureServer; vendored 2026-10-01; SHA-256 in offline-data/regional/hydraulics/bathymetry/raw/SHA256SUMS.txt"}}, {"type": "Feature", "geometry": {"type": "Polygon", "coordinates": [[[-87.98969303894394, 37.767308130632365], [-87.81071501536395, 37.770542247683785], [-87.81510077587703, 37.92978251095005], [-87.99445943830412, 37.92654168088675], [-87.98969303894394, 37.767308130632365]]]}, "properties": {"id": "ehydro_OH_LD_JTM_20190303_OT_PRS_823_846_SORT", "reach": "JTM", "surveyDate": "2019-03-03", "surveyType": "OT", "mileStart": 823, "mileEnd": 846, "soundingCount": 8003, "depthMinFtBelowORD": -12.5, "depthMaxFtBelowORD": 63.7, "authority": "USACE Louisville District (CELRL), eHydro program", "authorityClass": "OBSERVATION", "horizontalCRS": "EPSG:6475 (NAD83(2011) / Kentucky South, US survey feet)", "verticalDatum": "Ohio River Datum", "verticalDatumNote": "Soundings are depths below Ohio River Datum in feet. ORD to NAVD88 offset unavailable \u2014 not converted, not invented.", "navd88Offset": "unavailable", "method": "Single-beam echosounder, DGPS positioning", "provenance": "USACE eHydro Azure blob store via public FeatureServer; vendored 2026-10-01; SHA-256 in offline-data/regional/hydraulics/bathymetry/raw/SHA256SUMS.txt"}}, {"type": "Feature", "geometry": {"type": "Polygon", "coordinates": [[[-87.87814184386954, 37.8616471495297], [-87.71588897089059, 37.86443471128788], [-87.71733697589389, 37.91955313065975], [-87.87970928079339, 37.9167635682929], [-87.87814184386954, 37.8616471495297]]]}, "properties": {"id": "ehydro_OH_LD_JTM_20260420_CS_817_828_SORT", "reach": "JTM", "surveyDate": "2026-04-20", "surveyType": "CS", "mileStart": 817, "mileEnd": 828, "soundingCount": 6633, "depthMinFtBelowORD": -3.5, "depthMaxFtBelowORD": 54.5, "authority": "USACE Louisville District (CELRL), eHydro program", "authorityClass": "OBSERVATION", "horizontalCRS": "EPSG:6475 (NAD83(2011) / Kentucky South, US survey feet)", "verticalDatum": "Ohio River Datum", "verticalDatumNote": "Soundings are depths below Ohio River Datum in feet. ORD to NAVD88 offset unavailable \u2014 not converted, not invented.", "navd88Offset": "unavailable", "method": "Single-beam echosounder, DGPS positioning", "provenance": "USACE eHydro Azure blob store via public FeatureServer; vendored 2026-10-01; SHA-256 in offline-data/regional/hydraulics/bathymetry/raw/SHA256SUMS.txt"}}, {"type": "Feature", "geometry": {"type": "Polygon", "coordinates": [[[-87.68841702781069, 37.81518096227405], [-87.60463455811134, 37.816515384877896], [-87.60605998864186, 37.874066124758095], [-87.6899068162615, 37.872730701723555], [-87.68841702781069, 37.81518096227405]]]}, "properties": {"id": "ehydro_OH_LD_JTM_20260422_CS_805_813_SORT", "reach": "JTM", "surveyDate": "2026-04-22", "surveyType": "CS", "mileStart": 805, "mileEnd": 813, "soundingCount": 3826, "depthMinFtBelowORD": -0.1, "depthMaxFtBelowORD": 61.4, "authority": "USACE Louisville District (CELRL), eHydro program", "authorityClass": "OBSERVATION", "horizontalCRS": "EPSG:6475 (NAD83(2011) / Kentucky South, US survey feet)", "verticalDatum": "Ohio River Datum", "verticalDatumNote": "Soundings are depths below Ohio River Datum in feet. ORD to NAVD88 offset unavailable \u2014 not converted, not invented.", "navd88Offset": "unavailable", "method": "Single-beam echosounder, DGPS positioning", "provenance": "USACE eHydro Azure blob store via public FeatureServer; vendored 2026-10-01; SHA-256 in offline-data/regional/hydraulics/bathymetry/raw/SHA256SUMS.txt"}}, {"type": "Feature", "geometry": {"type": "Polygon", "coordinates": [[[-87.42347736773924, 37.93144428094394], [-87.37444949078103, 37.93212212868845], [-87.37474399554382, 37.94568441812942], [-87.42378075735145, 37.94500645076711], [-87.42347736773924, 37.93144428094394]]]}, "properties": {"id": "ehydro_OH_LD_JTM_20260423_CS_776_779_SORT", "reach": "JTM", "surveyDate": "2026-04-23", "surveyType": "CS", "mileStart": 776, "mileEnd": 779, "soundingCount": 2622, "depthMinFtBelowORD": -2.5, "depthMaxFtBelowORD": 32.1, "authority": "USACE Louisville District (CELRL), eHydro program", "authorityClass": "OBSERVATION", "horizontalCRS": "EPSG:6475 (NAD83(2011) / Kentucky South, US survey feet)", "verticalDatum": "Ohio River Datum", "verticalDatumNote": "Soundings are depths below Ohio River Datum in feet. ORD to NAVD88 offset unavailable \u2014 not converted, not invented.", "navd88Offset": "unavailable", "method": "Single-beam echosounder, DGPS positioning", "provenance": "USACE eHydro Azure blob store via public FeatureServer; vendored 2026-10-01; SHA-256 in offline-data/regional/hydraulics/bathymetry/raw/SHA256SUMS.txt"}}, {"type": "Feature", "geometry": {"type": "Polygon", "coordinates": [[[-87.58726802159674, 37.95121781816381], [-87.57346419318178, 37.951429610065716], [-87.5740360011178, 37.97487812894365], [-87.58784415600718, 37.974666272434206], [-87.58726802159674, 37.95121781816381]]]}, "properties": {"id": "ehydro_OH_LD_JTM_20260902_CS_791_793_SORT", "reach": "JTM", "surveyDate": "2026-09-02", "surveyType": "CS", "mileStart": 791, "mileEnd": 793, "soundingCount": 1082, "depthMinFtBelowORD": 6.2, "depthMaxFtBelowORD": 35.1, "authority": "USACE Louisville District (CELRL), eHydro program", "authorityClass": "OBSERVATION", "horizontalCRS": "EPSG:6475 (NAD83(2011) / Kentucky South, US survey feet)", "verticalDatum": "Ohio River Datum", "verticalDatumNote": "Soundings are depths below Ohio River Datum in feet. ORD to NAVD88 offset unavailable \u2014 not converted, not invented.", "navd88Offset": "unavailable", "method": "Single-beam echosounder, DGPS positioning", "provenance": "USACE eHydro Azure blob store via public FeatureServer; vendored 2026-10-01; SHA-256 in offline-data/regional/hydraulics/bathymetry/raw/SHA256SUMS.txt"}}, {"type": "Feature", "geometry": {"type": "Polygon", "coordinates": [[[-87.51217520288155, 37.90203575627138], [-87.47516211868191, 37.902577106076826], [-87.47566553173378, 37.92441261434835], [-87.51268941162184, 37.92387111069176], [-87.51217520288155, 37.90203575627138]]]}, "properties": {"id": "ehydro_OH_LD_JTM_20260908_CS_782_785_SORT", "reach": "JTM", "surveyDate": "2026-09-08", "surveyType": "CS", "mileStart": 782, "mileEnd": 785, "soundingCount": 1561, "depthMinFtBelowORD": 2.4, "depthMaxFtBelowORD": 24.7, "authority": "USACE Louisville District (CELRL), eHydro program", "authorityClass": "OBSERVATION", "horizontalCRS": "EPSG:6475 (NAD83(2011) / Kentucky South, US survey feet)", "verticalDatum": "Ohio River Datum", "verticalDatumNote": "Soundings are depths below Ohio River Datum in feet. ORD to NAVD88 offset unavailable \u2014 not converted, not invented.", "navd88Offset": "unavailable", "method": "Single-beam echosounder, DGPS positioning", "provenance": "USACE eHydro Azure blob store via public FeatureServer; vendored 2026-10-01; SHA-256 in offline-data/regional/hydraulics/bathymetry/raw/SHA256SUMS.txt"}}, {"type": "Feature", "geometry": {"type": "Polygon", "coordinates": [[[-89.04811404286716, 37.18868814929592], [-89.03793075798366, 37.18897224173552], [-89.03818445573943, 37.19480162768977], [-89.04836852509297, 37.19451751354719], [-89.04811404286716, 37.18868814929592]]]}, "properties": {"id": "ehydro_OH_LD_OLMX_20260917_OT_963_964_SORT", "reach": "OLMX", "surveyDate": "2026-09-17", "surveyType": "OT", "mileStart": 963, "mileEnd": 964, "soundingCount": 515, "depthMinFtBelowORD": -2.5, "depthMaxFtBelowORD": 34.5, "authority": "USACE Louisville District (CELRL), eHydro program", "authorityClass": "OBSERVATION", "horizontalCRS": "EPSG:6475 (NAD83(2011) / Kentucky South, US survey feet)", "verticalDatum": "Ohio River Datum", "verticalDatumNote": "Soundings are depths below Ohio River Datum in feet. ORD to NAVD88 offset unavailable \u2014 not converted, not invented.", "navd88Offset": "unavailable", "method": "Single-beam echosounder, DGPS positioning", "provenance": "USACE eHydro Azure blob store via public FeatureServer; vendored 2026-10-01; SHA-256 in offline-data/regional/hydraulics/bathymetry/raw/SHA256SUMS.txt"}}, {"type": "Feature", "geometry": {"type": "Polygon", "coordinates": [[[-88.70593920268799, 37.13185221346942], [-88.69756421227737, 37.1320617868834], [-88.69773130854162, 37.13634831279959], [-88.70610677310813, 37.13613872760636], [-88.70593920268799, 37.13185221346942]]]}, "properties": {"id": "ehydro_OH_LD_OLMX_20260918_OT_941_942_SORT", "reach": "OLMX", "surveyDate": "2026-09-18", "surveyType": "OT", "mileStart": 941, "mileEnd": 942, "soundingCount": 405, "depthMinFtBelowORD": 7.6, "depthMaxFtBelowORD": 31.7, "authority": "USACE Louisville District (CELRL), eHydro program", "authorityClass": "OBSERVATION", "horizontalCRS": "EPSG:6475 (NAD83(2011) / Kentucky South, US survey feet)", "verticalDatum": "Ohio River Datum", "verticalDatumNote": "Soundings are depths below Ohio River Datum in feet. ORD to NAVD88 offset unavailable \u2014 not converted, not invented.", "navd88Offset": "unavailable", "method": "Single-beam echosounder, DGPS positioning", "provenance": "USACE eHydro Azure blob store via public FeatureServer; vendored 2026-10-01; SHA-256 in offline-data/regional/hydraulics/bathymetry/raw/SHA256SUMS.txt"}}, {"type": "Feature", "geometry": {"type": "Polygon", "coordinates": [[[-88.83122303516998, 37.16562341315746], [-88.78405442312628, 37.166845559240684], [-88.78521343664326, 37.195706822068566], [-88.83240004179012, 37.194484213620576], [-88.83122303516998, 37.16562341315746]]]}, "properties": {"id": "ehydro_OH_LD_OLM_20180607_CS_847_951_SORT", "reach": "OLM", "surveyDate": "2018-06-07", "surveyType": "CS", "mileStart": 847, "mileEnd": 951, "soundingCount": 1441, "depthMinFtBelowORD": -0.3, "depthMaxFtBelowORD": 28.8, "authority": "USACE Louisville District (CELRL), eHydro program", "authorityClass": "OBSERVATION", "horizontalCRS": "EPSG:6475 (NAD83(2011) / Kentucky South, US survey feet)", "verticalDatum": "Ohio River Datum", "verticalDatumNote": "Soundings are depths below Ohio River Datum in feet. ORD to NAVD88 offset unavailable \u2014 not converted, not invented.", "navd88Offset": "unavailable", "method": "Single-beam echosounder, DGPS positioning", "provenance": "USACE eHydro Azure blob store via public FeatureServer; vendored 2026-10-01; SHA-256 in offline-data/regional/hydraulics/bathymetry/raw/SHA256SUMS.txt"}}, {"type": "Feature", "geometry": {"type": "Polygon", "coordinates": [[[-88.82867474560612, 37.165388711346544], [-88.78270467676143, 37.16657904720576], [-88.78387877755347, 37.19582898111121], [-88.82986661851436, 37.19463818885569], [-88.82867474560612, 37.165388711346544]]]}, "properties": {"id": "ehydro_OH_LD_OLM_20260511_CS_947_950_SORT", "reach": "OLM", "surveyDate": "2026-05-11", "surveyType": "CS", "mileStart": 947, "mileEnd": 950, "soundingCount": 2723, "depthMinFtBelowORD": 4.9, "depthMaxFtBelowORD": 36.0, "authority": "USACE Louisville District (CELRL), eHydro program", "authorityClass": "OBSERVATION", "horizontalCRS": "EPSG:6475 (NAD83(2011) / Kentucky South, US survey feet)", "verticalDatum": "Ohio River Datum", "verticalDatumNote": "Soundings are depths below Ohio River Datum in feet. ORD to NAVD88 offset unavailable \u2014 not converted, not invented.", "navd88Offset": "unavailable", "method": "Single-beam echosounder, DGPS positioning", "provenance": "USACE eHydro Azure blob store via public FeatureServer; vendored 2026-10-01; SHA-256 in offline-data/regional/hydraulics/bathymetry/raw/SHA256SUMS.txt"}}, {"type": "Feature", "geometry": {"type": "Polygon", "coordinates": [[[-89.05963558168234, 37.18338366924048], [-88.89166035599237, 37.18797406958472], [-88.8935167671697, 37.23259521001133], [-89.06159109116332, 37.228002125205954], [-89.05963558168234, 37.18338366924048]]]}, "properties": {"id": "ehydro_OH_LD_OLM_20260512_CS_954_965_SORT", "reach": "OLM", "surveyDate": "2026-05-12", "surveyType": "CS", "mileStart": 954, "mileEnd": 965, "soundingCount": 9536, "depthMinFtBelowORD": -2.0, "depthMaxFtBelowORD": 64.1, "authority": "USACE Louisville District (CELRL), eHydro program", "authorityClass": "OBSERVATION", "horizontalCRS": "EPSG:6475 (NAD83(2011) / Kentucky South, US survey feet)", "verticalDatum": "Ohio River Datum", "verticalDatumNote": "Soundings are depths below Ohio River Datum in feet. ORD to NAVD88 offset unavailable \u2014 not converted, not invented.", "navd88Offset": "unavailable", "method": "Single-beam echosounder, DGPS positioning", "provenance": "USACE eHydro Azure blob store via public FeatureServer; vendored 2026-10-01; SHA-256 in offline-data/regional/hydraulics/bathymetry/raw/SHA256SUMS.txt"}}, {"type": "Feature", "geometry": {"type": "Polygon", "coordinates": [[[-88.47191375074799, 37.06357843184678], [-88.41794801423572, 37.06481240584233], [-88.42139982832398, 37.16261431551129], [-88.47543530949721, 37.161378757781236], [-88.47191375074799, 37.06357843184678]]]}, "properties": {"id": "ehydro_OH_LD_OLM_20260722_CS_919_927_SORT", "reach": "OLM", "surveyDate": "2026-07-22", "surveyType": "CS", "mileStart": 919, "mileEnd": 927, "soundingCount": 4910, "depthMinFtBelowORD": 0.6, "depthMaxFtBelowORD": 49.2, "authority": "USACE Louisville District (CELRL), eHydro program", "authorityClass": "OBSERVATION", "horizontalCRS": "EPSG:6475 (NAD83(2011) / Kentucky South, US survey feet)", "verticalDatum": "Ohio River Datum", "verticalDatumNote": "Soundings are depths below Ohio River Datum in feet. ORD to NAVD88 offset unavailable \u2014 not converted, not invented.", "navd88Offset": "unavailable", "method": "Single-beam echosounder, DGPS positioning", "provenance": "USACE eHydro Azure blob store via public FeatureServer; vendored 2026-10-01; SHA-256 in offline-data/regional/hydraulics/bathymetry/raw/SHA256SUMS.txt"}}, {"type": "Feature", "geometry": {"type": "Polygon", "coordinates": [[[-88.57708550205713, 37.06303271924631], [-88.55233209961679, 37.06362390552629], [-88.55308686340656, 37.08400417853959], [-88.57784692485394, 37.08341283416662], [-88.57708550205713, 37.06303271924631]]]}, "properties": {"id": "ehydro_OH_LD_OLM_20260723_CS_932_934_SORT", "reach": "OLM", "surveyDate": "2026-07-23", "surveyType": "CS", "mileStart": 932, "mileEnd": 934, "soundingCount": 1541, "depthMinFtBelowORD": 1.5, "depthMaxFtBelowORD": 42.1, "authority": "USACE Louisville District (CELRL), eHydro program", "authorityClass": "OBSERVATION", "horizontalCRS": "EPSG:6475 (NAD83(2011) / Kentucky South, US survey feet)", "verticalDatum": "Ohio River Datum", "verticalDatumNote": "Soundings are depths below Ohio River Datum in feet. ORD to NAVD88 offset unavailable \u2014 not converted, not invented.", "navd88Offset": "unavailable", "method": "Single-beam echosounder, DGPS positioning", "provenance": "USACE eHydro Azure blob store via public FeatureServer; vendored 2026-10-01; SHA-256 in offline-data/regional/hydraulics/bathymetry/raw/SHA256SUMS.txt"}}, {"type": "Feature", "geometry": {"type": "Polygon", "coordinates": [[[-88.43536257823449, 37.16523595165101], [-88.43051002132208, 37.16534626686388], [-88.4307877508895, 37.173177277335235], [-88.43564081003748, 37.173066950798585], [-88.43536257823449, 37.16523595165101]]]}, "properties": {"id": "ehydro_OH_LD_SMT_20260429_CS_918_919_SORT", "reach": "SMT", "surveyDate": "2026-04-29", "surveyType": "CS", "mileStart": 918, "mileEnd": 919, "soundingCount": 348, "depthMinFtBelowORD": 2.7, "depthMaxFtBelowORD": 41.9, "authority": "USACE Louisville District (CELRL), eHydro program", "authorityClass": "OBSERVATION", "horizontalCRS": "EPSG:6475 (NAD83(2011) / Kentucky South, US survey feet)", "verticalDatum": "Ohio River Datum", "verticalDatumNote": "Soundings are depths below Ohio River Datum in feet. ORD to NAVD88 offset unavailable \u2014 not converted, not invented.", "navd88Offset": "unavailable", "method": "Single-beam echosounder, DGPS positioning", "provenance": "USACE eHydro Azure blob store via public FeatureServer; vendored 2026-10-01; SHA-256 in offline-data/regional/hydraulics/bathymetry/raw/SHA256SUMS.txt"}}, {"type": "Feature", "geometry": {"type": "Polygon", "coordinates": [[[-88.15616487567885, 37.46634633944799], [-87.98364656810571, 37.469723615333514], [-87.9936030309509, 37.803812052413704], [-88.16688969196704, 37.80042002209411], [-88.15616487567885, 37.46634633944799]]]}, "properties": {"id": "ehydro_OH_LD_SMT_20260518_CS_846_878_SORT", "reach": "SMT", "surveyDate": "2026-05-18", "surveyType": "CS", "mileStart": 846, "mileEnd": 878, "soundingCount": 21641, "depthMinFtBelowORD": -5.4, "depthMaxFtBelowORD": 59.9, "authority": "USACE Louisville District (CELRL), eHydro program", "authorityClass": "OBSERVATION", "horizontalCRS": "EPSG:6475 (NAD83(2011) / Kentucky South, US survey feet)", "verticalDatum": "Ohio River Datum", "verticalDatumNote": "Soundings are depths below Ohio River Datum in feet. ORD to NAVD88 offset unavailable \u2014 not converted, not invented.", "navd88Offset": "unavailable", "method": "Single-beam echosounder, DGPS positioning", "provenance": "USACE eHydro Azure blob store via public FeatureServer; vendored 2026-10-01; SHA-256 in offline-data/regional/hydraulics/bathymetry/raw/SHA256SUMS.txt"}}, {"type": "Feature", "geometry": {"type": "Polygon", "coordinates": [[[-88.09687536672, 37.52823292886721], [-88.06804052268785, 37.5288000013168], [-88.06876144351898, 37.552188261664874], [-88.09760524797716, 37.55162101597274], [-88.09687536672, 37.52823292886721]]]}, "properties": {"id": "ehydro_OH_LD_SMT_20260910_CS_870_872_SORT", "reach": "SMT", "surveyDate": "2026-09-10", "surveyType": "CS", "mileStart": 870, "mileEnd": 872, "soundingCount": 2390, "depthMinFtBelowORD": 5.7, "depthMaxFtBelowORD": 27.3, "authority": "USACE Louisville District (CELRL), eHydro program", "authorityClass": "OBSERVATION", "horizontalCRS": "EPSG:6475 (NAD83(2011) / Kentucky South, US survey feet)", "verticalDatum": "Ohio River Datum", "verticalDatumNote": "Soundings are depths below Ohio River Datum in feet. ORD to NAVD88 offset unavailable \u2014 not converted, not invented.", "navd88Offset": "unavailable", "method": "Single-beam echosounder, DGPS positioning", "provenance": "USACE eHydro Azure blob store via public FeatureServer; vendored 2026-10-01; SHA-256 in offline-data/regional/hydraulics/bathymetry/raw/SHA256SUMS.txt"}}, {"type": "Feature", "geometry": {"type": "Polygon", "coordinates": [[[-88.09854918811817, 37.711588933815115], [-88.00867643537879, 37.71333017502174], [-88.01139577659484, 37.80356335527095], [-88.10137664432399, 37.80182006516173], [-88.09854918811817, 37.711588933815115]]]}, "properties": {"id": "ehydro_OH_LD_SMT_20260921_CS_847_855_SORT", "reach": "SMT", "surveyDate": "2026-09-21", "surveyType": "CS", "mileStart": 847, "mileEnd": 855, "soundingCount": 4494, "depthMinFtBelowORD": -1.2, "depthMaxFtBelowORD": 30.0, "authority": "USACE Louisville District (CELRL), eHydro program", "authorityClass": "OBSERVATION", "horizontalCRS": "EPSG:6475 (NAD83(2011) / Kentucky South, US survey feet)", "verticalDatum": "Ohio River Datum", "verticalDatumNote": "Soundings are depths below Ohio River Datum in feet. ORD to NAVD88 offset unavailable \u2014 not converted, not invented.", "navd88Offset": "unavailable", "method": "Single-beam echosounder, DGPS positioning", "provenance": "USACE eHydro Azure blob store via public FeatureServer; vendored 2026-10-01; SHA-256 in offline-data/regional/hydraulics/bathymetry/raw/SHA256SUMS.txt"}}, {"type": "Feature", "geometry": {"type": "Polygon", "coordinates": [[[-88.14452836581052, 37.573170154260254], [-88.11917349448792, 37.57367904318515], [-88.12014344293753, 37.60444513699492], [-88.14550868578795, 37.60393604364641], [-88.14452836581052, 37.573170154260254]]]}, "properties": {"id": "ehydro_OH_LD_SMT_20260923_CS_865_867_SORT", "reach": "SMT", "surveyDate": "2026-09-23", "surveyType": "CS", "mileStart": 865, "mileEnd": 867, "soundingCount": 2461, "depthMinFtBelowORD": 2.1, "depthMaxFtBelowORD": 40.0, "authority": "USACE Louisville District (CELRL), eHydro program", "authorityClass": "OBSERVATION", "horizontalCRS": "EPSG:6475 (NAD83(2011) / Kentucky South, US survey feet)", "verticalDatum": "Ohio River Datum", "verticalDatumNote": "Soundings are depths below Ohio River Datum in feet. ORD to NAVD88 offset unavailable \u2014 not converted, not invented.", "navd88Offset": "unavailable", "method": "Single-beam echosounder, DGPS positioning", "provenance": "USACE eHydro Azure blob store via public FeatureServer; vendored 2026-10-01; SHA-256 in offline-data/regional/hydraulics/bathymetry/raw/SHA256SUMS.txt"}}]}