{"type": "FeatureCollection", "properties": {"name": "USGS 24K Quadrangle Boundaries (tri-state subset)", "provenance": "User upload 2026-09-30; USGS 24K quadrangle boundaries KML", "note": "Reference only \u2014 quad index, not survey evidence"}, "features": [{"type": "Feature", "properties": {"quad_name": "MOUNT CARMEL", "source": "USGS 24K Quadrangle Boundaries", "quadid": "38087d7", "map_date": "1959", "state1": "IL"}, "geometry": {"type": "Polygon", "coordinates": [[[-87.875006211, 38.5000061320001], [-87.7500056539999, 38.5000082060001], [-87.750005969, 38.375006549], [-87.875005055, 38.3750053740001], [-87.875006211, 38.5000061320001]]]}}, {"type": "Feature", "properties": {"quad_name": "EAST MOUNT CARMEL", "source": "USGS 24K Quadrangle Boundaries", "quadid": "38087d6", "map_date": "1959", "state1": "IN"}, "geometry": {"type": "Polygon", "coordinates": [[[-87.6250049339999, 38.5000030100001], [-87.625006028, 38.3750051050001], [-87.750005969, 38.375006549], [-87.7500056539999, 38.5000082060001], [-87.6250049339999, 38.5000030100001]]]}}, {"type": "Feature", "properties": {"quad_name": "PATOKA", "source": "USGS 24K Quadrangle Boundaries", "quadid": "38087d5", "map_date": "1959", "state1": "IN"}, "geometry": {"type": "Polygon", "coordinates": [[[-87.500005421, 38.5000085730001], [-87.500005027, 38.3750010480001], [-87.625006028, 38.3750051050001], [-87.6250049339999, 38.5000030100001], [-87.500005421, 38.5000085730001]]]}}, {"type": "Feature", "properties": {"quad_name": "UNION", "source": "USGS 24K Quadrangle Boundaries", "quadid": "38087d4", "map_date": "1961", "state1": "IN"}, "geometry": {"type": "Polygon", "coordinates": [[[-87.3750056439999, 38.5000023800001], [-87.375004976, 38.3750078960001], [-87.500005027, 38.3750010480001], [-87.500005421, 38.5000085730001], [-87.3750056439999, 38.5000023800001]]]}}, {"type": "Feature", "properties": {"quad_name": "PETERSBURG", "source": "USGS 24K Quadrangle Boundaries", "quadid": "38087d3", "map_date": "1961", "state1": "IN"}, "geometry": {"type": "Polygon", "coordinates": [[[-87.250005162, 38.500006968], [-87.250005179, 38.375007635], [-87.375004976, 38.3750078960001], [-87.3750056439999, 38.5000023800001], [-87.250005162, 38.500006968]]]}}, {"type": "Feature", "properties": {"quad_name": "GRAYVILLE", "source": "USGS 24K Quadrangle Boundaries", "quadid": "38087c8", "map_date": "1959", "state1": "IL"}, "geometry": {"type": "Polygon", "coordinates": [[[-88.000004631, 38.375006066], [-87.875005055, 38.3750053740001], [-87.8750056, 38.2500064990001], [-88.000005366, 38.250008231], [-88.000004631, 38.375006066]]]}}, {"type": "Feature", "properties": {"quad_name": "KEENSBURG", "source": "USGS 24K Quadrangle Boundaries", "quadid": "38087c7", "map_date": "1959", "state1": "IN"}, "geometry": {"type": "Polygon", "coordinates": [[[-87.750005969, 38.375006549], [-87.750005949, 38.250006774], [-87.8750056, 38.2500064990001], [-87.875005055, 38.3750053740001], [-87.750005969, 38.375006549]]]}}, {"type": "Feature", "properties": {"quad_name": "OWENSVILLE", "source": "USGS 24K Quadrangle Boundaries", "quadid": "38087c6", "map_date": "1959", "state1": "IN"}, "geometry": {"type": "Polygon", "coordinates": [[[-87.625006028, 38.3750051050001], [-87.6250054719999, 38.250009074], [-87.750005949, 38.250006774], [-87.750005969, 38.375006549], [-87.625006028, 38.3750051050001]]]}}, {"type": "Feature", "properties": {"quad_name": "PRINCETON", "source": "USGS 24K Quadrangle Boundaries", "quadid": "38087c5", "map_date": "1959", "state1": "IN"}, "geometry": {"type": "Polygon", "coordinates": [[[-87.500005027, 38.3750010480001], [-87.5000060529999, 38.2500088900001], [-87.6250054719999, 38.250009074], [-87.625006028, 38.3750051050001], [-87.500005027, 38.3750010480001]]]}}, {"type": "Feature", "properties": {"quad_name": "FRANCISCO", "source": "USGS 24K Quadrangle Boundaries", "quadid": "38087c4", "map_date": "1961", "state1": "IN"}, "geometry": {"type": "Polygon", "coordinates": [[[-87.375004976, 38.3750078960001], [-87.375004991, 38.250006243], [-87.5000060529999, 38.2500088900001], [-87.500005027, 38.3750010480001], [-87.375004976, 38.3750078960001]]]}}, {"type": "Feature", "properties": {"quad_name": "OAKLAND CITY", "source": "USGS 24K Quadrangle Boundaries", "quadid": "38087c3", "map_date": "1961", "state1": "IN"}, "geometry": {"type": "Polygon", "coordinates": [[[-87.250005179, 38.375007635], [-87.2500049349999, 38.2500011280001], [-87.375004991, 38.250006243], [-87.375004976, 38.3750078960001], [-87.250005179, 38.375007635]]]}}, {"type": "Feature", "properties": {"quad_name": "NEW HARMONY", "source": "USGS 24K Quadrangle Boundaries", "quadid": "38087b8", "map_date": "1959", "state1": "IL"}, "geometry": {"type": "Polygon", "coordinates": [[[-87.8750056, 38.2500064990001], [-87.8750049349999, 38.1250050250001], [-88.000005841, 38.125007811], [-88.000005366, 38.250008231], [-87.8750056, 38.2500064990001]]]}}, {"type": "Feature", "properties": {"quad_name": "POSEYVILLE", "source": "USGS 24K Quadrangle Boundaries", "quadid": "38087b7", "map_date": "1959", "state1": "IN"}, "geometry": {"type": "Polygon", "coordinates": [[[-87.750005949, 38.250006774], [-87.7500052459999, 38.125008886], [-87.8750049349999, 38.1250050250001], [-87.8750056, 38.2500064990001], [-87.750005949, 38.250006774]]]}}, {"type": "Feature", "properties": {"quad_name": "CYNTHIANA", "source": "USGS 24K Quadrangle Boundaries", "quadid": "38087b6", "map_date": "1961", "state1": "IN"}, "geometry": {"type": "Polygon", "coordinates": [[[-87.6250054719999, 38.250009074], [-87.625005659, 38.125001388], [-87.7500052459999, 38.125008886], [-87.750005949, 38.250006774], [-87.6250054719999, 38.250009074]]]}}, {"type": "Feature", "properties": {"quad_name": "HAUBSTADT", "source": "USGS 24K Quadrangle Boundaries", "quadid": "38087b5", "map_date": "1961", "state1": "IN"}, "geometry": {"type": "Polygon", "coordinates": [[[-87.5000060529999, 38.2500088900001], [-87.500005102, 38.1250050780001], [-87.625005659, 38.125001388], [-87.6250054719999, 38.250009074], [-87.5000060529999, 38.2500088900001]]]}}, {"type": "Feature", "properties": {"quad_name": "ELBERFELD", "source": "USGS 24K Quadrangle Boundaries", "quadid": "38087b4", "map_date": "1961", "state1": "IN"}, "geometry": {"type": "Polygon", "coordinates": [[[-87.375004991, 38.250006243], [-87.375005733, 38.125006435], [-87.500005102, 38.1250050780001], [-87.5000060529999, 38.2500088900001], [-87.375004991, 38.250006243]]]}}, {"type": "Feature", "properties": {"quad_name": "LYNNVILLE", "source": "USGS 24K Quadrangle Boundaries", "quadid": "38087b3", "map_date": "1960", "state1": "IN"}, "geometry": {"type": "Polygon", "coordinates": [[[-87.2500049349999, 38.2500011280001], [-87.2500052079999, 38.125005474], [-87.375005733, 38.125006435], [-87.375004991, 38.250006243], [-87.2500049349999, 38.2500011280001]]]}}, {"type": "Feature", "properties": {"quad_name": "MAUNIE", "source": "USGS 24K Quadrangle Boundaries", "quadid": "38088a1", "map_date": "1974", "state1": "IL"}, "geometry": {"type": "Polygon", "coordinates": [[[-88.1250048639999, 38.125008243], [-88.000005841, 38.125007811], [-88.000004996, 38.0000048160001], [-88.125006444, 38.000006451], [-88.1250048639999, 38.125008243]]]}}, {"type": "Feature", "properties": {"quad_name": "SOLITUDE", "source": "USGS 24K Quadrangle Boundaries", "quadid": "38087a8", "map_date": "1981", "state1": "IN"}, "geometry": {"type": "Polygon", "coordinates": [[[-87.8750049349999, 38.1250050250001], [-87.875005619, 38.0000054430001], [-88.000004996, 38.0000048160001], [-88.000005841, 38.125007811], [-87.8750049349999, 38.1250050250001]]]}}, {"type": "Feature", "properties": {"quad_name": "WADESVILLE", "source": "USGS 24K Quadrangle Boundaries", "quadid": "38087a7", "map_date": "1981", "state1": "IN"}, "geometry": {"type": "Polygon", "coordinates": [[[-87.7500052459999, 38.125008886], [-87.750005603, 38.0000083690001], [-87.875005619, 38.0000054430001], [-87.8750049349999, 38.1250050250001], [-87.7500052459999, 38.125008886]]]}}, {"type": "Feature", "properties": {"quad_name": "KASSON", "source": "USGS 24K Quadrangle Boundaries", "quadid": "38087a6", "map_date": "1981", "state1": "IN"}, "geometry": {"type": "Polygon", "coordinates": [[[-87.625005659, 38.125001388], [-87.6250053969999, 38.0000090950001], [-87.750005603, 38.0000083690001], [-87.7500052459999, 38.125008886], [-87.625005659, 38.125001388]]]}}, {"type": "Feature", "properties": {"quad_name": "EVANSVILLE NORTH", "source": "USGS 24K Quadrangle Boundaries", "quadid": "38087a5", "map_date": "1981", "state1": "IN"}, "geometry": {"type": "Polygon", "coordinates": [[[-87.500005102, 38.1250050780001], [-87.500005514, 38.0000076270001], [-87.6250053969999, 38.0000090950001], [-87.625005659, 38.125001388], [-87.500005102, 38.1250050780001]]]}}, {"type": "Feature", "properties": {"quad_name": "DAYLIGHT", "source": "USGS 24K Quadrangle Boundaries", "quadid": "38087a4", "map_date": "1961", "state1": "IN"}, "geometry": {"type": "Polygon", "coordinates": [[[-87.375005733, 38.125006435], [-87.375005066, 38.000008483], [-87.500005514, 38.0000076270001], [-87.500005102, 38.1250050780001], [-87.375005733, 38.125006435]]]}}, {"type": "Feature", "properties": {"quad_name": "BOONVILLE", "source": "USGS 24K Quadrangle Boundaries", "quadid": "38087a3", "map_date": "1961", "state1": "IN"}, "geometry": {"type": "Polygon", "coordinates": [[[-87.2500052079999, 38.125005474], [-87.250004884, 38.0000071590001], [-87.375005066, 38.000008483], [-87.375005733, 38.125006435], [-87.2500052079999, 38.125005474]]]}}, {"type": "Feature", "properties": {"quad_name": "EMMA", "source": "USGS 24K Quadrangle Boundaries", "quadid": "37088h1", "map_date": "1978", "state1": "IL"}, "geometry": {"type": "Polygon", "coordinates": [[[-88.000004996, 38.0000048160001], [-88.000005099, 37.875008242], [-88.125004529, 37.8750066370001], [-88.125006444, 38.000006451], [-88.000004996, 38.0000048160001]]]}}, {"type": "Feature", "properties": {"quad_name": "MOUNT VERNON", "source": "USGS 24K Quadrangle Boundaries", "quadid": "37087h8", "map_date": "1981", "state1": "IN"}, "geometry": {"type": "Polygon", "coordinates": [[[-87.875005619, 38.0000054430001], [-87.875005522, 37.8750077710001], [-88.000005099, 37.875008242], [-88.000004996, 38.0000048160001], [-87.875005619, 38.0000054430001]]]}}, {"type": "Feature", "properties": {"quad_name": "CABORN", "source": "USGS 24K Quadrangle Boundaries", "quadid": "37087h7", "map_date": "1978", "state1": "IN"}, "geometry": {"type": "Polygon", "coordinates": [[[-87.750005603, 38.0000083690001], [-87.750004912, 37.875007494], [-87.875005522, 37.8750077710001], [-87.875005619, 38.0000054430001], [-87.750005603, 38.0000083690001]]]}}, {"type": "Feature", "properties": {"quad_name": "WEST FRANKLIN", "source": "USGS 24K Quadrangle Boundaries", "quadid": "37087h6", "map_date": "1981", "state1": "IN"}, "geometry": {"type": "Polygon", "coordinates": [[[-87.6250053969999, 38.0000090950001], [-87.625004839, 37.8750074120001], [-87.750004912, 37.875007494], [-87.750005603, 38.0000083690001], [-87.6250053969999, 38.0000090950001]]]}}, {"type": "Feature", "properties": {"quad_name": "EVANSVILLE SOUTH", "source": "USGS 24K Quadrangle Boundaries", "quadid": "37087h5", "map_date": "1981", "state1": "IN"}, "geometry": {"type": "Polygon", "coordinates": [[[-87.500005514, 38.0000076270001], [-87.500005803, 37.875007532], [-87.625004839, 37.8750074120001], [-87.6250053969999, 38.0000090950001], [-87.500005514, 38.0000076270001]]]}}, {"type": "Feature", "properties": {"quad_name": "NEWBURGH", "source": "USGS 24K Quadrangle Boundaries", "quadid": "37087h4", "map_date": "1964", "state1": "IN"}, "geometry": {"type": "Polygon", "coordinates": [[[-87.375005066, 38.000008483], [-87.37500511, 37.875007876], [-87.500005803, 37.875007532], [-87.500005514, 38.0000076270001], [-87.375005066, 38.000008483]]]}}, {"type": "Feature", "properties": {"quad_name": "YANKEETOWN", "source": "USGS 24K Quadrangle Boundaries", "quadid": "37087h3", "map_date": "1964", "state1": "IN"}, "geometry": {"type": "Polygon", "coordinates": [[[-87.250004884, 38.0000071590001], [-87.250005032, 37.8750061850001], [-87.37500511, 37.875007876], [-87.375005066, 38.000008483], [-87.250004884, 38.0000071590001]]]}}, {"type": "Feature", "properties": {"quad_name": "WABASH ISLAND", "source": "USGS 24K Quadrangle Boundaries", "quadid": "37088g1", "map_date": "1981", "state1": "IL"}, "geometry": {"type": "Polygon", "coordinates": [[[-88.000005099, 37.875008242], [-88.000005941, 37.750002323], [-88.125004786, 37.7500064970001], [-88.125004529, 37.8750066370001], [-88.000005099, 37.875008242]]]}}, {"type": "Feature", "properties": {"quad_name": "UNIONTOWN", "source": "USGS 24K Quadrangle Boundaries", "quadid": "37087g8", "map_date": "1981", "state1": "KY"}, "geometry": {"type": "Polygon", "coordinates": [[[-87.875005522, 37.8750077710001], [-87.875004953, 37.7500075040001], [-88.000005941, 37.750002323], [-88.000005099, 37.875008242], [-87.875005522, 37.8750077710001]]]}}, {"type": "Feature", "properties": {"quad_name": "WILSON", "source": "USGS 24K Quadrangle Boundaries", "quadid": "37087g6", "map_date": "1981", "state1": "KY"}, "geometry": {"type": "Polygon", "coordinates": [[[-87.625004839, 37.8750074120001], [-87.625005858, 37.750007597], [-87.750005312, 37.7500062500001], [-87.750004912, 37.875007494], [-87.625004839, 37.8750074120001]]]}}, {"type": "Feature", "properties": {"quad_name": "HENDERSON", "source": "USGS 24K Quadrangle Boundaries", "quadid": "37087g5", "map_date": "1971", "state1": "KY"}, "geometry": {"type": "Polygon", "coordinates": [[[-87.500005803, 37.875007532], [-87.500004925, 37.750007055], [-87.625005858, 37.750007597], [-87.625004839, 37.8750074120001], [-87.500005803, 37.875007532]]]}}, {"type": "Feature", "properties": {"quad_name": "REED", "source": "USGS 24K Quadrangle Boundaries", "quadid": "37087g3", "map_date": "1971", "state1": "KY"}, "geometry": {"type": "Polygon", "coordinates": [[[-87.250005032, 37.8750061850001], [-87.250005314, 37.7500070610001], [-87.375004812, 37.7500068730001], [-87.37500511, 37.875007876], [-87.250005032, 37.8750061850001]]]}}]}