{
  "type": "FeatureCollection",
  "features": [
    {
      "type": "Feature",
      "geometry": {
        "type": "Polygon",
        "coordinates": [
          [
            [
              -88.02762783444341,
              37.82519685235314,
              -176.14
            ],
            [
              -88.0278028474391,
              37.83892599838511,
              -176.14
            ],
            [
              -88.01049115381396,
              37.839063568837524,
              813.56
            ],
            [
              -88.0103193475961,
              37.825334355202855,
              813.56
            ],
            [
              -88.02762783444341,
              37.82519685235314,
              -176.14
            ]
          ]
        ]
      },
      "properties": {
        "s3_bucket": "giselevationingov",
        "s3_key": "las/statewide/2020/SPW/ql2/IN2020_26800940_12.las",
        "note": "footprint from PDAL info --all"
      }
    }
  ]
}