{
  "type": "FeatureCollection",
  "features": [
    {
      "type": "Feature",
      "geometry": {
        "type": "Polygon",
        "coordinates": [
          [
            [
              -88.0288554279051,
              37.92130037828621,
              -101.38
            ],
            [
              -88.02903127505101,
              37.93502929477797,
              -101.38
            ],
            [
              -88.0116970728612,
              37.93516733914287,
              882.01
            ],
            [
              -88.01152444777287,
              37.92143835487513,
              882.01
            ],
            [
              -88.0288554279051,
              37.92130037828621,
              -101.38
            ]
          ]
        ]
      },
      "properties": {
        "s3_bucket": "giselevationingov",
        "s3_key": "las/statewide/2020/SPW/ql2/IN2020_26800975_12.las",
        "note": "footprint from PDAL info --all"
      }
    }
  ]
}