{
  "type": "FeatureCollection",
  "features": [
    {
      "type": "Feature",
      "geometry": {
        "type": "Polygon",
        "coordinates": [
          [
            [
              -88.02745293991771,
              37.81146764608897,
              -156.38
            ],
            [
              -88.02762783409351,
              37.82519682489476,
              -156.38
            ],
            [
              -88.0103193472526,
              37.82533432774434,
              492.36
            ],
            [
              -88.01014765767812,
              37.811605081360526,
              492.36
            ],
            [
              -88.02745293991771,
              37.81146764608897,
              -156.38
            ]
          ]
        ]
      },
      "properties": {
        "s3_bucket": "giselevationingov",
        "s3_key": "las/statewide/2020/SPW/ql2/IN2020_26800935_12.las",
        "note": "footprint from PDAL info --all"
      }
    }
  ]
}