{
  "type": "FeatureCollection",
  "features": [
    {
      "type": "Feature",
      "geometry": {
        "type": "Polygon",
        "coordinates": [
          [
            [
              -88.02867969983089,
              37.90757140153192,
              -157.98
            ],
            [
              -88.02885542755351,
              37.92130035082829,
              -157.98
            ],
            [
              -88.01152444742773,
              37.921438327417064,
              834.47
            ],
            [
              -88.01135193957514,
              37.90770931036949,
              834.47
            ],
            [
              -88.02867969983089,
              37.90757140153192,
              -157.98
            ]
          ]
        ]
      },
      "properties": {
        "s3_bucket": "giselevationingov",
        "s3_key": "las/statewide/2020/SPW/ql2/IN2020_26800970_12.las",
        "note": "footprint from PDAL info --all"
      }
    }
  ]
}