{
  "type": "FeatureCollection",
  "features": [
    {
      "type": "Feature",
      "geometry": {
        "type": "Polygon",
        "coordinates": [
          [
            [
              -88.02780284778925,
              37.83892602584342,
              19.68
            ],
            [
              -88.02797797969076,
              37.85265513909713,
              19.68
            ],
            [
              -88.01066307710329,
              37.852792777177086,
              760.56
            ],
            [
              -88.01049115415769,
              37.83906359629598,
              760.56
            ],
            [
              -88.02780284778925,
              37.83892602584342,
              19.68
            ]
          ]
        ]
      },
      "properties": {
        "s3_bucket": "giselevationingov",
        "s3_key": "las/statewide/2020/SPW/ql2/IN2020_26800945_12.las",
        "note": "footprint from PDAL info --all"
      }
    }
  ]
}