{
  "type": "FeatureCollection",
  "features": [
    {
      "type": "Feature",
      "geometry": {
        "type": "Polygon",
        "coordinates": [
          [
            [
              -88.01031931297894,
              37.82533435547532,
              -163.8
            ],
            [
              -88.01049111919039,
              37.83906356911012,
              -163.8
            ],
            [
              -87.99317930883753,
              37.83919859525052,
              885.05
            ],
            [
              -87.99301070948826,
              37.825469315263064,
              885.05
            ],
            [
              -88.01031931297894,
              37.82533435547532,
              -163.8
            ]
          ]
        ]
      },
      "properties": {
        "s3_bucket": "giselevationingov",
        "s3_key": "las/statewide/2020/SPW/ql2/IN2020_26850940_12.las",
        "note": "footprint from PDAL info --all"
      }
    }
  ]
}