{"type":"FeatureCollection", "features":[
{"type":"Feature","properties":{"leveedId":270006000009,"fcSystemId":270005000005},"geometry":{"type":"MultiPolygon","coordinates":[[[[-9714852.22658069,4680537.87076189,0.000130833388539031],[-9714845.2895953,4680540.21029328,0.000130833388539031],[-9714826.26030759,4680546.13851613,0.000130833388539031],[-9714809.01157513,4680557.67383707,0.000130833388539031],[-9714792.7676124,4680571.62731723,0.000130833388539031],[-9714776.52364966,4680585.58081647,0.000130833388539031],[-9714760.65149402,4680600.15206951,0.000130833388539031],[-9714744.9558911,4680615.10097527,0.000130833388539031],[-9714729.26028818,4680630.04976028,0.000130833388539031],[-9714713.56468525,4680644.99870987,0.000130833388539031],[-9714697.23856873,4680658.86043341,0.000130833388539031],[-9714681.26366521,4680673.21422713,0.000130833388539031],[-9714665.40542451,4680687.94096771,0.000130833388539031],[-9714649.54718381,4680702.66787222,0.000130833388539031],[-9714633.11575905,4680716.25632699,0.000130833388539031],[-9714616.29794434,4680729.04401721,0.000130833388539031],[-9714601.17630471,4680744.26118118,0.000130833388539031],[-9714585.99778082,4680760.32024075,0.000130833388539031],[-9714572.42838017,4680778.36681103,0.000130833388539031],[-9714558.30505373,4680795.65870669,0.000130833388539031],[-9714545.80298436,4680815.13029654,0.000130833388539031],[-9714530.25298733,4680830.51094283,0.000130833388539031],[-9714516.47619847,4680848.35205363,0.000130833388539031],[-9714500.51354009,4680863.09488322,0.000130833388539031],[-9714486.00816516,4680879.90313596,0.000130833388539031],[-9714472.2313763,4680897.74433317,0.000130833388539031],[-9714457.66544357,4680914.41625212,0.000130833388539031],[-9714443.56950173,4680931.84320024,0.000130833388539031],[-9714428.05412506,4680947.16181897,0.000130833388539031],[-9714413.24841014,4680963.53464183,0.000130833388539031],[-9714399.15257962,4680980.9616739,0.000130833388539031],[-9714384.34686471,4680997.33455103,0.000130833388539031],[-9714368.65727304,4681012.30686617,0.000130833388539031],[-9714353.9308176,4681028.85228154,0.000130833388539031],[-9714338.55147335,4681044.33226323,0.000130833388539031],[-9714321.27101483,4681056.35336935,0.000130833388539031],[-9714304.29078499,4681068.85457574,0.000130833388539031],[-9714286.84557363,4681080.1790501,0.000130833388539031],[-9714269.40025095,4681091.50339436,0.000130833388539031],[-9714251.49317502,4681101.65214273,0.000130833388539031],[-9714233.60257437,4681111.85682825,0.000130833388539031],[-9714216.64650086,4681124.41188974,0.000130833388539031],[-9714198.75590021,4681134.61659804,0.000130833388539031],[-9714180.86529957,4681144.82117388,0.000130833388539031],[-9714163.44201815,4681156.20108921,0.000130833388539031],[-9714145.57256821,4681166.19453235,0.000130833388539031],[-9714128.13147567,4681177.60257791,0.000130833388539031],[-9714109.87162827,4681186.66425041,0.000130833388539031],[-9714092.43053573,4681198.07231888,0.000130833388539031],[-9714074.79018131,4681208.93168196,0.000130833388539031],[-9714056.34443036,4681217.35321059,0.000130833388539031],[-9714037.98818029,4681226.12301014,0.000130833388539031],[-9714018.61669646,4681230.11185326,0.000130833388539031],[-9713999.65765134,4681236.38032381,0.000130833388539031],[-9713980.50190469,4681241.4212407,0.000130833388539031],[-9713961.34615803,4681246.46201741,0.000130833388539031],[-9713941.99370983,4681250.2753807,0.000130833388539031],[-9713922.64137296,4681254.08874541,0.000130833388539031],[-9713903.4856263,4681259.12952838,0.000130833388539031],[-9713884.29381213,4681264.15105295,0.000130833388539031],[-9713865.01895362,4681268.57135488,0.000130833388539031],[-9713846.19794467,4681275.4955758,0.000130833388539031],[-9713827.14995528,4681281.16784195,0.000130833388539031],[-9713808.10196589,4681286.84011126,0.000130833388539031],[-9713789.08982138,4681292.82797771,0.000130833388539031],[-9713770.35475108,4681300.41949998,0.000130833388539031],[-9713751.85790449,4681308.65448681,0.000130833388539031],[-9713734.11535877,4681319.2714219,0.000130833388539031],[-9713717.30322135,4681332.24391797,0.000130833388539031],[-9713700.32443866,4681344.67883368,0.000130833388539031],[-9713683.62395469,4681357.73282921,0.000130833388539031],[-9713666.87014869,4681370.94035943,0.000130833388539031],[-9713652.05842252,4681387.36080277,0.000130833388539031],[-9713637.24669635,4681403.78141522,0.000130833388539031],[-9713622.48662243,4681420.34287473,0.000130833388539031],[-9713608.97677771,4681438.70606893,0.000130833388539031],[-9713596.52836433,4681458.09171172,0.000130833388539031],[-9713585.93909777,4681479.21433135,0.000130833388539031],[-9713575.13053181,4681500.19003793,0.000130833388539031],[-9713565.41946471,4681521.99488253,0.000130833388539031],[-9713554.19645629,4681542.79632571,0.000130833388539031],[-9713546.29010077,4681566.19910575,0.000130833388539031],[-9713542.47596106,4681591.70258424,0.000130833388539031],[-9713550.4778287,4681615.56532808,0.000130833388539031],[-9713561.10249486,4681636.87974834,0.000130833388539031],[-9713573.32559759,4681656.49990362,0.000130833388539031],[-9713584.60927513,4681676.97074865,0.000130833388539031],[-9713596.83248918,4681696.59083838,0.000130833388539031],[-9713607.09469908,4681717.96663754,0.000130833388539031],[-9713619.15349424,4681737.75331352,0.000130833388539031],[-9713630.26573977,4681758.37770279,0.000130833388539031],[-9713640.43132434,4681779.84009581,0.000130833388539031],[-9713650.59702025,4681801.30239132,0.000130833388539031],[-9713662.6558154,4681821.08922901,0.000130833388539031],[-9713673.76806093,4681841.71392954,0.000130833388539031],[-9713684.88030646,4681862.33852909,0.000130833388539031],[-9713695.99255199,4681882.96331305,0.000130833388539031],[-9713706.15824789,4681904.42596831,0.000130833388539031],[-9713718.21704305,4681924.21286345,0.000130833388539031],[-9713730.27684009,4681943.99894088,0.000130833388539031],[-9713741.39042145,4681964.62260588,0.000130833388539031],[-9713752.50400281,4681985.24645527,0.000130833388539031],[-9713763.61758418,4682005.8702037,0.000130833388539031],[-9713774.73116554,4682026.49399384,0.000130833388539031],[-9713785.8447469,4682047.1178257,0.000130833388539031],[-9713796.95832827,4682067.74184196,0.000130833388539031],[-9713809.01845926,4682087.52776987,0.000130833388539031],[-9713820.13204063,4682108.15172519,0.000130833388539031],[-9713830.3523944,4682129.56634147,0.000130833388539031],[-9713841.57729525,4682150.09107265,0.000130833388539031],[-9713853.74395899,4682169.76971791,0.000130833388539031],[-9713864.96885985,4682190.29453001,0.000130833388539031],[-9713876.1937607,4682210.81952613,0.000130833388539031],[-9713887.41866156,4682231.34442087,0.000130833388539031],[-9713898.64345109,4682251.86949962,0.000130833388539031],[-9713909.86835195,4682272.39461969,0.000130833388539031],[-9713920.15137859,4682293.76606123,0.000130833388539031],[-9713931.37616812,4682314.29112296,0.000130833388539031],[-9713942.60106898,4682334.81636869,0.000130833388539031],[-9713953.82596983,4682355.34165574,0.000130833388539031],[-9713965.05087068,4682375.86684143,0.000130833388539031],[-9713975.33378601,4682397.23849986,0.000130833388539031],[-9713987.50056107,4682416.91747945,0.000130833388539031],[-9713998.72546193,4682437.44293179,0.000130833388539031],[-9714009.95637403,4682457.96286055,0.000130833388539031],[-9714021.36027663,4682478.32558602,0.000130833388539031],[-9714031.8296521,4682499.54820498,0.000130833388539031],[-9714043.2335547,4682519.9110135,0.000130833388539031],[-9714053.70293017,4682541.13371903,0.000130833388539031],[-9714066.04124857,4682560.63675257,0.000130833388539031],[-9714076.51062404,4682581.85954286,0.000130833388539031],[-9714087.91441531,4682602.22251579,0.000130833388539031],[-9714099.31831791,4682622.58552939,0.000130833388539031],[-9714110.7222205,4682642.94858366,0.000130833388539031],[-9714121.83157173,4682663.43553594,0.000130833388539031],[-9714133.5820119,4682683.52641344,0.000130833388539031],[-9714144.37310069,4682704.43111068,0.000130833388539031],[-9714155.16418949,4682725.33585079,0.000130833388539031],[-9714165.95527829,4682746.24063376,0.000130833388539031],[-9714176.74647841,4682767.14545961,0.000130833388539031],[-9714187.53756721,4682788.05018562,0.000130833388539031],[-9714199.57699277,4682807.88902429,0.000130833388539031],[-9714210.80434266,4682828.41298065,0.000130833388539031],[-9714221.08992965,4682849.78359003,0.000130833388539031],[-9714234.20091664,4682868.61440402,0.000130833388539031],[-9714244.48639231,4682889.98509766,0.000130833388539031],[-9714256.31753911,4682909.58312077,0.000130833388539031],[-9714271.30915758,4682930.31233675,0.000130833388539031],[-9714260.97993334,4682892.83616311,0.000130833388539031],[-9714262.26712061,4682892.95303113,0.000130833388539031],[-9714262.38567587,4682891.68532003,0.000130833388539031],[-9714263.67286315,4682891.80218803,0.000130833388539031],[-9714263.79152972,4682890.53447707,0.000130833388539031],[-9714262.50434245,4682890.41760909,0.000130833388539031],[-9714262.86034218,4682886.61447721,0.000130833388539031],[-9714264.14741813,4682886.73134516,0.000130833388539031],[-9714264.7406397,4682880.39279512,0.000130833388539031],[-9714266.02771565,4682880.50952029,0.000130833388539031],[-9714266.14638223,4682879.24181074,0.000130833388539031],[-9714264.85930628,4682879.12494288,0.000130833388539031],[-9714265.80841626,4682868.98327228,0.000130833388539031],[-9714267.09560353,4682869.10014002,0.000130833388539031],[-9714268.16338008,4682857.69062981,0.000130833388539031],[-9714269.45045604,4682857.80749743,0.000130833388539031],[-9714270.75556575,4682843.8625894,0.000130833388539031],[-9714269.46837847,4682843.74572195,0.000130833388539031],[-9714271.36670975,4682823.46231851,0.000130833388539031],[-9714270.0796338,4682823.3454513,0.000130833388539031],[-9714270.19830037,4682822.07774885,0.000130833388539031],[-9714271.48537633,4682822.19461606,0.000130833388539031],[-9714271.84126474,4682818.39150964,0.000130833388539031],[-9714270.55418879,4682818.27464247,0.000130833388539031],[-9714271.14741035,4682811.93613499,0.000130833388539031],[-9714269.86022308,4682811.81926791,0.000130833388539031],[-9714269.50433467,4682815.62237188,0.000130833388539031],[-9714268.21725872,4682815.50550475,0.000130833388539031],[-9714267.97992556,4682818.04090816,0.000130833388539031],[-9714266.69284961,4682817.924041,0.000130833388539031],[-9714266.33684988,4682821.72714725,0.000130833388539031],[-9714263.76269797,4682821.49355555,0.000130833388539031],[-9714264.23725296,4682816.42260495,0.000130833388539031],[-9714262.95017701,4682816.30573782,0.000130833388539031],[-9714263.66195383,4682808.69953078,0.000130833388539031],[-9714264.94914111,4682808.81639783,0.000130833388539031],[-9714265.06769636,4682807.5486972,0.000130833388539031],[-9714263.78062041,4682807.43183016,0.000130833388539031],[-9714264.61117513,4682798.55778753,0.000130833388539031],[-9714263.32398786,4682798.4410633,0.000130833388539031],[-9714263.67998759,4682794.63782304,0.000130833388539031],[-9714262.39280032,4682794.52095615,0.000130833388539031],[-9714262.86746663,4682789.45016167,0.000130833388539031],[-9714261.58027936,4682789.33329484,0.000130833388539031],[-9714261.69894593,4682788.06559663,0.000130833388539031],[-9714262.98602188,4682788.18246344,0.000130833388539031],[-9714263.46057687,4682783.11167211,0.000130833388539031],[-9714262.17350092,4682782.99480535,0.000130833388539031],[-9714262.41083408,4682780.45941066,0.000130833388539031],[-9714261.12364681,4682780.34254394,0.000130833388539031],[-9714261.24231338,4682779.07484684,0.000130833388539031],[-9714263.81657661,4682779.30858027,0.000130833388539031],[-9714264.17246502,4682775.50534714,0.000130833388539031],[-9714262.88538906,4682775.38848047,0.000130833388539031],[-9714263.35994406,4682770.31769551,0.000130833388539031],[-9714264.64702001,4682770.43456212,0.000130833388539031],[-9714265.71479656,4682759.02516234,0.000130833388539031],[-9714264.42772061,4682758.90843855,0.000130833388539031],[-9714264.78372034,4682755.10521304,0.000130833388539031],[-9714266.0707963,4682755.22207948,0.000130833388539031],[-9714266.30801813,4682752.6866917,0.000130833388539031],[-9714265.02094218,4682752.56982529,0.000130833388539031],[-9714266.44471847,4682737.35736931,0.000130833388539031],[-9714267.73179442,4682737.47423554,0.000130833388539031],[-9714268.32501598,4682731.1357783,0.000130833388539031],[-9714269.61209194,4682731.25264445,0.000130833388539031],[-9714270.08664692,4682726.18173874,0.000130833388539031],[-9714271.37372288,4682726.29860485,0.000130833388539031],[-9714271.61105603,4682723.76322426,0.000130833388539031],[-9714272.89813199,4682723.88009034,0.000130833388539031],[-9714273.25413172,4682720.07702059,0.000130833388539031],[-9714274.54120767,4682720.19388662,0.000130833388539031],[-9714274.89709608,4682716.39081825,0.000130833388539031],[-9714276.18417203,4682716.50768424,0.000130833388539031],[-9714276.65872702,4682711.43678586,0.000130833388539031],[-9714277.94591429,4682711.5536518,0.000130833388539031],[-9714278.18313613,4682709.01827488,0.000130833388539031],[-9714279.47021208,4682709.13514079,0.000130833388539031],[-9714279.58887866,4682707.86745255,0.000130833388539031],[-9714280.87595461,4682707.98431844,0.000130833388539031],[-9714280.99462119,4682706.71663034,0.000130833388539031],[-9714282.28169714,4682706.83349623,0.000130833388539031],[-9714283.23091844,4682696.69185432,0.000130833388539031],[-9714284.51799439,4682696.80872008,0.000130833388539031],[-9714285.11121596,4682690.47028812,0.000130833388539031],[-9714286.39829191,4682690.58701112,0.000130833388539031],[-9714286.8728469,4682685.51626833,0.000130833388539031],[-9714288.15992285,4682685.63313397,0.000130833388539031],[-9714289.34636599,4682672.95614519,0.000130833388539031],[-9714290.63344194,4682673.07301069,0.000130833388539031],[-9714291.70121849,4682661.66386256,0.000130833388539031],[-9714292.98829445,4682661.78058523,0.000130833388539031],[-9714293.93740443,4682651.63913083,0.000130833388539031],[-9714295.22448038,4682651.75599608,0.000130833388539031],[-9714296.29225693,4682640.34672911,0.000130833388539031],[-9714297.57933288,4682640.46359423,0.000130833388539031],[-9714298.7656647,4682627.78666162,0.000130833388539031],[-9714300.05274065,4682627.9035266,0.000130833388539031],[-9714301.83229403,4682608.88822836,0.000130833388539031],[-9714303.11936999,4682609.00509312,0.000130833388539031],[-9714304.06847996,4682598.86354853,0.000130833388539031],[-9714305.35555591,4682598.98041317,0.000130833388539031],[-9714306.18599932,4682590.10669468,0.000130833388539031],[-9714307.47318659,4682590.22355923,0.000130833388539031],[-9714308.30362999,4682581.34970566,0.000130833388539031],[-9714309.59070594,4682581.46657011,0.000130833388539031],[-9714310.42114934,4682572.59272417,0.000130833388539031],[-9714311.7082253,4682572.70958851,0.000130833388539031],[-9714312.5386687,4682563.83589288,0.000130833388539031],[-9714313.82574465,4682563.95275713,0.000130833388539031],[-9714314.41896622,4682557.61426507,0.000130833388539031],[-9714315.70604217,4682557.73112925,0.000130833388539031],[-9714316.41781899,4682550.12511512,0.000130833388539031],[-9714317.70489495,4682550.24197921,0.000130833388539031],[-9714318.65400493,4682540.10049307,0.000130833388539031],[-9714319.94108088,4682540.21735704,0.000130833388539031],[-9714321.00874611,4682528.8082149,0.000130833388539031],[-9714322.29582207,4682528.92507873,0.000130833388539031],[-9714323.24493204,4682518.78375649,0.000130833388539031],[-9714324.532008,4682518.90047753,0.000130833388539031],[-9714324.88789641,4682515.09748424,0.000130833388539031],[-9714326.17497236,4682515.21434793,0.000130833388539031],[-9714326.64952735,4682510.14369236,0.000130833388539031],[-9714327.9366033,4682510.26055599,0.000130833388539031],[-9714328.52971355,4682503.92209732,0.000130833388539031],[-9714329.8167895,4682504.03896088,0.000130833388539031],[-9714330.17267792,4682500.23597313,0.000130833388539031],[-9714331.45975387,4682500.35283665,0.000130833388539031],[-9714331.69708702,4682497.81751225,0.000130833388539031],[-9714332.98416297,4682497.93423304,0.000130833388539031],[-9714333.34005139,4682494.13124758,0.000130833388539031],[-9714334.62712734,4682494.24811102,0.000130833388539031],[-9714334.98301575,4682490.44512693,0.000130833388539031],[-9714336.2700917,4682490.56199033,0.000130833388539031],[-9714336.62598012,4682486.75886493,0.000130833388539031],[-9714337.91305607,4682486.87572829,0.000130833388539031],[-9714338.38761106,4682481.80508682,0.000130833388539031],[-9714339.67468701,4682481.92195012,0.000130833388539031],[-9714340.03057542,4682478.11897063,0.000130833388539031],[-9714341.31765137,4682478.2356912,0.000130833388539031],[-9714341.67353979,4682474.43271308,0.000130833388539031],[-9714342.96061574,4682474.5495763,0.000130833388539031],[-9714343.55372599,4682468.21128252,0.000130833388539031],[-9714344.84080194,4682468.32814567,0.000130833388539031],[-9714345.43391218,4682461.98971306,0.000130833388539031],[-9714346.72098814,4682462.10657614,0.000130833388539031],[-9714347.07687655,4682458.30360404,0.000130833388539031],[-9714348.3639525,4682458.42046708,0.000130833388539031],[-9714348.83850749,4682453.34969707,0.000130833388539031],[-9714350.12558344,4682453.46656004,0.000130833388539031],[-9714350.24425002,4682452.19890359,0.000130833388539031],[-9714352.81829061,4682452.43262952,0.000130833388539031],[-9714352.58106877,4682454.96794264,0.000130833388539031],[-9714353.86814473,4682455.08480564,0.000130833388539031],[-9714354.22403314,4682451.28183615,0.000130833388539031],[-9714355.51110909,4682451.39855642,0.000130833388539031],[-9714355.8669975,4682447.59558831,0.000130833388539031],[-9714357.15407345,4682447.71245122,0.000130833388539031],[-9714357.98451686,4682438.8387217,0.000130833388539031],[-9714359.27159281,4682438.95558451,0.000130833388539031],[-9714359.74603648,4682433.88496688,0.000130833388539031],[-9714361.03311243,4682434.00182963,0.000130833388539031],[-9714361.50766742,4682428.93121445,0.000130833388539031],[-9714362.79474337,4682429.04793446,0.000130833388539031],[-9714363.26918704,4682423.97732175,0.000130833388539031],[-9714364.55626299,4682424.09418439,0.000130833388539031],[-9714365.03081798,4682419.02357414,0.000130833388539031],[-9714366.31789394,4682419.14029404,0.000130833388539031],[-9714366.67378235,4682415.33733796,0.000130833388539031],[-9714367.9608583,4682415.45420051,0.000130833388539031],[-9714368.55396855,4682409.11594346,0.000130833388539031],[-9714369.8410445,4682409.23266325,0.000130833388539031],[-9714370.31548817,4682404.16206039,0.000130833388539031],[-9714371.60256412,4682404.2789228,0.000130833388539031],[-9714371.83978596,4682401.74362229,0.000130833388539031],[-9714373.12686191,4682401.86048468,0.000130833388539031],[-9714373.36419507,4682399.32504208,0.000130833388539031],[-9714374.6511597,4682399.44190443,0.000130833388539031],[-9714375.24438126,4682393.10365735,0.000130833388539031],[-9714376.53145722,4682393.22051963,0.000130833388539031],[-9714376.88723431,4682389.41743054,0.000130833388539031],[-9714378.17431026,4682389.53429279,0.000130833388539031],[-9714378.53019867,4682385.73134775,0.000130833388539031],[-9714379.81727462,4682385.84820996,0.000130833388539031],[-9714380.17316304,4682382.0452663,0.000130833388539031],[-9714381.46023899,4682382.16198577,0.000130833388539031],[-9714381.93468266,4682377.09139638,0.000130833388539031],[-9714383.22175861,4682377.20825848,0.000130833388539031],[-9714383.6963136,4682372.13767155,0.000130833388539031],[-9714384.98338956,4682372.25439091,0.000130833388539031],[-9714385.81372164,4682363.38086975,0.000130833388539031],[-9714387.10079759,4682363.4977317,0.000130833388539031],[-9714387.456686,4682359.69479638,0.000130833388539031],[-9714388.74365063,4682359.8115156,0.000130833388539031],[-9714389.09953905,4682356.00858165,0.000130833388539031],[-9714390.386615,4682356.12544351,0.000130833388539031],[-9714390.86116999,4682351.05486707,0.000130833388539031],[-9714392.14813462,4682351.17158619,0.000130833388539031],[-9714392.38546778,4682348.63629888,0.000130833388539031],[-9714393.67254373,4682348.75316066,0.000130833388539031],[-9714394.02832082,4682344.95023084,0.000130833388539031],[-9714395.31539677,4682345.06709257,0.000130833388539031],[-9714395.78995176,4682339.99637894,0.000130833388539031],[-9714397.0769164,4682340.11324062,0.000130833388539031],[-9714397.55147139,4682335.04267214,0.000130833388539031],[-9714398.83854734,4682335.15953376,0.000130833388539031],[-9714399.31299101,4682330.08882506,0.000130833388539031],[-9714400.60006696,4682330.20568662,0.000130833388539031],[-9714401.19317721,4682323.86748257,0.000130833388539031],[-9714402.48025316,4682323.98420138,0.000130833388539031],[-9714403.07336341,4682317.6460012,0.000130833388539031],[-9714404.36043936,4682317.76286262,0.000130833388539031],[-9714405.07210486,4682310.15688484,0.000130833388539031],[-9714406.35918082,4682310.27374617,0.000130833388539031],[-9714406.95229106,4682303.93555451,0.000130833388539031],[-9714408.23936702,4682304.05241578,0.000130833388539031],[-9714408.83247726,4682297.7140853,0.000130833388539031],[-9714410.1194419,4682297.83094649,0.000130833388539031],[-9714410.47533031,4682294.02803567,0.000130833388539031],[-9714411.76240626,4682294.14489682,0.000130833388539031],[-9714412.11829467,4682290.34184469,0.000130833388539031],[-9714413.40525931,4682290.45870579,0.000130833388539031],[-9714413.76114772,4682286.65579772,0.000130833388539031],[-9714415.04822367,4682286.77265878,0.000130833388539031],[-9714415.52266734,4682281.70197415,0.000130833388539031],[-9714416.80974329,4682281.81883516,0.000130833388539031],[-9714417.04696513,4682279.2835651,0.000130833388539031],[-9714418.33404108,4682279.40042608,0.000130833388539031],[-9714418.57126292,4682276.86515662,0.000130833388539031],[-9714419.85833887,4682276.98187489,0.000130833388539031],[-9714420.0955607,4682274.44660603,0.000130833388539031],[-9714421.38263665,4682274.56346696,0.000130833388539031],[-9714421.85708033,4682269.49293108,0.000130833388539031],[-9714423.14415628,4682269.60964926,0.000130833388539031],[-9714423.49993337,4682265.80674896,0.000130833388539031],[-9714424.78700932,4682265.92360979,0.000130833388539031],[-9714425.14289773,4682262.12071086,0.000130833388539031],[-9714426.42997369,4682262.23742896,0.000130833388539031],[-9714426.66719552,4682259.70216377,0.000130833388539031],[-9714427.95427147,4682259.81902453,0.000130833388539031],[-9714428.19149331,4682257.28375994,0.000130833388539031],[-9714429.47845794,4682257.40062067,0.000130833388539031],[-9714429.7157911,4682254.86535668,0.000130833388539031],[-9714431.00275573,4682254.9820747,0.000130833388539031],[-9714431.23997757,4682252.44681131,0.000130833388539031],[-9714432.52705352,4682252.56367199,0.000130833388539031],[-9714432.88294193,4682248.76077805,0.000130833388539031],[-9714434.17001788,4682248.87749599,0.000130833388539031],[-9714434.64446155,4682243.80697288,0.000130833388539031],[-9714435.9315375,4682243.92383346,0.000130833388539031],[-9714436.2873146,4682240.12094274,0.000130833388539031],[-9714437.57439055,4682240.23766059,0.000130833388539031],[-9714437.93027896,4682236.43477125,0.000130833388539031],[-9714439.2172436,4682236.55163174,0.000130833388539031],[-9714439.45446543,4682234.01637293,0.000130833388539031],[-9714440.74154138,4682234.1332334,0.000130833388539031],[-9714440.97876322,4682231.59783251,0.000130833388539031],[-9714442.26583917,4682231.71469295,0.000130833388539031],[-9714442.62172758,4682227.91180678,0.000130833388539031],[-9714443.90869221,4682228.02866718,0.000130833388539031],[-9714444.14591405,4682225.49341049,0.000130833388539031],[-9714445.43299,4682225.61012817,0.000130833388539031],[-9714445.67021184,4682223.07487208,0.000130833388539031],[-9714446.95728779,4682223.19173243,0.000130833388539031],[-9714447.31306488,4682219.38884944,0.000130833388539031],[-9714448.60014084,4682219.50556705,0.000130833388539031],[-9714448.83736267,4682216.97031248,0.000130833388539031],[-9714450.12443862,4682217.08717275,0.000130833388539031],[-9714450.36166046,4682214.55191879,0.000130833388539031],[-9714451.64873641,4682214.66877903,0.000130833388539031],[-9714451.88595824,4682212.13338298,0.000130833388539031],[-9714453.1730342,4682212.25024319,0.000130833388539031],[-9714453.41025603,4682209.71499043,0.000130833388539031],[-9714454.69722067,4682209.83185062,0.000130833388539031],[-9714454.81588724,4682208.56422446,0.000130833388539031],[-9714456.1029632,4682208.68094194,0.000130833388539031],[-9714456.34018503,4682206.14569007,0.000130833388539031],[-9714457.62714966,4682206.26255021,0.000130833388539031],[-9714457.8643715,4682203.72729894,0.000130833388539031],[-9714459.15144745,4682203.84415906,0.000130833388539031],[-9714459.38866928,4682201.3087657,0.000130833388539031],[-9714460.67574524,4682201.42562579,0.000130833388539031],[-9714460.91296707,4682198.89037572,0.000130833388539031],[-9714462.1999317,4682199.00723578,0.000130833388539031],[-9714462.31859828,4682197.73961097,0.000130833388539031],[-9714463.60567423,4682197.85632833,0.000130833388539031],[-9714463.84289607,4682195.32107915,0.000130833388539031],[-9714465.1298607,4682195.43793917,0.000130833388539031],[-9714465.36708254,4682192.90269059,0.000130833388539031],[-9714466.65415849,4682193.01955058,0.000130833388539031],[-9714466.77282507,4682191.75192651,0.000130833388539031],[-9714468.0597897,4682191.86864381,0.000130833388539031],[-9714468.17845628,4682190.60101988,0.000130833388539031],[-9714469.46542091,4682190.71787985,0.000130833388539031],[-9714469.58408749,4682189.45025607,0.000130833388539031],[-9714470.87116344,4682189.56711602,0.000130833388539031],[-9714470.9897187,4682188.29934969,0.000130833388539031],[-9714472.27679465,4682188.41620963,0.000130833388539031],[-9714472.51401649,4682185.8809628,0.000130833388539031],[-9714473.80109244,4682185.99782271,0.000130833388539031],[-9714474.15686953,4682182.1949536,0.000130833388539031],[-9714475.44394548,4682182.31167078,0.000130833388539031],[-9714475.68116732,4682179.77642546,0.000130833388539031],[-9714476.96813195,4682179.89328531,0.000130833388539031],[-9714477.20535379,4682177.35804059,0.000130833388539031],[-9714478.49242974,4682177.47475772,0.000130833388539031],[-9714478.84831815,4682173.67189178,0.000130833388539031],[-9714480.13528278,4682173.78875156,0.000130833388539031],[-9714480.49117119,4682169.985887,0.000130833388539031],[-9714481.77813583,4682170.10260404,0.000130833388539031],[-9714482.13402424,4682166.29974086,0.000130833388539031],[-9714483.42110019,4682166.41660054,0.000130833388539031],[-9714483.65832203,4682163.88135918,0.000130833388539031],[-9714484.94528666,4682163.99807616,0.000130833388539031],[-9714485.1825085,4682161.46283539,0.000130833388539031],[-9714486.46958445,4682161.57969503,0.000130833388539031],[-9714486.70680628,4682159.04445487,0.000130833388539031],[-9714487.99377092,4682159.16131447,0.000130833388539031],[-9714488.11243749,4682157.89355192,0.000130833388539031],[-9714489.39951345,4682158.01041151,0.000130833388539031],[-9714489.63673528,4682155.47517224,0.000130833388539031],[-9714490.92369991,4682155.5920318,0.000130833388539031],[-9714491.04236649,4682154.32441239,0.000130833388539031],[-9714492.32933113,4682154.44112925,0.000130833388539031],[-9714492.4479977,4682153.17350998,0.000130833388539031],[-9714493.73496234,4682153.29036952,0.000130833388539031],[-9714493.85362891,4682152.02275039,0.000130833388539031],[-9714495.14070487,4682152.13960991,0.000130833388539031],[-9714495.25926012,4682150.87199093,0.000130833388539031],[-9714496.54633607,4682150.98870775,0.000130833388539031],[-9714496.66489133,4682149.72108891,0.000130833388539031],[-9714497.95196729,4682149.83794841,0.000130833388539031],[-9714498.07052254,4682148.57032971,0.000130833388539031],[-9714499.35759849,4682148.68718919,0.000130833388539031],[-9714499.47615375,4682147.41942795,0.000130833388539031],[-9714500.7632297,4682147.53628742,0.000130833388539031],[-9714500.88178496,4682146.26866901,0.000130833388539031],[-9714503.45593687,4682146.50238792,0.000130833388539031],[-9714503.57449213,4682145.23462695,0.000130833388539031],[-9714506.14864403,4682145.46834585,0.000130833388539031],[-9714506.26719929,4682144.20072769,0.000130833388539031],[-9714508.84123987,4682144.43430387,0.000130833388539031],[-9714508.95990645,4682143.16668585,0.000130833388539031],[-9714511.53394704,4682143.40040469,0.000130833388539031],[-9714511.6525023,4682142.13264411,0.000130833388539031],[-9714514.2266542,4682142.36636293,0.000130833388539031],[-9714514.34520946,4682141.09874516,0.000130833388539031],[-9714518.206326,4682141.44918068,0.000130833388539031],[-9714518.32499257,4682140.18156302,0.000130833388539031],[-9714523.47307374,4682140.64885789,0.000130833388539031],[-9714523.59174032,4682139.38109765,0.000130833388539031],[-9714531.31386208,4682140.08211125,0.000130833388539031],[-9714531.43252865,4682138.81449377,0.000130833388539031],[-9714537.86768578,4682139.39850527,0.000130833388539031],[-9714537.98624104,4682138.13088787,0.000130833388539031],[-9714541.84735757,4682138.48132328,0.000130833388539031],[-9714541.96602415,4682137.21370599,0.000130833388539031],[-9714545.82714069,4682137.56414138,0.000130833388539031],[-9714545.94569595,4682136.2965242,0.000130833388539031],[-9714547.2327719,4682136.41324086,0.000130833388539031],[-9714547.35132716,4682135.14562383,0.000130833388539031],[-9714549.92536774,4682135.37934249,0.000130833388539031],[-9714550.04403432,4682134.11172559,0.000130833388539031],[-9714551.33099895,4682134.22844222,0.000130833388539031],[-9714551.44966553,4682132.96082546,0.000130833388539031],[-9714554.02370612,4682133.19454408,0.000130833388539031],[-9714554.14226138,4682131.92692744,0.000130833388539031],[-9714556.71641328,4682132.16050335,0.000130833388539031],[-9714556.83496854,4682130.89288684,0.000130833388539031],[-9714561.98316103,4682131.36003861,0.000130833388539031],[-9714561.86449445,4682132.62779785,0.000130833388539031],[-9714563.1515704,4682132.74451447,0.000130833388539031],[-9714563.03301515,4682134.0121312,0.000130833388539031],[-9714564.31997978,4682134.12899052,0.000130833388539031],[-9714564.20142452,4682135.39660742,0.000130833388539031],[-9714565.48838916,4682135.51346675,0.000130833388539031],[-9714565.3698339,4682136.78108383,0.000130833388539031],[-9714566.65690985,4682136.89780049,0.000130833388539031],[-9714566.41968802,4682139.43317784,0.000130833388539031],[-9714567.70665265,4682139.54989453,0.000130833388539031],[-9714567.58809739,4682140.81751211,0.000130833388539031],[-9714568.87517334,4682140.9343715,0.000130833388539031],[-9714568.75650677,4682142.20198925,0.000130833388539031],[-9714570.04358272,4682142.31884866,0.000130833388539031],[-9714569.92502746,4682143.58646659,0.000130833388539031],[-9714571.21199209,4682143.70332601,0.000130833388539031],[-9714570.97477026,4682146.23856236,0.000130833388539031],[-9714572.26184621,4682146.35527913,0.000130833388539031],[-9714572.02462438,4682148.89065882,0.000130833388539031],[-9714573.31170033,4682149.00737562,0.000130833388539031],[-9714573.07447849,4682151.54261329,0.000130833388539031],[-9714574.36155445,4682151.65947281,0.000130833388539031],[-9714574.12433261,4682154.19471113,0.000130833388539031],[-9714575.41140857,4682154.31157068,0.000130833388539031],[-9714575.17418673,4682156.84680967,0.000130833388539031],[-9714576.46126268,4682156.96366924,0.000130833388539031],[-9714576.22404085,4682159.49890889,0.000130833388539031],[-9714577.5111168,4682159.6157685,0.000130833388539031],[-9714577.27389496,4682162.1510088,0.000130833388539031],[-9714578.5608596,4682162.26772575,0.000130833388539031],[-9714578.20508251,4682166.07073012,0.000130833388539031],[-9714579.49215846,4682166.18744712,0.000130833388539031],[-9714579.25493662,4682168.72283174,0.000130833388539031],[-9714580.54201258,4682168.83954877,0.000130833388539031],[-9714580.30479074,4682171.37479137,0.000130833388539031],[-9714581.59186669,4682171.49165111,0.000130833388539031],[-9714581.11742302,4682176.56213825,0.000130833388539031],[-9714582.40449897,4682176.67899806,0.000130833388539031],[-9714581.93005531,4682181.74948778,0.000130833388539031],[-9714583.21713126,4682181.86634765,0.000130833388539031],[-9714582.86135417,4682185.66921664,0.000130833388539031],[-9714584.14843012,4682185.78607654,0.000130833388539031],[-9714583.91120828,4682188.32132336,0.000130833388539031],[-9714585.19828423,4682188.4381833,0.000130833388539031],[-9714584.9610624,4682190.97343077,0.000130833388539031],[-9714586.24802703,4682191.09029074,0.000130833388539031],[-9714586.12947178,4682192.35791472,0.000130833388539031],[-9714587.41654773,4682192.47463202,0.000130833388539031],[-9714587.06077064,4682196.27764765,0.000130833388539031],[-9714588.34773527,4682196.394365,0.000130833388539031],[-9714588.22918001,4682197.66198965,0.000130833388539031],[-9714589.51625596,4682197.77884969,0.000130833388539031],[-9714589.39758939,4682199.04647451,0.000130833388539031],[-9714590.68466534,4682199.16333457,0.000130833388539031],[-9714590.44744351,4682201.69858471,0.000130833388539031],[-9714598.1697879,4682202.39945992,0.000130833388539031],[-9714598.05112132,4682203.66708531,0.000130833388539031],[-9714603.19931381,4682204.1342404,0.000130833388539031],[-9714603.08075856,4682205.4020087,0.000130833388539031],[-9714605.65479914,4682205.63558628,0.000130833388539031],[-9714605.77346572,4682204.36796065,0.000130833388539031],[-9714607.06043035,4682204.48467809,0.000130833388539031],[-9714607.41620744,4682200.68180208,0.000130833388539031],[-9714609.99035935,4682200.91537955,0.000130833388539031],[-9714610.34613644,4682197.11250488,0.000130833388539031],[-9714611.63310108,4682197.22936492,0.000130833388539031],[-9714613.88643021,4682173.14423925,0.000130833388539031],[-9714612.59935426,4682173.02737949,0.000130833388539031],[-9714612.95513135,4682169.22451522,0.000130833388539031],[-9714611.66816671,4682169.1076555,0.000130833388539031],[-9714612.26116564,4682162.76955159,0.000130833388539031],[-9714610.97408969,4682162.65269195,0.000130833388539031],[-9714611.32986678,4682158.84983154,0.000130833388539031],[-9714610.04279083,4682158.73297195,0.000130833388539031],[-9714611.22878868,4682146.0566383,0.000130833388539031],[-9714612.51575332,4682146.17349775,0.000130833388539031],[-9714612.6344199,4682144.90587951,0.000130833388539031],[-9714613.92138453,4682145.02259626,0.000130833388539031],[-9714614.04005111,4682143.75497816,0.000130833388539031],[-9714616.61409169,4682143.98869702,0.000130833388539031],[-9714616.49553643,4682145.25631515,0.000130833388539031],[-9714620.35665297,4682145.60675081,0.000130833388539031],[-9714620.23798639,4682146.87436914,0.000130833388539031],[-9714640.83064504,4682148.74312193,0.000130833388539031],[-9714640.71208978,4682150.01074066,0.000130833388539031],[-9714643.28613037,4682150.24445966,0.000130833388539031],[-9714643.16757511,4682151.51207857,0.000130833388539031],[-9714647.02858033,4682151.86251444,0.000130833388539031],[-9714646.91002507,4682153.13013355,0.000130833388539031],[-9714661.06752659,4682154.41487509,0.000130833388539031],[-9714661.18608185,4682153.14725583,0.000130833388539031],[-9714667.62123897,4682153.73126815,0.000130833388539031],[-9714667.50268371,4682154.99888749,0.000130833388539031],[-9714668.78975967,4682155.11574705,0.000130833388539031],[-9714668.67109309,4682156.38336656,0.000130833388539031],[-9714669.95816904,4682156.50008345,0.000130833388539031],[-9714669.83961378,4682157.76770313,0.000130833388539031],[-9714671.12657842,4682157.88456272,0.000130833388539031],[-9714671.00802316,4682159.15218258,0.000130833388539031],[-9714673.58206374,4682159.38575911,0.000130833388539031],[-9714673.46350849,4682160.65337915,0.000130833388539031],[-9714674.75058444,4682160.77023878,0.000130833388539031],[-9714674.63191786,4682162.03785899,0.000130833388539031],[-9714677.20606977,4682162.27143559,0.000130833388539031],[-9714677.08751451,4682163.53905599,0.000130833388539031],[-9714680.94863105,4682163.88949227,0.000130833388539031],[-9714680.82996447,4682165.15711288,0.000130833388539031],[-9714682.11704042,4682165.27397255,0.000130833388539031],[-9714682.23559568,4682164.00620924,0.000130833388539031],[-9714684.80974758,4682164.23992857,0.000130833388539031],[-9714684.92830284,4682162.97216539,0.000130833388539031],[-9714683.64122689,4682162.85544843,0.000130833388539031],[-9714684.11555924,4682157.78482542,0.000130833388539031],[-9714685.40263519,4682157.90168501,0.000130833388539031],[-9714685.63974571,4682155.36644576,0.000130833388539031],[-9714684.35278108,4682155.2495862,0.000130833388539031],[-9714684.58989159,4682152.71434761,0.000130833388539031],[-9714687.1640435,4682152.947924,0.000130833388539031],[-9714687.51970927,4682149.14506721,0.000130833388539031],[-9714684.94566868,4682148.91149092,0.000130833388539031],[-9714685.06422394,4682147.64387233,0.000130833388539031],[-9714682.49018336,4682147.41029608,0.000130833388539031],[-9714682.72740519,4682144.87491675,0.000130833388539031],[-9714681.44032924,4682144.7582,0.000130833388539031],[-9714681.55888449,4682143.49058193,0.000130833388539031],[-9714680.27191986,4682143.37372251,0.000130833388539031],[-9714680.62758564,4682139.57086929,0.000130833388539031],[-9714679.340621,4682139.45400991,0.000130833388539031],[-9714680.05206387,4682131.84830782,0.000130833388539031],[-9714681.33913982,4682131.96502443,0.000130833388539031],[-9714681.57636166,4682129.42979163,0.000130833388539031],[-9714682.86332629,4682129.5466509,0.000130833388539031],[-9714682.98188155,4682128.27889203,0.000130833388539031],[-9714684.2689575,4682128.39575129,0.000130833388539031],[-9714684.38751276,4682127.12813525,0.000130833388539031],[-9714685.67458871,4682127.24499449,0.000130833388539031],[-9714686.0303658,4682123.44200461,0.000130833388539031],[-9714684.74328985,4682123.3252881,0.000130833388539031],[-9714684.86184511,4682122.05767269,0.000130833388539031],[-9714682.28780452,4682121.82395434,0.000130833388539031],[-9714682.40635978,4682120.55633912,0.000130833388539031],[-9714677.25827861,4682120.08918785,0.000130833388539031],[-9714677.37683386,4682118.82157286,0.000130833388539031],[-9714669.65460079,4682118.12084608,0.000130833388539031],[-9714669.77326737,4682116.85308864,0.000130833388539031],[-9714660.76395834,4682116.03550289,0.000130833388539031],[-9714660.64540308,4682117.30311754,0.000130833388539031],[-9714658.07136249,4682117.06954198,0.000130833388539031],[-9714658.18991775,4682115.80192735,0.000130833388539031],[-9714653.04183658,4682115.3347763,0.000130833388539031],[-9714653.16039184,4682114.06716189,0.000130833388539031],[-9714650.58635125,4682113.8335864,0.000130833388539031],[-9714650.70490651,4682112.56597218,0.000130833388539031],[-9714649.41783056,4682112.44911311,0.000130833388539031],[-9714649.53649713,4682111.18149906,0.000130833388539031],[-9714648.24942118,4682111.06464,0.000130833388539031],[-9714648.36797644,4682109.79702613,0.000130833388539031],[-9714647.08101181,4682109.68030977,0.000130833388539031],[-9714647.19956707,4682108.41255338,0.000130833388539031],[-9714644.62552648,4682108.17897802,0.000130833388539031],[-9714644.74408174,4682106.9113645,0.000130833388539031],[-9714643.45700578,4682106.79464818,0.000130833388539031],[-9714643.57567236,4682105.52689215,0.000130833388539031],[-9714641.00163178,4682105.29331686,0.000130833388539031],[-9714641.12018703,4682104.02570369,0.000130833388539031],[-9714638.54614645,4682103.79212844,0.000130833388539031],[-9714638.6647017,4682102.52451546,0.000130833388539031],[-9714634.80358517,4682102.17408129,0.000130833388539031],[-9714634.92214042,4682100.90646851,0.000130833388539031],[-9714632.34809984,4682100.67289333,0.000130833388539031],[-9714632.46676642,4682099.40528074,0.000130833388539031],[-9714628.60564988,4682099.05484667,0.000130833388539031],[-9714628.72420513,4682097.78723429,0.000130833388539031],[-9714626.15016455,4682097.55365917,0.000130833388539031],[-9714626.26871981,4682096.28590429,0.000130833388539031],[-9714624.98175518,4682096.16918809,0.000130833388539031],[-9714625.10031043,4682094.90157606,0.000130833388539031],[-9714623.81323448,4682094.78471719,0.000130833388539031],[-9714624.05045631,4682092.24949364,0.000130833388539031],[-9714622.76338036,4682092.13263481,0.000130833388539031],[-9714624.18648873,4682076.92116422,0.000130833388539031],[-9714625.47356468,4682077.03802288,0.000130833388539031],[-9714625.71078652,4682074.50280374,0.000130833388539031],[-9714626.99775115,4682074.61951969,0.000130833388539031],[-9714627.35352824,4682070.81669212,0.000130833388539031],[-9714628.6406042,4682070.93355072,0.000130833388539031],[-9714628.75915946,4682069.66579914,0.000130833388539031],[-9714630.04623541,4682069.78265772,0.000130833388539031],[-9714630.16479067,4682068.51504897,0.000130833388539031],[-9714631.4517553,4682068.63190754,0.000130833388539031],[-9714631.57042188,4682067.36415625,0.000130833388539031],[-9714632.85738651,4682067.4810148,0.000130833388539031],[-9714632.97605309,4682066.21340634,0.000130833388539031],[-9714634.26301772,4682066.33026489,0.000130833388539031],[-9714634.50023955,4682063.79490572,0.000130833388539031],[-9714635.78720419,4682063.91176424,0.000130833388539031],[-9714635.90587076,4682062.64415622,0.000130833388539031],[-9714637.1928354,4682062.76087203,0.000130833388539031],[-9714637.31150197,4682061.49326416,0.000130833388539031],[-9714636.02442602,4682061.37654836,0.000130833388539031],[-9714636.14298128,4682060.10894066,0.000130833388539031],[-9714627.13378357,4682059.29121677,0.000130833388539031],[-9714627.01522831,4682060.55896706,0.000130833388539031],[-9714624.44118773,4682060.32525011,0.000130833388539031],[-9714624.32263247,4682061.59285784,0.000130833388539031],[-9714623.03555652,4682061.47614204,0.000130833388539031],[-9714622.91700126,4682062.74374991,0.000130833388539031],[-9714621.62992531,4682062.62689141,0.000130833388539031],[-9714621.51137005,4682063.89449942,0.000130833388539031],[-9714620.2242941,4682063.7777836,0.000130833388539031],[-9714620.10573884,4682065.04539175,0.000130833388539031],[-9714618.81866289,4682064.92853323,0.000130833388539031],[-9714618.70010763,4682066.19614153,0.000130833388539031],[-9714617.413143,4682066.07942568,0.000130833388539031],[-9714617.17592116,4682068.61464272,0.000130833388539031],[-9714615.88884521,4682068.49778416,0.000130833388539031],[-9714615.77028995,4682069.7653929,0.000130833388539031],[-9714614.483214,4682069.648677,0.000130833388539031],[-9714614.36465874,4682070.91628589,0.000130833388539031],[-9714613.07758279,4682070.7994273,0.000130833388539031],[-9714612.95902753,4682072.06703633,0.000130833388539031],[-9714611.6720629,4682071.95032041,0.000130833388539031],[-9714611.55339632,4682073.21792958,0.000130833388539031],[-9714610.26643169,4682073.10107096,0.000130833388539031],[-9714610.14776511,4682074.36868028,0.000130833388539031],[-9714608.86080048,4682074.25196433,0.000130833388539031],[-9714608.62357864,4682076.78718341,0.000130833388539031],[-9714607.33650269,4682076.67032475,0.000130833388539031],[-9714607.21794743,4682077.93793451,0.000130833388539031],[-9714605.9309828,4682077.82121852,0.000130833388539031],[-9714605.81231622,4682079.08882842,0.000130833388539031],[-9714604.52535159,4682078.97196974,0.000130833388539031],[-9714604.40668501,4682080.23957978,0.000130833388539031],[-9714603.11972038,4682080.12286377,0.000130833388539031],[-9714603.0010538,4682081.39047396,0.000130833388539031],[-9714600.42701321,4682081.15675654,0.000130833388539031],[-9714600.30845796,4682082.42450954,0.000130833388539031],[-9714599.02138201,4682082.30765081,0.000130833388539031],[-9714598.90282675,4682083.57526127,0.000130833388539031],[-9714596.32878616,4682083.34168649,0.000130833388539031],[-9714596.21011958,4682084.60929707,0.000130833388539031],[-9714582.0528407,4682083.32442164,0.000130833388539031],[-9714582.17139596,4682082.05681121,0.000130833388539031],[-9714578.31039074,4682081.70637774,0.000130833388539031],[-9714578.428946,4682080.43876751,0.000130833388539031],[-9714575.85490542,4682080.20505011,0.000130833388539031],[-9714575.97346067,4682078.93744006,0.000130833388539031],[-9714574.68649604,4682078.82072407,0.000130833388539031],[-9714574.8050513,4682077.55297151,0.000130833388539031],[-9714572.23101071,4682077.31939686,0.000130833388539031],[-9714572.46823255,4682074.78417765,0.000130833388539031],[-9714571.18115659,4682074.66731902,0.000130833388539031],[-9714571.29971185,4682073.39970966,0.000130833388539031],[-9714570.01274722,4682073.28299372,0.000130833388539031],[-9714570.13130248,4682072.01524185,0.000130833388539031],[-9714568.84433784,4682071.89852593,0.000130833388539031],[-9714569.08144836,4682069.36330808,0.000130833388539031],[-9714567.79448372,4682069.2464495,0.000130833388539031],[-9714567.91303898,4682067.97884082,0.000130833388539031],[-9714566.62607435,4682067.86198226,0.000130833388539031],[-9714566.74462961,4682066.59437375,0.000130833388539031],[-9714564.17058902,4682066.36079935,0.000130833388539031],[-9714564.40781086,4682063.82558287,0.000130833388539031],[-9714563.1207349,4682063.70872435,0.000130833388539031],[-9714563.59517857,4682058.63829334,0.000130833388539031],[-9714562.30810262,4682058.52143488,0.000130833388539031],[-9714563.37554522,4682047.11283175,0.000130833388539031],[-9714564.66250985,4682047.22969007,0.000130833388539031],[-9714565.01828694,4682043.42673004,0.000130833388539031],[-9714566.3053629,4682043.54358832,0.000130833388539031],[-9714566.42391816,4682042.27598283,0.000130833388539031],[-9714567.71099411,4682042.39284109,0.000130833388539031],[-9714568.0667712,4682038.58988286,0.000130833388539031],[-9714569.35384715,4682038.70674108,0.000130833388539031],[-9714569.47240241,4682037.4391362,0.000130833388539031],[-9714570.75947836,4682037.55599441,0.000130833388539031],[-9714570.87803362,4682036.28838967,0.000130833388539031],[-9714572.16499826,4682036.40510519,0.000130833388539031],[-9714572.40222009,4682033.86989615,0.000130833388539031],[-9714573.68929604,4682033.98675432,0.000130833388539031],[-9714573.8078513,4682032.71915002,0.000130833388539031],[-9714575.09492725,4682032.8358655,0.000130833388539031],[-9714575.33203777,4682030.30065735,0.000130833388539031],[-9714576.61911372,4682030.41751548,0.000130833388539031],[-9714576.85633555,4682027.88230793,0.000130833388539031],[-9714578.14330019,4682027.99902334,0.000130833388539031],[-9714578.26196676,4682026.73141979,0.000130833388539031],[-9714579.5489314,4682026.84827788,0.000130833388539031],[-9714579.78615323,4682024.31307122,0.000130833388539031],[-9714581.07311787,4682024.42978659,0.000130833388539031],[-9714581.19178444,4682023.16218349,0.000130833388539031],[-9714582.47874908,4682023.27904154,0.000130833388539031],[-9714582.59741565,4682022.01143857,0.000130833388539031],[-9714583.88438029,4682022.12815392,0.000130833388539031],[-9714584.12160212,4682019.59294843,0.000130833388539031],[-9714585.40856676,4682019.70980644,0.000130833388539031],[-9714585.64578859,4682017.17460155,0.000130833388539031],[-9714586.93286454,4682017.29131685,0.000130833388539031],[-9714587.0514198,4682016.02371463,0.000130833388539031],[-9714588.33838443,4682016.14057259,0.000130833388539031],[-9714588.45705101,4682014.87297052,0.000130833388539031],[-9714589.74401564,4682014.98968578,0.000130833388539031],[-9714589.98123748,4682012.45448207,0.000130833388539031],[-9714591.26820211,4682012.57134,0.000130833388539031],[-9714591.50542395,4682010.03613688,0.000130833388539031],[-9714592.7924999,4682010.1528521,0.000130833388539031],[-9714592.91105515,4682008.88525076,0.000130833388539031],[-9714594.19813111,4682009.00210865,0.000130833388539031],[-9714594.31668636,4682007.73450746,0.000130833388539031],[-9714595.603651,4682007.85122264,0.000130833388539031],[-9714595.72231758,4682006.5836216,0.000130833388539031],[-9714597.00928221,4682006.70047946,0.000130833388539031],[-9714597.24650405,4682004.1652778,0.000130833388539031],[-9714598.53346868,4682004.28199295,0.000130833388539031],[-9714598.65213525,4682003.01439235,0.000130833388539031],[-9714599.93909989,4682003.13125016,0.000130833388539031],[-9714600.05776646,4682001.8636497,0.000130833388539031],[-9714601.3447311,4682001.98036482,0.000130833388539031],[-9714601.58195293,4681999.44516434,0.000130833388539031],[-9714602.86891757,4681999.56202212,0.000130833388539031],[-9714603.22469466,4681995.75922254,0.000130833388539031],[-9714604.51177061,4681995.87593759,0.000130833388539031],[-9714604.74888113,4681993.34073863,0.000130833388539031],[-9714606.03595708,4681993.45759634,0.000130833388539031],[-9714606.27317891,4681990.9222553,0.000130833388539031],[-9714607.56014355,4681991.03911298,0.000130833388539031],[-9714607.79736538,4681988.50391522,0.000130833388539031],[-9714609.08433002,4681988.62077287,0.000130833388539031],[-9714609.44010711,4681984.81783469,0.000130833388539031],[-9714610.72718306,4681984.93469229,0.000130833388539031],[-9714610.84573832,4681983.66709409,0.000130833388539031],[-9714612.13270295,4681983.78380901,0.000130833388539031],[-9714612.36992478,4681981.24861306,0.000130833388539031],[-9714613.65700074,4681981.36547062,0.000130833388539031],[-9714614.01277783,4681977.56267783,0.000130833388539031],[-9714615.29974246,4681977.67939267,0.000130833388539031],[-9714615.5369643,4681975.14419824,0.000130833388539031],[-9714616.82392893,4681975.26105574,0.000130833388539031],[-9714617.06115077,4681972.72571922,0.000130833388539031],[-9714618.3481154,4681972.84257669,0.000130833388539031],[-9714618.58533723,4681970.30738346,0.000130833388539031],[-9714619.87230187,4681970.42409821,0.000130833388539031],[-9714620.22807896,4681966.62130951,0.000130833388539031],[-9714621.51515491,4681966.7381669,0.000130833388539031],[-9714621.75226543,4681964.20297519,0.000130833388539031],[-9714623.03934138,4681964.31968988,0.000130833388539031],[-9714623.15789664,4681963.05209424,0.000130833388539031],[-9714624.44497259,4681963.1689516,0.000130833388539031],[-9714624.80074968,4681959.36602292,0.000130833388539031],[-9714626.08771432,4681959.48288023,0.000130833388539031],[-9714626.32493615,4681956.94769032,0.000130833388539031],[-9714627.61190078,4681957.06454761,0.000130833388539031],[-9714627.84912262,4681954.52921562,0.000130833388539031],[-9714629.13608725,4681954.64607288,0.000130833388539031],[-9714629.25464251,4681953.37847844,0.000130833388539031],[-9714630.54171846,4681953.49519301,0.000130833388539031],[-9714630.7789403,4681950.96000459,0.000130833388539031],[-9714632.06590493,4681951.07686181,0.000130833388539031],[-9714632.18446019,4681949.80926782,0.000130833388539031],[-9714633.47153614,4681949.92598234,0.000130833388539031],[-9714633.70864666,4681947.39079481,0.000130833388539031],[-9714634.99572261,4681947.50765199,0.000130833388539031],[-9714635.23283312,4681944.97246505,0.000130833388539031],[-9714636.51990908,4681945.08917952,0.000130833388539031],[-9714637.58712904,4681933.68070331,0.000130833388539031],[-9714638.87420499,4681933.79756034,0.000130833388539031],[-9714638.99276024,4681932.52996849,0.000130833388539031],[-9714640.2798362,4681932.64668282,0.000130833388539031],[-9714640.39839145,4681931.37909113,0.000130833388539031],[-9714641.68535609,4681931.49594812,0.000130833388539031],[-9714641.92257792,4681928.96076517,0.000130833388539031],[-9714643.20954256,4681929.07747945,0.000130833388539031],[-9714643.56531965,4681925.27470617,0.000130833388539031],[-9714644.8523956,4681925.39156309,0.000130833388539031],[-9714644.97095086,4681924.12397229,0.000130833388539031],[-9714646.25791549,4681924.24068652,0.000130833388539031],[-9714646.49513733,4681921.70550537,0.000130833388539031],[-9714647.78210196,4681921.82236225,0.000130833388539031],[-9714648.01932379,4681919.28703903,0.000130833388539031],[-9714649.30628843,4681919.40389589,0.000130833388539031],[-9714649.54351026,4681916.86871594,0.000130833388539031],[-9714650.83047489,4681916.98543009,0.000130833388539031],[-9714651.06769673,4681914.45025074,0.000130833388539031],[-9714652.35466136,4681914.56710754,0.000130833388539031],[-9714652.71043846,4681910.76419698,0.000130833388539031],[-9714653.99740309,4681910.88105374,0.000130833388539031],[-9714654.59040201,4681904.54311036,0.000130833388539031],[-9714655.87736665,4681904.65982437,0.000130833388539031],[-9714655.75881139,4681905.92741274,0.000130833388539031],[-9714657.04577603,4681906.04426945,0.000130833388539031],[-9714657.1644426,4681904.77668105,0.000130833388539031],[-9714661.02544782,4681905.12696577,0.000130833388539031],[-9714661.26255834,4681902.59178937,0.000130833388539031],[-9714659.9755937,4681902.47507539,0.000130833388539031],[-9714660.21270422,4681899.93975697,0.000130833388539031],[-9714658.92573958,4681899.82304302,0.000130833388539031],[-9714659.16296142,4681897.28786794,0.000130833388539031],[-9714660.44992605,4681897.40458187,0.000130833388539031],[-9714660.68703657,4681894.86940739,0.000130833388539031],[-9714661.97411252,4681894.98626397,0.000130833388539031],[-9714662.21122304,4681892.45094741,0.000130833388539031],[-9714663.49829899,4681892.56780396,0.000130833388539031],[-9714663.97263134,4681887.49745805,0.000130833388539031],[-9714665.25959597,4681887.61417185,0.000130833388539031],[-9714666.08970542,4681878.74107247,0.000130833388539031],[-9714667.37667005,4681878.85778618,0.000130833388539031],[-9714667.73244714,4681875.05503162,0.000130833388539031],[-9714669.01941178,4681875.17174529,0.000130833388539031],[-9714669.37518887,4681871.36899211,0.000130833388539031],[-9714670.66226482,4681871.48584841,0.000130833388539031],[-9714671.01793059,4681867.68295392,0.000130833388539031],[-9714672.30500654,4681867.79981019,0.000130833388539031],[-9714672.66067232,4681863.99705975,0.000130833388539031],[-9714673.94774827,4681864.1137733,0.000130833388539031],[-9714674.18485879,4681861.5786071,0.000130833388539031],[-9714675.47193474,4681861.69546329,0.000130833388539031],[-9714675.70904525,4681859.16015502,0.000130833388539031],[-9714676.99600989,4681859.27701118,0.000130833388539031],[-9714677.23323172,4681856.74184619,0.000130833388539031],[-9714678.52019635,4681856.85855965,0.000130833388539031],[-9714678.75741819,4681854.32339526,0.000130833388539031],[-9714680.04438282,4681854.44025136,0.000130833388539031],[-9714680.28160466,4681851.90508757,0.000130833388539031],[-9714681.56856929,4681852.02180097,0.000130833388539031],[-9714681.92434638,4681848.21905643,0.000130833388539031],[-9714683.21131102,4681848.33576979,0.000130833388539031],[-9714683.32986628,4681847.06818857,0.000130833388539031],[-9714684.61694223,4681847.1850446,0.000130833388539031],[-9714684.85405274,4681844.64988261,0.000130833388539031],[-9714686.14101737,4681844.76659593,0.000130833388539031],[-9714686.25968395,4681843.49901516,0.000130833388539031],[-9714687.54664859,4681843.61587114,0.000130833388539031],[-9714687.7837591,4681841.08056736,0.000130833388539031],[-9714689.07083505,4681841.19742332,0.000130833388539031],[-9714689.18939031,4681839.92984299,0.000130833388539031],[-9714690.47635494,4681840.04655626,0.000130833388539031],[-9714690.5949102,4681838.77897607,0.000130833388539031],[-9714689.30794557,4681838.66226282,0.000130833388539031],[-9714689.42650083,4681837.39468281,0.000130833388539031],[-9714688.13953619,4681837.27782689,0.000130833388539031],[-9714688.49531329,4681833.47508784,0.000130833388539031],[-9714689.78227792,4681833.59180103,0.000130833388539031],[-9714690.01949975,4681831.05664242,0.000130833388539031],[-9714691.30646439,4681831.17349827,0.000130833388539031],[-9714691.5435749,4681828.63834026,0.000130833388539031],[-9714692.83065086,4681828.7550534,0.000130833388539031],[-9714693.42353846,4681822.41716107,0.000130833388539031],[-9714694.71050309,4681822.53387413,0.000130833388539031],[-9714694.82905835,4681821.26629612,0.000130833388539031],[-9714696.11613431,4681821.38315185,0.000130833388539031],[-9714696.47180008,4681817.58027605,0.000130833388539031],[-9714697.75887603,4681817.69713174,0.000130833388539031],[-9714697.99598655,4681815.16197708,0.000130833388539031],[-9714699.28295118,4681815.27869007,0.000130833388539031],[-9714699.63872827,4681811.47595922,0.000130833388539031],[-9714700.92569291,4681811.59267216,0.000130833388539031],[-9714701.16291474,4681809.05751902,0.000130833388539031],[-9714702.44987937,4681809.17437462,0.000130833388539031],[-9714702.80565647,4681805.37164605,0.000130833388539031],[-9714704.0926211,4681805.48835891,0.000130833388539031],[-9714704.44828688,4681801.68563172,0.000130833388539031],[-9714705.73536283,4681801.80234454,0.000130833388539031],[-9714706.0910286,4681797.99961873,0.000130833388539031],[-9714707.37810455,4681798.11647419,0.000130833388539031],[-9714707.73377032,4681794.31360707,0.000130833388539031],[-9714709.02084628,4681794.43046249,0.000130833388539031],[-9714709.13940153,4681793.16288797,0.000130833388539031],[-9714710.42636617,4681793.2796007,0.000130833388539031],[-9714710.54492143,4681792.01202633,0.000130833388539031],[-9714713.11896201,4681792.24559445,0.000130833388539031],[-9714713.00040675,4681793.51316885,0.000130833388539031],[-9714714.28737139,4681793.63002427,0.000130833388539031],[-9714714.40592664,4681792.36244985,0.000130833388539031],[-9714716.97996723,4681792.59601797,0.000130833388539031],[-9714717.335633,4681788.79329559,0.000130833388539031],[-9714716.04866837,4681788.67644023,0.000130833388539031],[-9714717.11588833,4681777.26813903,0.000130833388539031],[-9714715.82881238,4681777.15142648,0.000130833388539031],[-9714716.18458947,4681773.34856717,0.000130833388539031],[-9714717.4715541,4681773.46542236,0.000130833388539031],[-9714717.82733119,4681769.66256442,0.000130833388539031],[-9714719.11429583,4681769.77941956,0.000130833388539031],[-9714719.47007292,4681765.97670569,0.000130833388539031],[-9714720.75703755,4681766.09341811,0.000130833388539031],[-9714720.87559281,4681764.82584712,0.000130833388539031],[-9714722.16255744,4681764.9427022,0.000130833388539031],[-9714722.2811127,4681763.67513135,0.000130833388539031],[-9714723.56818865,4681763.79184375,0.000130833388539031],[-9714723.68674391,4681762.52427304,0.000130833388539031],[-9714724.97370854,4681762.6411281,0.000130833388539031],[-9714725.0922638,4681761.37341485,0.000130833388539031],[-9714728.95326902,4681761.72383732,0.000130833388539031],[-9714729.07182428,4681760.45626687,0.000130833388539031],[-9714734.21979413,4681760.92340166,0.000130833388539031],[-9714734.10123887,4681762.19097217,0.000130833388539031],[-9714736.67516814,4681762.4245396,0.000130833388539031],[-9714736.79383472,4681761.15696907,0.000130833388539031],[-9714738.08079935,4681761.27382411,0.000130833388539031],[-9714738.43646512,4681757.47097072,0.000130833388539031],[-9714737.14950049,4681757.3542584,0.000130833388539031],[-9714737.26805575,4681756.0866885,0.000130833388539031],[-9714735.98109111,4681755.96983351,0.000130833388539031],[-9714736.09964637,4681754.70226378,0.000130833388539031],[-9714734.81268174,4681754.58540881,0.000130833388539031],[-9714734.931237,4681753.31783925,0.000130833388539031],[-9714733.64427236,4681753.20112698,0.000130833388539031],[-9714733.76282762,4681751.93355759,0.000130833388539031],[-9714732.47586299,4681751.81670265,0.000130833388539031],[-9714732.7129735,4681749.28156437,0.000130833388539031],[-9714733.99993813,4681749.39841928,0.000130833388539031],[-9714734.23715997,4681746.86313893,0.000130833388539031],[-9714735.5241246,4681746.97999381,0.000130833388539031],[-9714735.76123512,4681744.44485673,0.000130833388539031],[-9714737.04831107,4681744.56156891,0.000130833388539031],[-9714737.16686633,4681743.29400059,0.000130833388539031],[-9714738.45383096,4681743.41085543,0.000130833388539031],[-9714738.57238622,4681742.14314458,0.000130833388539031],[-9714739.85935085,4681742.2599994,0.000130833388539031],[-9714740.09657269,4681739.7248635,0.000130833388539031],[-9714741.38353732,4681739.84157562,0.000130833388539031],[-9714741.62064784,4681737.30644032,0.000130833388539031],[-9714740.3336832,4681737.18972823,0.000130833388539031],[-9714741.40079184,4681725.78148463,0.000130833388539031],[-9714740.11382721,4681725.66463,0.000130833388539031],[-9714740.82527007,4681718.05923657,0.000130833388539031],[-9714742.11223471,4681718.17594844,0.000130833388539031],[-9714742.82367757,4681710.57041791,0.000130833388539031],[-9714744.11075352,4681710.68727237,0.000130833388539031],[-9714744.70352982,4681704.34931075,0.000130833388539031],[-9714745.99060577,4681704.46616515,0.000130833388539031],[-9714746.93915915,4681694.32552023,0.000130833388539031],[-9714748.22612378,4681694.44237451,0.000130833388539031],[-9714748.70045613,4681689.37198443,0.000130833388539031],[-9714749.98742076,4681689.48883866,0.000130833388539031],[-9714750.22453128,4681686.9535732,0.000130833388539031],[-9714751.51149591,4681687.07042739,0.000130833388539031],[-9714751.74860643,4681684.53530521,0.000130833388539031],[-9714753.03568238,4681684.6520167,0.000130833388539031],[-9714753.15423764,4681683.38445583,0.000130833388539031],[-9714754.44120227,4681683.50130999,0.000130833388539031],[-9714755.50831091,4681672.09312646,0.000130833388539031],[-9714756.79527554,4681672.2098378,0.000130833388539031],[-9714757.62527367,4681663.33692586,0.000130833388539031],[-9714758.9122383,4681663.45363711,0.000130833388539031],[-9714759.26801539,4681659.65096288,0.000130833388539031],[-9714757.98105076,4681659.53410901,0.000130833388539031],[-9714758.33671653,4681655.73143624,0.000130833388539031],[-9714759.62368116,4681655.8481474,0.000130833388539031],[-9714760.33512403,4681648.24280604,0.000130833388539031],[-9714761.62208866,4681648.35951711,0.000130833388539031],[-9714762.92641914,4681634.41626318,0.000130833388539031],[-9714764.21338377,4681634.53311678,0.000130833388539031],[-9714765.51760293,4681620.58973908,0.000130833388539031],[-9714766.80456756,4681620.70659251,0.000130833388539031],[-9714767.39745517,4681614.36868682,0.000130833388539031],[-9714768.6844198,4681614.48554018,0.000130833388539031],[-9714769.39586266,4681606.88008699,0.000130833388539031],[-9714770.6828273,4681606.99694027,0.000130833388539031],[-9714771.5127141,4681598.1239424,0.000130833388539031],[-9714772.79979005,4681598.24079557,0.000130833388539031],[-9714773.5111216,4681590.63535451,0.000130833388539031],[-9714774.79808623,4681590.75206492,0.000130833388539031],[-9714775.86519487,4681579.34398516,0.000130833388539031],[-9714777.1521595,4681579.46083812,0.000130833388539031],[-9714777.74504711,4681573.12295807,0.000130833388539031],[-9714776.45808248,4681573.00624785,0.000130833388539031],[-9714776.57663774,4681571.73870086,0.000130833388539031],[-9714777.86360237,4681571.85541106,0.000130833388539031],[-9714778.45637866,4681565.51767841,0.000130833388539031],[-9714779.74334329,4681565.63438853,0.000130833388539031],[-9714780.21767564,4681560.56420519,0.000130833388539031],[-9714781.50464027,4681560.68091525,0.000130833388539031],[-9714781.97886131,4681555.61073437,0.000130833388539031],[-9714783.26582594,4681555.72744438,0.000130833388539031],[-9714783.85871355,4681549.38972176,0.000130833388539031],[-9714785.14567818,4681549.5064317,0.000130833388539031],[-9714785.73845447,4681543.16871293,0.000130833388539031],[-9714787.0254191,4681543.2854228,0.000130833388539031],[-9714787.73686196,4681535.6801654,0.000130833388539031],[-9714789.0238266,4681535.79687518,0.000130833388539031],[-9714789.61660289,4681529.45916494,0.000130833388539031],[-9714790.90356752,4681529.57587466,0.000130833388539031],[-9714791.61501039,4681521.9704848,0.000130833388539031],[-9714792.90197502,4681522.0873371,0.000130833388539031],[-9714799.18584896,4681454.90704324,0.000130833388539031],[-9714797.89888432,4681454.79033438,0.000130833388539031],[-9714798.01743958,4681453.52280208,0.000130833388539031],[-9714799.30440421,4681453.63951092,0.000130833388539031],[-9714801.20139966,4681433.35873007,0.000130833388539031],[-9714799.91443502,4681433.24202147,0.000130833388539031],[-9714800.38865605,4681428.17190395,0.000130833388539031],[-9714801.67562069,4681428.2886125,0.000130833388539031],[-9714804.16550374,4681401.67025125,0.000130833388539031],[-9714802.87853911,4681401.55340033,0.000130833388539031],[-9714803.35276013,4681396.48329857,0.000130833388539031],[-9714804.63972477,4681396.60000676,0.000130833388539031],[-9714805.1139458,4681391.52990746,0.000130833388539031],[-9714803.82698117,4681391.41305666,0.000130833388539031],[-9714804.06409168,4681388.87800798,0.000130833388539031],[-9714805.35105632,4681388.99485876,0.000130833388539031],[-9714805.46961157,4681387.72733464,0.000130833388539031],[-9714804.18264694,4681387.61048388,0.000130833388539031],[-9714805.24975558,4681376.20263139,0.000130833388539031],[-9714806.53672021,4681376.31948203,0.000130833388539031],[-9714806.65527547,4681375.05195948,0.000130833388539031],[-9714805.36831084,4681374.93510887,0.000130833388539031],[-9714805.4868661,4681373.6675865,0.000130833388539031],[-9714806.77383073,4681373.78429443,0.000130833388539031],[-9714807.01094124,4681371.24925014,0.000130833388539031],[-9714808.29790588,4681371.36610071,0.000130833388539031],[-9714807.9422401,4681375.16866743,0.000130833388539031],[-9714809.22909342,4681375.28537537,0.000130833388539031],[-9714808.75487238,4681380.35560927,0.000130833388539031],[-9714807.46790775,4681380.23875859,0.000130833388539031],[-9714807.34935249,4681381.50642445,0.000130833388539031],[-9714808.63631713,4681381.62313247,0.000130833388539031],[-9714806.26510066,4681406.97391488,0.000130833388539031],[-9714807.55206529,4681407.09076587,0.000130833388539031],[-9714805.53651459,4681428.63888084,0.000130833388539031],[-9714806.82347922,4681428.75573207,0.000130833388539031],[-9714806.34925819,4681433.82584988,0.000130833388539031],[-9714807.6361115,4681433.94270117,0.000130833388539031],[-9714807.28044573,4681437.74529123,0.000130833388539031],[-9714805.9934811,4681437.62858256,0.000130833388539031],[-9714805.16359429,4681446.5012981,0.000130833388539031],[-9714806.45055892,4681446.61814954,0.000130833388539031],[-9714805.26489503,4681459.29361366,0.000130833388539031],[-9714806.55185966,4681459.41032257,0.000130833388539031],[-9714807.02608069,4681454.34019204,0.000130833388539031],[-9714808.31304533,4681454.45690089,0.000130833388539031],[-9714808.55015584,4681451.92183654,0.000130833388539031],[-9714807.26330253,4681451.80512772,0.000130833388539031],[-9714807.50041304,4681449.26992136,0.000130833388539031],[-9714808.78737768,4681449.38677283,0.000130833388539031],[-9714809.38015397,4681443.04897362,0.000130833388539031],[-9714810.6671186,4681443.16582502,0.000130833388539031],[-9714811.14133963,4681438.09555989,0.000130833388539031],[-9714809.854375,4681437.97885123,0.000130833388539031],[-9714810.21004077,4681434.17626108,0.000130833388539031],[-9714808.92307614,4681434.05940979,0.000130833388539031],[-9714809.16018665,4681431.52435051,0.000130833388539031],[-9714807.87333334,4681431.40764193,0.000130833388539031],[-9714807.99188859,4681430.13996986,0.000130833388539031],[-9714809.27885323,4681430.25682112,0.000130833388539031],[-9714809.99018478,4681422.65150534,0.000130833388539031],[-9714811.27714941,4681422.7683565,0.000130833388539031],[-9714811.39570466,4681421.50082819,0.000130833388539031],[-9714810.10874003,4681421.38397704,0.000130833388539031],[-9714811.29429261,4681408.70856004,0.000130833388539031],[-9714810.0074393,4681408.59185171,0.000130833388539031],[-9714810.24454981,4681406.05665609,0.000130833388539031],[-9714811.53151444,4681406.17350707,0.000130833388539031],[-9714812.24284599,4681398.56820925,0.000130833388539031],[-9714810.95588136,4681398.45150104,0.000130833388539031],[-9714816.17253533,4681342.67982394,0.000130833388539031],[-9714814.8855707,4681342.56311637,0.000130833388539031],[-9714815.12268122,4681340.02793716,0.000130833388539031],[-9714813.8358279,4681339.91122962,0.000130833388539031],[-9714814.42860419,4681333.57349845,0.000130833388539031],[-9714815.71556882,4681333.69034859,0.000130833388539031],[-9714815.95267934,4681331.15531427,0.000130833388539031],[-9714817.23953265,4681331.27202171,0.000130833388539031],[-9714818.06953078,4681322.39926377,0.000130833388539031],[-9714816.78256614,4681322.28255643,0.000130833388539031],[-9714817.96811872,4681309.60726262,0.000130833388539031],[-9714819.25508335,4681309.72396981,0.000130833388539031],[-9714819.9664149,4681302.11888661,0.000130833388539031],[-9714818.67945027,4681302.00203683,0.000130833388539031],[-9714819.15378262,4681296.93198456,0.000130833388539031],[-9714820.44063593,4681297.04869162,0.000130833388539031],[-9714821.9819656,4681280.57089631,0.000130833388539031],[-9714820.69500097,4681280.45404678,0.000130833388539031],[-9714821.40633251,4681272.8489854,0.000130833388539031],[-9714822.69329715,4681272.96569218,0.000130833388539031],[-9714825.53862333,4681242.5452177,0.000130833388539031],[-9714826.82558796,4681242.66192413,0.000130833388539031],[-9714832.63490691,4681180.55360569,0.000130833388539031],[-9714831.34794228,4681180.4367573,0.000130833388539031],[-9714831.46649754,4681179.1692591,0.000130833388539031],[-9714832.75346217,4681179.28610748,0.000130833388539031],[-9714835.59878835,4681148.86576979,0.000130833388539031],[-9714836.88564167,4681148.98247515,0.000130833388539031],[-9714838.78252579,4681128.70244288,0.000130833388539031],[-9714837.49567248,4681128.58559508,0.000130833388539031],[-9714837.61422773,4681127.31810334,0.000130833388539031],[-9714838.90108105,4681127.43495112,0.000130833388539031],[-9714841.39074146,4681100.81723252,0.000130833388539031],[-9714842.67770609,4681100.93408,0.000130833388539031],[-9714844.5744789,4681080.65400061,0.000130833388539031],[-9714843.28762558,4681080.53729603,0.000130833388539031],[-9714843.99895713,4681072.93224108,0.000130833388539031],[-9714842.7119925,4681072.8155366,0.000130833388539031],[-9714843.30476878,4681066.47797143,0.000130833388539031],[-9714842.01791547,4681066.36126702,0.000130833388539031],[-9714843.55913382,4681049.88370181,0.000130833388539031],[-9714842.27216919,4681049.76699759,0.000130833388539031],[-9714842.74639022,4681044.69692806,0.000130833388539031],[-9714844.03324353,4681044.8137749,0.000130833388539031],[-9714844.27035405,4681042.27881239,0.000130833388539031],[-9714842.98350073,4681042.16196558,0.000130833388539031],[-9714844.40616383,4681026.95206126,0.000130833388539031],[-9714845.69301714,4681027.06876522,0.000130833388539031],[-9714846.87856972,4681014.39383835,0.000130833388539031],[-9714848.16542303,4681014.51068484,0.000130833388539031],[-9714849.23242035,4681003.10324974,0.000130833388539031],[-9714850.51927366,4681003.21995342,0.000130833388539031],[-9714851.23060521,4680995.61495613,0.000130833388539031],[-9714852.51756984,4680995.7318024,0.000130833388539031],[-9714852.75468036,4680993.19685209,0.000130833388539031],[-9714854.04153367,4680993.31355567,0.000130833388539031],[-9714854.27864418,4680990.77860596,0.000130833388539031],[-9714855.5654975,4680990.89530951,0.000130833388539031],[-9714855.68405276,4680989.62783487,0.000130833388539031],[-9714856.97101739,4680989.74453841,0.000130833388539031],[-9714857.08957265,4680988.47706392,0.000130833388539031],[-9714859.66327928,4680988.71061363,0.000130833388539031],[-9714859.78183453,4680987.44313927,0.000130833388539031],[-9714862.35565248,4680987.67668895,0.000130833388539031],[-9714862.47420774,4680986.40921472,0.000130833388539031],[-9714868.90869694,4680986.99301756,0.000130833388539031],[-9714868.79014168,4680988.26049186,0.000130833388539031],[-9714872.65081294,4680988.61074509,0.000130833388539031],[-9714872.7693682,4680987.34327074,0.000130833388539031],[-9714874.05633284,4680987.45997425,0.000130833388539031],[-9714874.29344335,4680984.92502599,0.000130833388539031],[-9714875.58029667,4680985.04187214,0.000130833388539031],[-9714875.34318615,4680987.57682043,0.000130833388539031],[-9714876.63003947,4680987.69352393,0.000130833388539031],[-9714876.51159553,4680988.96099833,0.000130833388539031],[-9714877.79844884,4680989.07784452,0.000130833388539031],[-9714877.67989358,4680990.34531909,0.000130833388539031],[-9714878.9667469,4680990.46202263,0.000130833388539031],[-9714878.84819164,4680991.72949737,0.000130833388539031],[-9714880.13515627,4680991.84634359,0.000130833388539031],[-9714879.89804575,4680994.38129357,0.000130833388539031],[-9714881.18489907,4680994.49799715,0.000130833388539031],[-9714880.94789987,4680997.03309046,0.000130833388539031],[-9714882.23475319,4680997.14979407,0.000130833388539031],[-9714881.99764267,4680999.68474537,0.000130833388539031],[-9714883.28449598,4680999.80159168,0.000130833388539031],[-9714883.04749679,4681002.33654364,0.000130833388539031],[-9714885.62120342,4681002.57009366,0.000130833388539031],[-9714885.50264816,4681003.8375699,0.000130833388539031],[-9714886.78961279,4681003.9542736,0.000130833388539031],[-9714886.67105753,4681005.22175001,0.000130833388539031],[-9714887.95791085,4681005.33859639,0.000130833388539031],[-9714887.72091165,4681007.87354972,0.000130833388539031],[-9714889.00776497,4681007.99025346,0.000130833388539031],[-9714888.65209919,4681011.79282735,0.000130833388539031],[-9714889.93906383,4681011.90953114,0.000130833388539031],[-9714889.82050857,4681013.17700854,0.000130833388539031],[-9714891.10736188,4681013.29385501,0.000130833388539031],[-9714890.98880662,4681014.56133259,0.000130833388539031],[-9714892.27577126,4681014.67803641,0.000130833388539031],[-9714892.157216,4681015.94551415,0.000130833388539031],[-9714894.73103395,4681016.17906449,0.000130833388539031],[-9714894.84947788,4681014.91158672,0.000130833388539031],[-9714893.56262457,4681014.79474022,0.000130833388539031],[-9714893.79973509,4681012.25978518,0.000130833388539031],[-9714892.51277045,4681012.14308139,0.000130833388539031],[-9714892.86843622,4681008.34050737,0.000130833388539031],[-9714891.58158291,4681008.22380362,0.000130833388539031],[-9714891.93724869,4681004.42137374,0.000130833388539031],[-9714890.65028405,4681004.30452737,0.000130833388539031],[-9714890.76883931,4681003.03705107,0.000130833388539031],[-9714889.481986,4681002.92034738,0.000130833388539031],[-9714889.71909651,4681000.38539529,0.000130833388539031],[-9714888.43213188,4681000.26854896,0.000130833388539031],[-9714888.78779765,4680996.46612204,0.000130833388539031],[-9714887.50083302,4680996.34941843,0.000130833388539031],[-9714887.61938828,4680995.08180045,0.000130833388539031],[-9714886.33253496,4680994.96509686,0.000130833388539031],[-9714886.68820074,4680991.16267191,0.000130833388539031],[-9714885.4012361,4680991.04582569,0.000130833388539031],[-9714885.63834662,4680988.51087655,0.000130833388539031],[-9714884.3514933,4680988.39417303,0.000130833388539031],[-9714884.58860382,4680985.85908188,0.000130833388539031],[-9714883.30163919,4680985.74237839,0.000130833388539031],[-9714883.5387497,4680983.20743056,0.000130833388539031],[-9714882.25189639,4680983.09058443,0.000130833388539031],[-9714882.4890069,4680980.55563727,0.000130833388539031],[-9714881.20204227,4680980.43893384,0.000130833388539031],[-9714881.43915279,4680977.90398733,0.000130833388539031],[-9714880.15229947,4680977.78714126,0.000130833388539031],[-9714880.27085473,4680976.51966826,0.000130833388539031],[-9714878.9838901,4680976.40296488,0.000130833388539031],[-9714879.10244536,4680975.13549205,0.000130833388539031],[-9714877.81559204,4680975.01864601,0.000130833388539031],[-9714878.17125782,4680971.21622851,0.000130833388539031],[-9714876.88429318,4680971.09938252,0.000130833388539031],[-9714877.00284844,4680969.83191035,0.000130833388539031],[-9714875.71599512,4680969.71520704,0.000130833388539031],[-9714875.83455038,4680968.44773504,0.000130833388539031],[-9714874.54758575,4680968.33088908,0.000130833388539031],[-9714874.66614101,4680967.06341725,0.000130833388539031],[-9714873.37928769,4680966.94671398,0.000130833388539031],[-9714874.09061924,4680959.34174374,0.000130833388539031],[-9714875.37747255,4680959.4585896,0.000130833388539031],[-9714875.97024884,4680953.12109487,0.000130833388539031],[-9714874.68328421,4680953.00439176,0.000130833388539031],[-9714874.80183947,4680951.73692184,0.000130833388539031],[-9714873.51498615,4680951.62007607,0.000130833388539031],[-9714873.63354141,4680950.35260632,0.000130833388539031],[-9714872.34657678,4680950.23590324,0.000130833388539031],[-9714872.46513204,4680948.96843366,0.000130833388539031],[-9714871.17827872,4680948.85158792,0.000130833388539031],[-9714871.5339445,4680945.04918018,0.000130833388539031],[-9714870.24709118,4680944.93233448,0.000130833388539031],[-9714870.36553512,4680943.66486557,0.000130833388539031],[-9714869.0786818,4680943.54816256,0.000130833388539031],[-9714869.31579232,4680941.01322522,0.000130833388539031],[-9714868.02893901,4680940.89637958,0.000130833388539031],[-9714868.14749427,4680939.62891116,0.000130833388539031],[-9714866.86052963,4680939.5122082,0.000130833388539031],[-9714867.09764015,4680936.97727187,0.000130833388539031],[-9714865.81078683,4680936.86042627,0.000130833388539031],[-9714865.92934209,4680935.59295835,0.000130833388539031],[-9714864.64237746,4680935.47625544,0.000130833388539031],[-9714864.87948797,4680932.94117744,0.000130833388539031],[-9714863.59263466,4680932.82447455,0.000130833388539031],[-9714863.82974518,4680930.28953988,0.000130833388539031],[-9714862.54289186,4680930.17269436,0.000130833388539031],[-9714862.6613358,4680928.90522728,0.000130833388539031],[-9714861.37448249,4680928.78852444,0.000130833388539031],[-9714861.49303775,4680927.52105752,0.000130833388539031],[-9714860.20618443,4680927.40421204,0.000130833388539031],[-9714860.32473969,4680926.1367453,0.000130833388539031],[-9714857.75092174,4680925.90319702,0.000130833388539031],[-9714857.869477,4680924.63573046,0.000130833388539031],[-9714855.29565905,4680924.40218222,0.000130833388539031],[-9714855.41421431,4680923.13471585,0.000130833388539031],[-9714854.127361,4680923.01801308,0.000130833388539031],[-9714854.24591625,4680921.75054688,0.000130833388539031],[-9714852.95906294,4680921.63370146,0.000130833388539031],[-9714853.0776182,4680920.36623544,0.000130833388539031],[-9714851.79065357,4680920.2495327,0.000130833388539031],[-9714851.90920883,4680918.98206685,0.000130833388539031],[-9714850.62235551,4680918.86522145,0.000130833388539031],[-9714850.74091077,4680917.59775577,0.000130833388539031],[-9714849.45405746,4680917.48105306,0.000130833388539031],[-9714849.69116797,4680914.94612221,0.000130833388539031],[-9714848.40420334,4680914.82927686,0.000130833388539031],[-9714848.5227586,4680913.56181169,0.000130833388539031],[-9714847.23590528,4680913.44510902,0.000130833388539031],[-9714847.71012631,4680908.37510727,0.000130833388539031],[-9714846.42316168,4680908.25840467,0.000130833388539031],[-9714846.66027219,4680905.72347611,0.000130833388539031],[-9714845.37341888,4680905.60663087,0.000130833388539031],[-9714846.08475043,4680898.00170637,0.000130833388539031],[-9714842.22407917,4680897.65145626,0.000130833388539031],[-9714842.34263442,4680896.38399321,0.000130833388539031],[-9714841.05578111,4680896.26729075,0.000130833388539031],[-9714841.17433637,4680894.99982788,0.000130833388539031],[-9714842.46118968,4680895.11653033,0.000130833388539031],[-9714842.57974494,4680893.8490676,0.000130833388539031],[-9714843.86659825,4680893.96577004,0.000130833388539031],[-9714843.98515351,4680892.69830745,0.000130833388539031],[-9714846.55897146,4680892.93185497,0.000130833388539031],[-9714848.45574426,4680872.65218923,0.000130833388539031],[-9714849.74259758,4680872.7690341,0.000130833388539031],[-9714851.16526067,4680857.55923975,0.000130833388539031],[-9714849.87829603,4680857.44253773,0.000130833388539031],[-9714851.18240387,4680843.50036523,0.000130833388539031],[-9714852.46925718,4680843.61706709,0.000130833388539031],[-9714853.5362545,4680832.20982315,0.000130833388539031],[-9714854.82310781,4680832.32666755,0.000130833388539031],[-9714855.53443936,4680824.7217977,0.000130833388539031],[-9714856.82129268,4680824.83849934,0.000130833388539031],[-9714857.41406896,4680818.50123095,0.000130833388539031],[-9714858.70092228,4680818.61793253,0.000130833388539031],[-9714858.93803279,4680816.08302624,0.000130833388539031],[-9714860.22488611,4680816.19987046,0.000130833388539031],[-9714860.46199662,4680813.66482211,0.000130833388539031],[-9714861.74884994,4680813.78166629,0.000130833388539031],[-9714861.86740519,4680812.51421368,0.000130833388539031],[-9714863.15425851,4680812.63091518,0.000130833388539031],[-9714863.27281376,4680811.36346271,0.000130833388539031],[-9714864.55966708,4680811.4801642,0.000130833388539031],[-9714864.67822234,4680810.21271187,0.000130833388539031],[-9714865.96507565,4680810.32955601,0.000130833388539031],[-9714866.08363091,4680809.06210382,0.000130833388539031],[-9714868.65744885,4680809.29550676,0.000130833388539031],[-9714868.77600411,4680808.0280547,0.000130833388539031],[-9714879.07094194,4680808.96209438,0.000130833388539031],[-9714878.95238668,4680810.22968922,0.000130833388539031],[-9714881.52620463,4680810.46309218,0.000130833388539031],[-9714881.40764937,4680811.73054455,0.000130833388539031],[-9714883.981356,4680811.96409021,0.000130833388539031],[-9714883.86280074,4680813.23154276,0.000130833388539031],[-9714885.14965405,4680813.34838694,0.000130833388539031],[-9714885.0310988,4680814.61583967,0.000130833388539031],[-9714887.60491674,4680814.84938539,0.000130833388539031],[-9714887.48636149,4680816.1168383,0.000130833388539031],[-9714890.06006811,4680816.35038407,0.000130833388539031],[-9714889.94151285,4680817.61783716,0.000130833388539031],[-9714891.22847749,4680817.73453873,0.000130833388539031],[-9714891.10992223,4680819.001992,0.000130833388539031],[-9714893.68362886,4680819.23553783,0.000130833388539031],[-9714893.5650736,4680820.50299128,0.000130833388539031],[-9714894.85203823,4680820.61969288,0.000130833388539031],[-9714894.73348297,4680821.88728917,0.000130833388539031],[-9714897.3071896,4680822.1206924,0.000130833388539031],[-9714897.18863434,4680823.38814621,0.000130833388539031],[-9714898.47548766,4680823.50499051,0.000130833388539031],[-9714898.3569324,4680824.7724445,0.000130833388539031],[-9714900.93075034,4680825.00599046,0.000130833388539031],[-9714900.81219509,4680826.27344463,0.000130833388539031],[-9714903.38590172,4680826.50699063,0.000130833388539031],[-9714903.26745778,4680827.77444499,0.000130833388539031],[-9714905.84116441,4680828.00784835,0.000130833388539031],[-9714905.72260915,4680829.27544556,0.000130833388539031],[-9714908.29642709,4680829.50884896,0.000130833388539031],[-9714908.17787183,4680830.77630369,0.000130833388539031],[-9714909.46472515,4680830.89314807,0.000130833388539031],[-9714909.34616989,4680832.16060298,0.000130833388539031],[-9714910.63302321,4680832.27730471,0.000130833388539031],[-9714910.51446795,4680833.54475978,0.000130833388539031],[-9714915.66199252,4680834.01185211,0.000130833388539031],[-9714915.54343726,4680835.27930741,0.000130833388539031],[-9714916.8304019,4680835.39600917,0.000130833388539031],[-9714917.18595635,4680831.59364373,0.000130833388539031],[-9714915.89910304,4680831.476942,0.000130833388539031],[-9714916.0176583,4680830.20948719,0.000130833388539031],[-9714914.73080498,4680830.09264281,0.000130833388539031],[-9714914.84936024,4680828.82518817,0.000130833388539031],[-9714912.27554229,4680828.59164212,0.000130833388539031],[-9714912.51265281,4680826.05673335,0.000130833388539031],[-9714911.2257995,4680825.94003169,0.000130833388539031],[-9714911.46279869,4680823.40498092,0.000130833388539031],[-9714910.17594538,4680823.2882793,0.000130833388539031],[-9714910.41305589,4680820.75337185,0.000130833388539031],[-9714909.12620258,4680820.63667025,0.000130833388539031],[-9714909.36320177,4680818.1016208,0.000130833388539031],[-9714908.07634846,4680817.98491923,0.000130833388539031],[-9714908.19490372,4680816.71746609,0.000130833388539031],[-9714906.9080504,4680816.60062187,0.000130833388539031],[-9714907.14516092,4680814.06571609,0.000130833388539031],[-9714905.8583076,4680813.94901457,0.000130833388539031],[-9714905.97675154,4680812.68156192,0.000130833388539031],[-9714904.68989823,4680812.56471775,0.000130833388539031],[-9714904.80845349,4680811.29726528,0.000130833388539031],[-9714903.52160017,4680811.18056379,0.000130833388539031],[-9714903.75871069,4680808.64565936,0.000130833388539031],[-9714902.47174606,4680808.52881523,0.000130833388539031],[-9714902.59030131,4680807.26136326,0.000130833388539031],[-9714901.303448,4680807.14466182,0.000130833388539031],[-9714901.42200326,4680805.87721002,0.000130833388539031],[-9714900.13514995,4680805.76036593,0.000130833388539031],[-9714900.37226046,4680803.22546284,0.000130833388539031],[-9714899.08529583,4680803.10876144,0.000130833388539031],[-9714899.20385109,4680801.84131015,0.000130833388539031],[-9714897.91699777,4680801.7244661,0.000130833388539031],[-9714898.15410829,4680799.18956402,0.000130833388539031],[-9714896.86725497,4680799.07286266,0.000130833388539031],[-9714897.10436549,4680796.53781857,0.000130833388539031],[-9714895.81740086,4680796.42111725,0.000130833388539031],[-9714895.93595611,4680795.15366679,0.000130833388539031],[-9714894.6491028,4680795.03682281,0.000130833388539031],[-9714894.88621332,4680792.50192239,0.000130833388539031],[-9714893.59936,4680792.38522111,0.000130833388539031],[-9714893.83647052,4680789.85032135,0.000130833388539031],[-9714892.54950588,4680789.73347744,0.000130833388539031],[-9714893.37939269,4680780.86119067,0.000130833388539031],[-9714894.666246,4680780.97803448,0.000130833388539031],[-9714894.78480126,4680779.71058594,0.000130833388539031],[-9714896.07165457,4680779.82728707,0.000130833388539031],[-9714896.19020983,4680778.55983867,0.000130833388539031],[-9714897.47706315,4680778.67653979,0.000130833388539031],[-9714897.5956184,4680777.40909153,0.000130833388539031],[-9714898.88247172,4680777.52593531,0.000130833388539031],[-9714899.00102697,4680776.25848719,0.000130833388539031],[-9714901.5747336,4680776.49188938,0.000130833388539031],[-9714901.69328886,4680775.22444139,0.000130833388539031],[-9714904.26699549,4680775.45798622,0.000130833388539031],[-9714904.38555074,4680774.19053836,0.000130833388539031],[-9714905.67240406,4680774.30723943,0.000130833388539031],[-9714905.79095931,4680773.03979172,0.000130833388539031],[-9714907.07792395,4680773.15649277,0.000130833388539031],[-9714907.19636788,4680771.8890452,0.000130833388539031],[-9714908.48333252,4680772.00588891,0.000130833388539031],[-9714908.60177646,4680770.73844148,0.000130833388539031],[-9714909.88874109,4680770.85514251,0.000130833388539031],[-9714910.12574029,4680768.3202481,0.000130833388539031],[-9714911.41270492,4680768.4369491,0.000130833388539031],[-9714911.64970412,4680765.90205529,0.000130833388539031],[-9714910.3628508,4680765.78535432,0.000130833388539031],[-9714910.48140606,4680764.517765,0.000130833388539031],[-9714904.04702817,4680763.93411757,0.000130833388539031],[-9714904.16558343,4680762.66652848,0.000130833388539031],[-9714902.87873012,4680762.54982754,0.000130833388539031],[-9714902.99728537,4680761.28238129,0.000130833388539031],[-9714900.42357875,4680761.04883679,0.000130833388539031],[-9714900.54202269,4680759.78139072,0.000130833388539031],[-9714897.96831606,4680759.54784625,0.000130833388539031],[-9714898.08687131,4680758.28040037,0.000130833388539031],[-9714894.22631137,4680757.93015506,0.000130833388539031],[-9714894.34486663,4680756.66270938,0.000130833388539031],[-9714890.48419537,4680756.31246412,0.000130833388539031],[-9714890.36564011,4680757.57990976,0.000130833388539031],[-9714886.50508017,4680757.22966447,0.000130833388539031],[-9714886.38652492,4680758.49711021,0.000130833388539031],[-9714873.51788046,4680757.32953074,0.000130833388539031],[-9714873.3993252,4680758.5969765,0.000130833388539031],[-9714869.53865394,4680758.24673117,0.000130833388539031],[-9714869.6572092,4680756.97928546,0.000130833388539031],[-9714867.08350257,4680756.74574105,0.000130833388539031],[-9714867.20205783,4680755.47829552,0.000130833388539031],[-9714865.91520452,4680755.361452,0.000130833388539031],[-9714866.03375978,4680754.09400664,0.000130833388539031],[-9714864.74679514,4680753.9773058,0.000130833388539031],[-9714864.98390565,4680751.44241559,0.000130833388539031],[-9714863.69705234,4680751.32557212,0.000130833388539031],[-9714863.93416286,4680748.79068256,0.000130833388539031],[-9714862.64730954,4680748.67398179,0.000130833388539031],[-9714863.00297532,4680744.87150601,0.000130833388539031],[-9714861.716122,4680744.75480528,0.000130833388539031],[-9714863.96844926,4680720.67311012,0.000130833388539031],[-9714865.25530258,4680720.78981058,0.000130833388539031],[-9714866.20374464,4680710.65014383,0.000130833388539031],[-9714867.49059795,4680710.76698684,0.000130833388539031],[-9714867.72770847,4680708.23210736,0.000130833388539031],[-9714869.01456178,4680708.34880768,0.000130833388539031],[-9714869.37011623,4680704.5464896,0.000130833388539031],[-9714870.65696955,4680704.66318987,0.000130833388539031],[-9714871.01263532,4680700.86087317,0.000130833388539031],[-9714872.29948863,4680700.9775734,0.000130833388539031],[-9714872.53659915,4680698.44269636,0.000130833388539031],[-9714873.82345246,4680698.55939656,0.000130833388539031],[-9714873.94200772,4680697.29195826,0.000130833388539031],[-9714875.22886103,4680697.40880111,0.000130833388539031],[-9714875.46597155,4680694.87378229,0.000130833388539031],[-9714876.75282486,4680694.99062512,0.000130833388539031],[-9714876.98993538,4680692.45574956,0.000130833388539031],[-9714878.27678869,4680692.5724497,0.000130833388539031],[-9714878.75100972,4680687.50255776,0.000130833388539031],[-9714880.03786303,4680687.6194005,0.000130833388539031],[-9714880.27486223,4680685.08452678,0.000130833388539031],[-9714881.56171554,4680685.20122683,0.000130833388539031],[-9714882.15449184,4680678.86404521,0.000130833388539031],[-9714883.44134515,4680678.98074519,0.000130833388539031],[-9714883.79701092,4680675.17843806,0.000130833388539031],[-9714885.08386424,4680675.29513799,0.000130833388539031],[-9714885.91363972,4680666.42295079,0.000130833388539031],[-9714884.6267864,4680666.30625095,0.000130833388539031],[-9714884.74534166,4680665.03881666,0.000130833388539031],[-9714883.45848835,4680664.92197418,0.000130833388539031],[-9714883.93259806,4680659.85223865,0.000130833388539031],[-9714882.64574475,4680659.73539623,0.000130833388539031],[-9714883.11996578,4680654.66566328,0.000130833388539031],[-9714880.54625915,4680654.43212122,0.000130833388539031],[-9714880.30914864,4680656.96698732,0.000130833388539031],[-9714879.02229532,4680656.85028759,0.000130833388539031],[-9714878.78518481,4680659.3851543,0.000130833388539031],[-9714877.49833149,4680659.26845454,0.000130833388539031],[-9714877.2613323,4680661.80332185,0.000130833388539031],[-9714875.97436766,4680661.68662207,0.000130833388539031],[-9714875.73736847,4680664.22148997,0.000130833388539031],[-9714874.45051515,4680664.10479017,0.000130833388539031],[-9714874.3319599,4680665.37222434,0.000130833388539031],[-9714870.47139996,4680665.02183955,0.000130833388539031],[-9714870.58995521,4680663.75440542,0.000130833388539031],[-9714869.3031019,4680663.63770562,0.000130833388539031],[-9714869.42154584,4680662.37027166,0.000130833388539031],[-9714868.13469252,4680662.2534292,0.000130833388539031],[-9714868.25324778,4680660.98599542,0.000130833388539031],[-9714866.96639447,4680660.86929565,0.000130833388539031],[-9714867.20350498,4680658.33442857,0.000130833388539031],[-9714865.91665167,4680658.21758617,0.000130833388539031],[-9714866.15376218,4680655.68271976,0.000130833388539031],[-9714864.86690887,4680655.56602005,0.000130833388539031],[-9714867.4749019,4680627.68210342,0.000130833388539031],[-9714866.18804859,4680627.56540403,0.000130833388539031],[-9714866.66226962,4680622.4955444,0.000130833388539031],[-9714865.37541631,4680622.37884507,0.000130833388539031],[-9714865.84952602,4680617.30913069,0.000130833388539031],[-9714864.5626727,4680617.19228876,0.000130833388539031],[-9714864.91833848,4680613.39000467,0.000130833388539031],[-9714863.63148516,4680613.27316278,0.000130833388539031],[-9714864.10570619,4680608.20345293,0.000130833388539031],[-9714862.81885288,4680608.08675376,0.000130833388539031],[-9714863.17451865,4680604.2843304,0.000130833388539031],[-9714861.88766534,4680604.16763128,0.000130833388539031],[-9714862.24321979,4680600.36535205,0.000130833388539031],[-9714860.95636648,4680600.24851031,0.000130833388539031],[-9714861.66769803,4680592.64381352,0.000130833388539031],[-9714862.95455134,4680592.76065518,0.000130833388539031],[-9714863.19166185,4680590.22580503,0.000130833388539031],[-9714861.90480854,4680590.10896341,0.000130833388539031],[-9714862.26036299,4680586.30668942,0.000130833388539031],[-9714860.97350968,4680586.1899905,0.000130833388539031],[-9714861.32917545,4680582.38757531,0.000130833388539031],[-9714860.04232214,4680582.27087644,0.000130833388539031],[-9714860.27943266,4680579.7360289,0.000130833388539031],[-9714858.99257934,4680579.6191874,0.000130833388539031],[-9714859.34824512,4680575.81691732,0.000130833388539031],[-9714858.0613918,4680575.70007586,0.000130833388539031],[-9714858.29850232,4680573.16522995,0.000130833388539031],[-9714857.011649,4680573.04853119,0.000130833388539031],[-9714857.36731478,4680569.2461209,0.000130833388539031],[-9714856.08046146,4680569.12942218,0.000130833388539031],[-9714856.31757198,4680566.5945779,0.000130833388539031],[-9714855.03071867,4680566.47773655,0.000130833388539031],[-9714855.26771786,4680563.94289294,0.000130833388539031],[-9714853.98097587,4680563.82619428,0.000130833388539031],[-9714854.33653032,4680560.02378743,0.000130833388539031],[-9714853.04967701,4680559.90708881,0.000130833388539031],[-9714853.40534278,4680556.10482608,0.000130833388539031],[-9714852.11848947,4680555.98798485,0.000130833388539031],[-9714852.35559998,4680553.45314384,0.000130833388539031],[-9714851.06874667,4680553.33644531,0.000130833388539031],[-9714851.42441244,4680549.53404236,0.000130833388539031],[-9714852.22658069,4680537.87076189,0.000130833388539031]],[[-9714812.75346849,4681268.22893907,0.000130833388539031],[-9714814.04043313,4681268.34578846,0.000130833388539031],[-9714814.51465416,4681263.27561026,0.000130833388539031],[-9714815.80161879,4681263.3924596,0.000130833388539031],[-9714812.95618129,4681293.81299627,0.000130833388539031],[-9714814.24314592,4681293.92984596,0.000130833388539031],[-9714813.88748015,4681297.7323838,0.000130833388539031],[-9714812.60051551,4681297.61567674,0.000130833388539031],[-9714812.363405,4681300.15070273,0.000130833388539031],[-9714813.65036963,4681300.26740982,0.000130833388539031],[-9714811.75337419,4681320.54792597,0.000130833388539031],[-9714813.04033882,4681320.66463329,0.000130833388539031],[-9714810.78767761,4681344.74774538,0.000130833388539031],[-9714809.50071297,4681344.63103778,0.000130833388539031],[-9714809.38215772,4681345.89855654,0.000130833388539031],[-9714810.66912235,4681346.01540683,0.000130833388539031],[-9714809.3649032,4681359.9582664,0.000130833388539031],[-9714808.07793856,4681359.84141595,0.000130833388539031],[-9714807.84082805,4681362.37645741,0.000130833388539031],[-9714809.12779268,4681362.49330788,0.000130833388539031],[-9714808.53501639,4681368.83091435,0.000130833388539031],[-9714807.24805176,4681368.71420648,0.000130833388539031],[-9714807.48516227,4681366.17916345,0.000130833388539031],[-9714806.19819764,4681366.06231293,0.000130833388539031],[-9714807.85808257,4681348.31688689,0.000130833388539031],[-9714806.57111793,4681348.20003658,0.000130833388539031],[-9714807.40111606,4681339.32740658,0.000130833388539031],[-9714806.11415143,4681339.21055637,0.000130833388539031],[-9714808.36681264,4681315.12745735,0.000130833388539031],[-9714809.65377727,4681315.24430729,0.000130833388539031],[-9714811.07644036,4681300.03385297,0.000130833388539031],[-9714809.78947573,4681299.91714589,0.000130833388539031],[-9714810.02658625,4681297.38211996,0.000130833388539031],[-9714811.31355088,4681297.49882701,0.000130833388539031],[-9714811.43210614,4681296.23131427,0.000130833388539031],[-9714810.14525283,4681296.11460723,0.000130833388539031],[-9714810.61947386,4681291.04441522,0.000130833388539031],[-9714811.90632717,4681291.16126488,0.000130833388539031],[-9714812.14343768,4681288.62609846,0.000130833388539031],[-9714810.85658437,4681288.5093915,0.000130833388539031],[-9714811.3308054,4681283.43920327,0.000130833388539031],[-9714812.61777003,4681283.55605285,0.000130833388539031],[-9714812.73632529,4681282.28854184,0.000130833388539031],[-9714811.44936066,4681282.17169228,0.000130833388539031],[-9714811.68647118,4681279.63667076,0.000130833388539031],[-9714812.97343581,4681279.75352029,0.000130833388539031],[-9714813.92187787,4681269.61329774,0.000130833388539031],[-9714812.63491324,4681269.49644833,0.000130833388539031],[-9714812.75346849,4681268.22893907,0.000130833388539031]],[[-9714652.13491669,4681903.04180882,0.000130833388539031],[-9714653.42199264,4681903.15866549,0.000130833388539031],[-9714653.30332606,4681904.42625368,0.000130833388539031],[-9714652.01636143,4681904.30939699,0.000130833388539031],[-9714652.13491669,4681903.04180882,0.000130833388539031]]]]}}
]}
