{"type": "FeatureCollection", "features": [{"type": "Feature", "geometry": {"type": "Polygon", "coordinates": [[[-88.14076848070592, 37.9142647595399], [-88.14140723407691, 37.91475748136467], [-88.14238311169927, 37.914504667737376], [-88.14312536805899, 37.914075843021685], [-88.14408521165186, 37.91357298766927], [-88.14455063508878, 37.91381689030444], [-88.14488167864401, 37.91455688238448], [-88.14506570930975, 37.914594939890684], [-88.14544437704977, 37.91466288843624], [-88.14610741817108, 37.91409366425897], [-88.14730428045505, 37.913323750414335], [-88.14846070058493, 37.913285544128314], [-88.14860339437453, 37.912582567319994], [-88.14875571361243, 37.911833455257515], [-88.1486403492687, 37.910959741179106], [-88.14895705750862, 37.91080679477132], [-88.15006305250667, 37.91120417907088], [-88.1513256876391, 37.911258330206245], [-88.15220285927637, 37.91069989369016], [-88.15298254843397, 37.91013204075319], [-88.15372185472627, 37.90958096531266], [-88.15436570423985, 37.90945600407848], [-88.15421320623722, 37.909051139307046], [-88.15489845101743, 37.90841038992894], [-88.15535922477441, 37.907838811032505], [-88.15575207870941, 37.906995881404455], [-88.15618158929789, 37.906238932112124], [-88.15659241492847, 37.90536581361088], [-88.1570592388389, 37.904661793615546], [-88.15804694727358, 37.90405769955493], [-88.15823616211681, 37.90328692225357], [-88.15833570263682, 37.90246816307767], [-88.15879650603821, 37.901352721024395], [-88.15903191405, 37.90079053045537], [-88.15905557747122, 37.90076808932818], [-88.1597344442129, 37.900303560215264], [-88.16031034426005, 37.90018339628019], [-88.16043006004304, 37.899937409096935], [-88.1605902476245, 37.89960836092314], [-88.16062502769736, 37.89948685683305], [-88.16079564561758, 37.89889096004696], [-88.16081913027406, 37.89808948583566], [-88.16054616998845, 37.89680452834884], [-88.16049973786805, 37.896146820759625], [-88.16001133822111, 37.895769314568795], [-88.15979714841636, 37.89539583223198], [-88.15881000502199, 37.894898431057584], [-88.15858174939652, 37.89444579355719], [-88.15913777152309, 37.89399127751326], [-88.15990598649955, 37.89373518685758], [-88.16085784317123, 37.89317204203973], [-88.16195695258261, 37.89256645851969], [-88.16307161991637, 37.89223431202017], [-88.16398962088164, 37.89143885715417], [-88.16349642153614, 37.89099146433715], [-88.16320543206278, 37.890358671524446], [-88.16381584268824, 37.889970973664816], [-88.16448553134265, 37.88975785662125], [-88.16518210118365, 37.890144154735296], [-88.16592477525994, 37.89030460993253], [-88.16728251053993, 37.890378311262836], [-88.16831867769429, 37.890321358630146], [-88.16960193634901, 37.89009873569393], [-88.17096121942623, 37.890089557025924], [-88.17250334200314, 37.88999973263584], [-88.17380841534622, 37.88973043888011], [-88.17487739526295, 37.88941423588547], [-88.17522870481102, 37.88890202325817], [-88.17567901858483, 37.88813425487896], [-88.17602493464793, 37.88681031726758], [-88.17633642816764, 37.885466767982265], [-88.17674710377956, 37.88403592696762], [-88.1768498620649, 37.88285280629775], [-88.17641465885248, 37.88210241316046], [-88.17546172869402, 37.88109762764094], [-88.17425756580174, 37.87992705231093], [-88.17363678322802, 37.87886257201323], [-88.17401494431824, 37.87804145867097], [-88.17505227479089, 37.87791265325884], [-88.17625742133839, 37.87811977901866], [-88.1774308878991, 37.8781581340275], [-88.17826326773968, 37.87726773081569], [-88.17826112166446, 37.8764671202667], [-88.17799641779463, 37.87555031168826], [-88.17778306252477, 37.8750454303102], [-88.1777946543852, 37.874620418905074], [-88.17743121578418, 37.874312561589086], [-88.17714830216524, 37.87398354425055], [-88.17685617901797, 37.87377314004203], [-88.17657478534849, 37.87354911553153], [-88.1769452586565, 37.873122673737996], [-88.17756034950459, 37.87302483206399], [-88.17810200667145, 37.87275774396249], [-88.17861135772576, 37.8723577971246], [-88.1790360416662, 37.87201206003565], [-88.17975612490976, 37.87152342163362], [-88.18001713400882, 37.870990853928056], [-88.18023772969988, 37.870386045318504], [-88.18054612493017, 37.86974085487717], [-88.18069159092076, 37.86923731367643], [-88.18079178541429, 37.86855108536767], [-88.1808787773681, 37.86800820634901], [-88.1814923770128, 37.86780268960058], [-88.18223243070344, 37.867907802796566], [-88.1830784290037, 37.86793957152733], [-88.18406768703225, 37.86794812464477], [-88.1848674625196, 37.86802629687296], [-88.18575065646255, 37.868119220825236], [-88.18631028263003, 37.86763421727856], [-88.18675034393152, 37.86721135159239], [-88.18764116546954, 37.86653135148122], [-88.18826621054929, 37.86590353539635], [-88.18879985115055, 37.865318844186476], [-88.18935813792996, 37.86472062203521], [-88.18990700767024, 37.86388213325494], [-88.19044994583469, 37.86317331525699], [-88.19085770102363, 37.86261204732831], [-88.19160094103856, 37.86236376373778], [-88.19236808252826, 37.862322785652324], [-88.19310879019243, 37.862391957611806], [-88.19367515372454, 37.86247015842884], [-88.1942744791394, 37.86227820121418], [-88.19502055064412, 37.862063058669605], [-88.19604622727257, 37.861983605660996], [-88.19685908582372, 37.86192102119695], [-88.19770606777924, 37.86189750653096], [-88.19857459672517, 37.86183554822954], [-88.19963073252998, 37.86180610308911], [-88.20045530331579, 37.86167461469885], [-88.20126807293371, 37.86142984850652], [-88.2012667901395, 37.86075622699946], [-88.2013021954398, 37.85998088921863], [-88.20146846371742, 37.85928986182237], [-88.20163651874414, 37.85868719909335], [-88.20185488032509, 37.858002252031184], [-88.20243480392644, 37.857542254069664], [-88.20321163105152, 37.85698232844427], [-88.20376810053911, 37.85665733326353], [-88.2040621900985, 37.856205142332286], [-88.20398523951295, 37.85597229641235], [-88.20386439185272, 37.8556066227837], [-88.20338347068055, 37.85506013747737], [-88.20275487995038, 37.85477421312347], [-88.2018862315285, 37.85484445821647], [-88.20112210029333, 37.854728198462205], [-88.20039399958586, 37.8545487895949], [-88.19963225247945, 37.85430554243668], [-88.1987886374096, 37.853600240512975], [-88.19838195480912, 37.852999425803574], [-88.19782465078663, 37.85225880782211], [-88.1971270083572, 37.85157174544109], [-88.19652419658075, 37.85102940243143], [-88.19592323174051, 37.85039044062572], [-88.19528680320948, 37.849784082592834], [-88.19478031239105, 37.849121338729724], [-88.19438063305653, 37.84852329438643], [-88.19401028012275, 37.84766051763469], [-88.1937615195526, 37.84681571089269], [-88.19357141088565, 37.84618414032573], [-88.19376125185464, 37.845352595410674], [-88.19393717432662, 37.84451813053166], [-88.19393109452878, 37.843734060362834], [-88.19394164434348, 37.84280384058621], [-88.19368728187919, 37.84188718071686], [-88.19344510775669, 37.841064547244095], [-88.19320436465044, 37.8405317715005], [-88.19258361261946, 37.84057993178914], [-88.1920188283256, 37.84061214717171], [-88.19125165719149, 37.84084907675713], [-88.19082381387618, 37.84119207131042], [-88.19035579879967, 37.841631179194714], [-88.18988259774902, 37.84197640899235], [-88.18902420000288, 37.84188104152036], [-88.1879672611042, 37.84197113456775], [-88.18700038370264, 37.84226927694446], [-88.18636940884372, 37.84248567117744], [-88.18596490106454, 37.842514191884], [-88.18517320322823, 37.842756336523394], [-88.18494187716111, 37.842466598250226], [-88.1844257905388, 37.84158561177129], [-88.1835291281548, 37.84093761957506], [-88.1831139807294, 37.840622370592136], [-88.18306450871006, 37.84060919812148], [-88.18305839926784, 37.8405801999492], [-88.18301423269857, 37.84037018348897], [-88.18290831503836, 37.83986676229143], [-88.18311839235575, 37.83946404329103], [-88.1835316308612, 37.83822939251456], [-88.18384580675034, 37.83756810842865], [-88.18462898226954, 37.83690208706871], [-88.18503882334656, 37.83660564271919], [-88.18520380882997, 37.83637416801059], [-88.18552820844536, 37.83597755827878], [-88.18539671934228, 37.83574971973416], [-88.18530898178678, 37.835602406347284], [-88.18465190098738, 37.83536300443894], [-88.18377273149692, 37.83508238646251], [-88.18321176144975, 37.83491585071198], [-88.18254019711303, 37.834703866359206], [-88.18199895586612, 37.83460107830148], [-88.18132423215454, 37.83492184078949], [-88.18077372209056, 37.83530474074509], [-88.17992426707306, 37.83602381166919], [-88.17921199198595, 37.83648768485357], [-88.17865331623604, 37.83674905139061], [-88.17802466621706, 37.83647954950336], [-88.17751293103399, 37.83610374245418], [-88.17716269317607, 37.83566353178982], [-88.1768530474909, 37.83528453577673], [-88.1760964261715, 37.83533382825597], [-88.1755858525101, 37.83526441948647], [-88.17484630726591, 37.83533320250465], [-88.17439840816357, 37.835264537967845], [-88.17394338631934, 37.83483967672063], [-88.17395235689577, 37.83437046783241], [-88.17402537196205, 37.833468591023326], [-88.17402692245425, 37.832657013366514], [-88.1739006795124, 37.8319764475983], [-88.17390857660207, 37.831200782332], [-88.1739149546406, 37.83050242481318], [-88.17406992660352, 37.829863759826736], [-88.17410458630212, 37.828961435556984], [-88.1738550513842, 37.8289006089502], [-88.17307876055331, 37.828891637645796], [-88.17235328202817, 37.828772846518106], [-88.17170976129799, 37.82855832921741], [-88.17114673500713, 37.82814050060549], [-88.17103584068026, 37.8275677885436], [-88.17087961646584, 37.826815101140774], [-88.17072711756488, 37.82605415816025], [-88.17011885211633, 37.82581800485624], [-88.16924546508135, 37.82596800004394], [-88.16840584392125, 37.82581469688671], [-88.16778336263333, 37.8254127533622], [-88.16732577789558, 37.82512584554746], [-88.16734711647685, 37.824560168913834], [-88.16756616347237, 37.82385051520065], [-88.16781489349981, 37.82304728293152], [-88.16828264087836, 37.822439851429245], [-88.16895465347442, 37.821892740707796], [-88.16954721367686, 37.82149654843288], [-88.17006535654284, 37.82098359048063], [-88.17076896019249, 37.82060244912875], [-88.17081226348078, 37.82057386743963], [-88.17129681833828, 37.81978038088822], [-88.17168135836532, 37.81900391114776], [-88.17214481449177, 37.818655938995], [-88.17274616560758, 37.81790596376317], [-88.17280630601921, 37.817747981539725], [-88.172583444777, 37.8172996651161], [-88.17213065794121, 37.816764385853496], [-88.17146126842577, 37.81608858786373], [-88.1708420058015, 37.81552103233474], [-88.16985623323627, 37.81464281752729], [-88.16906235878203, 37.81410634591098], [-88.16814450693711, 37.81350216354474], [-88.1672549960411, 37.81287354250718], [-88.16624192547101, 37.81235119789177], [-88.16528962233663, 37.8122905797281], [-88.1643890846205, 37.812432081173355], [-88.16365642406467, 37.81218361940154], [-88.16261313416841, 37.81181567977627], [-88.16144211102528, 37.81158444382658], [-88.1603202616608, 37.811679393416014], [-88.15934739429294, 37.811977446714494], [-88.15850419783801, 37.81239846462465], [-88.1584023926652, 37.81252998268416], [-88.1577732647425, 37.81280672638173], [-88.15715418178128, 37.81300598443781], [-88.15683428362378, 37.813309581372295], [-88.15649587837477, 37.8136020315726], [-88.15640721555455, 37.81367862348737], [-88.15583653112591, 37.81351253478643], [-88.15557635746006, 37.81329935842533], [-88.15537068907408, 37.81313079704837], [-88.15464071358262, 37.81315943697467], [-88.15399224403353, 37.81320867042692], [-88.153924681741, 37.813237638905356], [-88.15361184703657, 37.81324300267491], [-88.15282131072192, 37.81330588606632], [-88.15249667305297, 37.8132028893622], [-88.15271813471998, 37.81275290383348], [-88.1529790836319, 37.812573731381825], [-88.15327379931706, 37.81227904726142], [-88.15303570893585, 37.81186252955174], [-88.15312881033189, 37.81139731494548], [-88.15337387523297, 37.81098345009863], [-88.15366391159381, 37.81062868302772], [-88.1536651333026, 37.810617656322044], [-88.15396008704131, 37.81025707780977], [-88.15428806195153, 37.81008693605712], [-88.15467334668195, 37.80999949672412], [-88.15494702022988, 37.80993741887955], [-88.15518478362434, 37.80976820043848], [-88.15499071069203, 37.809617967221875], [-88.15491096005776, 37.80955621623589], [-88.15463642143219, 37.80929660787704], [-88.15445131907632, 37.80898842241296], [-88.154175259603, 37.808633447743205], [-88.15419856459641, 37.80829286608443], [-88.1541997575591, 37.808275491215866], [-88.15421948635938, 37.807859003441955], [-88.15422237713796, 37.80779832623104], [-88.15448541283631, 37.80731883660997], [-88.15474734540346, 37.8067678209502], [-88.15519104218693, 37.806310385728345], [-88.15542847769629, 37.80611729578046], [-88.15551564931316, 37.80592563760598], [-88.15536929039718, 37.80580106335852], [-88.15515122615858, 37.80580282212538], [-88.15435362639086, 37.805725097081805], [-88.15369451719555, 37.80567368892222], [-88.15289498066008, 37.80552694150028], [-88.15253696518843, 37.80488303244229], [-88.15214637680457, 37.80397951556039], [-88.15188813900816, 37.80306368999712], [-88.15156463411476, 37.801956861031115], [-88.15153375901846, 37.80113735692855], [-88.15154880939274, 37.80028250748927], [-88.15168473707165, 37.79930209972968], [-88.15185154164348, 37.79834139148957], [-88.15186822964651, 37.79757484687161], [-88.15239787723634, 37.79685801069598], [-88.15297485077029, 37.795882490928065], [-88.15351221668504, 37.795129952502606], [-88.15374619368058, 37.79395761888926], [-88.15310389465915, 37.79315912492079], [-88.15254092855545, 37.7925435280927], [-88.1519043805485, 37.791800347463614], [-88.15114507596132, 37.79095929540261], [-88.15032634691981, 37.78997689189137], [-88.14950991217552, 37.78936683779805], [-88.1487989468321, 37.789011624001006], [-88.14792341462022, 37.788403686728365], [-88.14715564700477, 37.787945803402636], [-88.14664561053593, 37.78792646151681], [-88.14615318643649, 37.78789764284298], [-88.14566439692074, 37.788461444356415], [-88.14521021050972, 37.78897106376888], [-88.14513364799636, 37.789086219586636], [-88.14474067458544, 37.7893420129339], [-88.1439324657142, 37.789540616582954], [-88.14312526834598, 37.789810773311174], [-88.14252883550637, 37.79010271741067], [-88.14214671104912, 37.79065489455676], [-88.1417964435468, 37.791325984465225], [-88.1413868099806, 37.79204532342066], [-88.14094642169235, 37.79271730579547], [-88.14026344066666, 37.7932485327943], [-88.13871678968243, 37.79428887161617], [-88.1374419949543, 37.79542195650826], [-88.13727945288849, 37.7957333616738], [-88.13679012887513, 37.796024440493944], [-88.13601216807615, 37.79624652700329], [-88.13445118267492, 37.796356975158844], [-88.13258755215953, 37.7963271723806], [-88.12994596354011, 37.79651951703546], [-88.1290792815304, 37.79683783637274], [-88.12740716285043, 37.797545372527026], [-88.12621506972232, 37.798200607650436], [-88.12550294285725, 37.79880359708086], [-88.12575492209106, 37.799564272285345], [-88.12571471888886, 37.800876200711386], [-88.12539938057972, 37.80188077794349], [-88.1255952402611, 37.802904279166206], [-88.1253217975802, 37.80402055871373], [-88.12467846729284, 37.80380032536871], [-88.12404978762946, 37.803685523948864], [-88.12171697692264, 37.803703334278275], [-88.12149735320872, 37.80375462030903], [-88.11768550052257, 37.80506180266841], [-88.1163417529099, 37.80591192804711], [-88.11477862053513, 37.80755733232001], [-88.11429414023779, 37.8081332231032], [-88.11359027338175, 37.80925758254921], [-88.11297898330565, 37.81038374385804], [-88.11199223606833, 37.81111908197933], [-88.11091449488262, 37.811716917167125], [-88.11018764552836, 37.81216034578369], [-88.10957756188967, 37.812470886949036], [-88.10894792821546, 37.81275111826405], [-88.1081463650807, 37.81309396382721], [-88.10736405284247, 37.813235226699305], [-88.10654276090744, 37.81326723473027], [-88.10641681620629, 37.81322068320264], [-88.10621404129384, 37.81322259011614], [-88.10585161509414, 37.81310674875596], [-88.10572945499528, 37.81288400680584], [-88.10560443466056, 37.81265598908276], [-88.10565173006195, 37.811797085771055], [-88.10534515392011, 37.8113945755081], [-88.10446828052352, 37.81104511401709], [-88.1036872492829, 37.8110762869688], [-88.10233556595296, 37.811136637152615], [-88.10116844688807, 37.81148139007424], [-88.09996878365705, 37.81165951837468], [-88.09913327588266, 37.81190813023623], [-88.09783052648119, 37.811948183928486], [-88.09646775524574, 37.811915877963905], [-88.09619235154256, 37.811851505159396], [-88.09570293679936, 37.81181851429713], [-88.09516196594538, 37.811823551000494], [-88.0946507068694, 37.811804448146056], [-88.09422855617804, 37.81171295422616], [-88.09344433861311, 37.81152952106582], [-88.09289952207139, 37.81127223752517], [-88.09277509642139, 37.81098723707252], [-88.0927362353022, 37.81039145909912], [-88.09272851607895, 37.80986690887718], [-88.0926299295698, 37.80929550923207], [-88.09237544762958, 37.80834400982125], [-88.09205435740769, 37.80744922388019], [-88.09192775603806, 37.80726242448393], [-88.09121807348889, 37.80631891121699], [-88.09062822619862, 37.80557054600851], [-88.08933551996203, 37.8039513547173], [-88.08892770458598, 37.80358740913569], [-88.08823173122634, 37.80294305375029], [-88.08754824444915, 37.80221867778796], [-88.0871357201044, 37.801598670559805], [-88.08739812967697, 37.8010257802428], [-88.08752651869402, 37.800525429542084], [-88.08733706489892, 37.799778492680865], [-88.0863982311039, 37.798450292647665], [-88.08585764652548, 37.79772731854805], [-88.08517204421581, 37.79674548062013], [-88.08412827731414, 37.79566189755864], [-88.08293785325583, 37.79451435860837], [-88.08278654641927, 37.794422747435625], [-88.08210079409093, 37.79417017245535], [-88.08171524256088, 37.79381156089679], [-88.08125694186586, 37.79361861999976], [-88.08040480358059, 37.79390764285917], [-88.07959349462332, 37.794515164300634], [-88.07881797903855, 37.79515907359332], [-88.07842661451029, 37.79550135273711], [-88.0776198654014, 37.79638421681133], [-88.07681880891646, 37.79709568767357], [-88.07654459727766, 37.79726979255037], [-88.07601486075461, 37.797606082296014], [-88.07589645651197, 37.797590108250034], [-88.07545591910338, 37.79753068255417], [-88.0742049656629, 37.79693851059889], [-88.07344494601676, 37.7969856878199], [-88.07282678652366, 37.79732766888849], [-88.0720511128354, 37.798103042055196], [-88.07147409258906, 37.798632472810326], [-88.07121830090516, 37.7990131859919], [-88.0708732786658, 37.79882282893658], [-88.07034979801038, 37.79853729420835], [-88.0696419076002, 37.798430218134534], [-88.06832130597911, 37.798061401488376], [-88.067494443591, 37.79770448330817], [-88.06632850670901, 37.79741894780627], [-88.06517446801297, 37.79710366836192], [-88.06402637796073, 37.796919259796816], [-88.06224178122403, 37.79708582236897], [-88.0612899973159, 37.797121514350565], [-88.05576369733359, 37.79719289897181], [-88.05573395411453, 37.797633099181226], [-88.05499037273978, 37.79816847809679], [-88.05370546298157, 37.79897154664797], [-88.05195655810775, 37.799804358169254], [-88.05149851253428, 37.80000066301852], [-88.05046344671446, 37.80060742597094], [-88.04989237511191, 37.80097029385621], [-88.04939507226221, 37.801367222327805], [-88.04881069840695, 37.80137244287122], [-88.04820109087537, 37.80129731030807], [-88.04715812886421, 37.80147827112076], [-88.0466070537599, 37.80157384696639], [-88.04590389747125, 37.80177838069179], [-88.04541692704395, 37.80258420583371], [-88.04505572345134, 37.8035541817752], [-88.0449408352147, 37.80447611659448], [-88.045346266462, 37.805439536514], [-88.04485592825068, 37.80576491919976], [-88.04243186667729, 37.806089614833596], [-88.04237440773679, 37.80608580063807], [-88.04102772981965, 37.80636013050702], [-88.03969929039769, 37.80696112424881], [-88.03952372455689, 37.80715123392307], [-88.03916889900282, 37.80727223094056], [-88.0378021644003, 37.807260697690076], [-88.0364941697359, 37.807201510439654], [-88.0351538698573, 37.80695400199326], [-88.03416800746052, 37.80656198233555], [-88.03354060969305, 37.806308215319916], [-88.03294095639312, 37.80591279891219], [-88.03230896823456, 37.80532903096313], [-88.03230046478207, 37.8053143546041], [-88.03141196089747, 37.805253180601106], [-88.03086944314457, 37.8046535569988], [-88.02997000766129, 37.802797577089564], [-88.02951314966062, 37.80209801602814], [-88.02907572132122, 37.80156746876444], [-88.02236063041781, 37.803378543689554], [-88.02197643175057, 37.803521143199795], [-88.02065939194958, 37.80392750855891], [-88.02053306187118, 37.803968272801455], [-88.01891978643559, 37.80439657528278], [-88.01729223497348, 37.80428236176721], [-88.0160358790649, 37.8042395315646], [-88.01252379418905, 37.803711290830215], [-88.01018240367296, 37.80321160421927], [-88.00849774451164, 37.80245493569254], [-88.00714145192597, 37.80208374005746], [-88.00609008887028, 37.801447630012085], [-88.00538897355396, 37.80166101377874], [-88.00470817902769, 37.80180834949122], [-88.00386480919792, 37.80198108756301], [-88.00334151359546, 37.802153827360165], [-88.00323482158748, 37.80225543764771], [-88.00319417641414, 37.80277365390226], [-88.00293507084515, 37.803195338957195], [-88.00259467223455, 37.80355097572519], [-88.00234064574019, 37.80381516527605], [-88.00217806864008, 37.80386089017188], [-88.00167001385473, 37.80377452090051], [-88.00120768331733, 37.80390153449989], [-88.00084188484207, 37.80401330699651], [-88.00023729979124, 37.80434354154271], [-88.00015601124117, 37.8044451530764], [-88.00015092947162, 37.80490748229893], [-88.00025762237792, 37.805263120758994], [-88.00037955430469, 37.80561367850432], [-88.00049132718391, 37.80593375219307], [-88.0009028526021, 37.80624874695559], [-88.00125340846361, 37.80639608274285], [-88.00159888525052, 37.8065993042807], [-88.00187323612818, 37.80675172042204], [-88.00214250523628, 37.80686349215369], [-88.00210186096126, 37.808057421044175], [-88.00218314861301, 37.80875853602104], [-88.00224919454932, 37.80889571137754], [-88.00256101954737, 37.8089293259724], [-88.0028537813968, 37.80933771833751], [-88.00290966648892, 37.80978988717966], [-88.00308349229304, 37.81115392831293], [-88.003055954438, 37.81398598176642], [-88.00314852043815, 37.81421245042658], [-88.00345649885016, 37.814758310160066], [-88.0039771444225, 37.81546924423051], [-88.0046183421094, 37.81620303717436], [-88.00504719782603, 37.816795507424736], [-88.0053567851207, 37.81746060537104], [-88.00524276106337, 37.81791464403294], [-88.00503557542288, 37.818154880312335], [-88.00462123378628, 37.81863535336406], [-88.00426670467624, 37.81909144838929], [-88.0036710749305, 37.81950191624564], [-88.00307374647052, 37.8197931745937], [-88.00272017316794, 37.820320794329035], [-88.00251686106296, 37.82084716351173], [-88.00249513530783, 37.821467349736224], [-88.00181069901137, 37.821546665455344], [-88.00121010966693, 37.82177328548238], [-87.99941564673347, 37.82313357147361], [-87.99791563897374, 37.823699245560015], [-87.99763803529642, 37.82434720823553], [-87.99775502559082, 37.82576402362864], [-87.99785853307111, 37.8260531278822], [-87.99791920977698, 37.82654210815068], [-87.99791207086541, 37.82712067413621], [-87.99827612840566, 37.828134324078505], [-87.99863304703435, 37.82913012894289], [-87.9988332231207, 37.829583307537945], [-87.99879040761762, 37.82981050668996], [-87.99843317368028, 37.83018089953549], [-87.99831182026854, 37.830523540689356], [-87.9983225272884, 37.830880459881435], [-87.99839748091908, 37.83130876446413], [-87.99857288057156, 37.83156387306938], [-87.99857481823763, 37.831706953108515], [-87.99848991127361, 37.831862909623645], [-87.99845745693904, 37.83192257304405], [-87.9983349393107, 37.83198882413162], [-87.99809923305823, 37.83211637807828], [-87.99764990204132, 37.83223940236676], [-87.99741166253976, 37.83240835148161], [-87.99720379238303, 37.832600873891955], [-87.99711715616208, 37.832863939953604], [-87.99718111171873, 37.833149534924736], [-87.99721502761228, 37.83343542819384], [-87.99724864436685, 37.833697480264526], [-87.99716293251232, 37.83403201203623], [-87.99692594526228, 37.83429632877213], [-87.99447354004505, 37.83527092461036], [-87.99387513989495, 37.83549059795789], [-87.99360712752993, 37.83568365719429], [-87.99340116269991, 37.83601923138231], [-87.99313502871215, 37.83635531272579], [-87.99301572974747, 37.83646581865909], [-87.99292715765708, 37.83654783547815], [-87.9924499626967, 37.836838021255474], [-87.9924419748772, 37.83684132802134], [-87.99215089647063, 37.836959762783344], [-87.9915208154354, 37.83706043551596], [-87.99110054222298, 37.83711169482719], [-87.99053027461264, 37.83718801900447], [-87.98998909445118, 37.83719257864469], [-87.9898406783932, 37.837183996418226], [-87.98915757968823, 37.837306632700596], [-87.98804031981653, 37.83760963306871], [-87.98851453506514, 37.838814451834175], [-87.98853953877274, 37.83938611957656], [-87.98827411984395, 37.83999378970375], [-87.98703002234572, 37.84126605020737], [-87.9870735322465, 37.84207950529548], [-87.9876418927335, 37.84313489546799], [-87.989022098472, 37.84491871295969], [-87.98946210138301, 37.845425561407936], [-87.99050011637192, 37.84636072925997], [-87.99220132250078, 37.847265080147814], [-87.99392356897023, 37.84787245127378], [-87.99664514807414, 37.84870390606125], [-87.99865638885869, 37.849168703209386], [-87.99951520252483, 37.84920547941253], [-88.0000231531056, 37.84912814268065], [-88.0006489419904, 37.849278196876995], [-88.00305762620276, 37.8495002246325], [-88.00654935705086, 37.8494997479611], [-88.00782632749859, 37.849318072815784], [-88.01188605950762, 37.848279193159144], [-88.01418471357238, 37.84740809994027], [-88.01650688193801, 37.84639014226451], [-88.01808592796804, 37.84643758723771], [-88.01847511677667, 37.84636433282184], [-88.0187266782939, 37.84622387464619], [-88.01974156705413, 37.84509070179123], [-88.02004987245289, 37.844862861601705], [-88.0216685557465, 37.844142092743894], [-88.02300384931407, 37.84389243883472], [-88.02353394336657, 37.84368927598453], [-88.0239766870375, 37.84325326833919], [-88.02481198550446, 37.84196735698704], [-88.02552962622873, 37.84014694208968], [-88.02591556672931, 37.83979825450108], [-88.02690163663691, 37.83959330325642], [-88.02770597107431, 37.839252633167966], [-88.02849883222892, 37.83882541615399], [-88.02850875681617, 37.83883376123826], [-88.02884963602547, 37.83857784843925], [-88.0292291391987, 37.838353079867346], [-88.02961433409759, 37.838091533849244], [-88.02978372941071, 37.837983292056194], [-88.02993903015705, 37.83788041492119], [-88.03007659726134, 37.83779386835877], [-88.03024557665448, 37.83770228604817], [-88.03036898810652, 37.8376266179317], [-88.03055891890705, 37.83753524399099], [-88.03074080170094, 37.83749068996655], [-88.03082463607652, 37.837471646253924], [-88.03133580532095, 37.83791221432985], [-88.03170198647854, 37.83822778988777], [-88.03403214176537, 37.83972398610476], [-88.0351942545192, 37.84025747781393], [-88.03588295601661, 37.840480339339386], [-88.03621119862478, 37.84052692049559], [-88.0367057086123, 37.84059713517835], [-88.03740147356277, 37.84069593008559], [-88.03877488444446, 37.84085546149729], [-88.0400404705426, 37.84104464677298], [-88.04184765451879, 37.84125755500306], [-88.04275367555142, 37.84153575878006], [-88.04286918901549, 37.84158591610753], [-88.04333455226528, 37.8417881249248], [-88.04402006564175, 37.84178204531021], [-88.04481218119466, 37.841660541589384], [-88.0451464739563, 37.841657591162296], [-88.04542557332854, 37.84165508695261], [-88.0454549877642, 37.841706049376285], [-88.04557348273671, 37.841911327461375], [-88.04557917446235, 37.842311900638585], [-88.04601458698224, 37.842479717184155], [-88.04713464780099, 37.84258423370977], [-88.04756502256876, 37.842555058254824], [-88.04810802181868, 37.84251834116208], [-88.04872174093931, 37.842541497378534], [-88.04934925818272, 37.84276227346884], [-88.04999105145262, 37.84298802459515], [-88.05014173306174, 37.84300772591131], [-88.05030436406078, 37.8430646186463], [-88.05051846403403, 37.843127918581445], [-88.05071518879303, 37.843190980106165], [-88.05089495695275, 37.84323455030679], [-88.05105395157153, 37.8432751119492], [-88.05124754749839, 37.84332160408508], [-88.05143452823152, 37.84335423681112], [-88.05162120892734, 37.843400639513874], [-88.05178020534274, 37.84344122944051], [-88.0519458465963, 37.843495649616465], [-88.05215943991973, 37.84358097359539], [-88.05235968158308, 37.843644094321384], [-88.05253906167059, 37.84370420576892], [-88.05274571281349, 37.84378949971227], [-88.05297662026568, 37.843880575766114], [-88.05321098443513, 37.84396894043582], [-88.05341793292038, 37.8440431776011], [-88.05361105184184, 37.84411172259282], [-88.05379031335173, 37.84417734769806], [-88.05399055501509, 37.84424046862301], [-88.0541627530719, 37.844311547345], [-88.05786670461768, 37.84581027673334], [-88.0580802090079, 37.84590388485989], [-88.05827985508822, 37.845994603619474], [-88.05850009504641, 37.84609655719321], [-88.05872081021342, 37.84617928827385], [-88.0588928896926, 37.84625856324238], [-88.0591338115636, 37.846369069235465], [-88.05927125919196, 37.84644247261259], [-88.05946744855507, 37.84653313183266], [-88.05967391913661, 37.84663216564566], [-88.05987356521693, 37.84672008225014], [-88.0600803034964, 37.84680811721263], [-88.06030063148953, 37.84690735920738], [-88.06050006916068, 37.8470090745942], [-88.06067173092329, 37.8471077204599], [-88.06083671640667, 37.847195220815685], [-88.06100191119754, 37.84727172253736], [-88.06120206302936, 37.847343099812754], [-88.06140907080342, 37.84741733712814], [-88.06164340622676, 37.84751398633264], [-88.06189818640765, 37.84763015531675], [-88.06213928614505, 37.84773514902872], [-88.062394245989, 37.84784306368766], [-88.0626394294677, 37.84792329164942], [-88.06287379543376, 37.84801710918834], [-88.06309370660856, 37.848138434321676], [-88.06330658487302, 37.84826235190884], [-88.06348522025716, 37.848361057101506], [-88.06364341088374, 37.84844301316745], [-88.06379492523114, 37.84851105185553], [-88.06395946425185, 37.84861786448193], [-88.06413073794224, 37.84873576251595], [-88.06426088496227, 37.848825586152664], [-88.06446738518822, 37.848924679308574], [-88.06468774372404, 37.84902663237789], [-88.06485246150947, 37.84912518829627], [-88.06484483211777, 37.849307102253164], [-88.06483374600884, 37.84948907534519], [-88.06482736797032, 37.84961588473419], [-88.06478758248471, 37.84983606367038], [-88.06475566354605, 37.850014966906514], [-88.06472693452494, 37.85021047076568], [-88.06471569929568, 37.850395155501026], [-88.06474875011162, 37.85062448448695], [-88.06490467518707, 37.85080568258769], [-88.0650002514417, 37.85088683440597], [-88.06513725260737, 37.850982261872964], [-88.06527461130253, 37.85106117843783], [-88.06539125754216, 37.851134312569044], [-88.06556220424578, 37.851265979357734], [-88.06576670751684, 37.85145331711933], [-88.06587575490751, 37.85155392963795], [-88.06605337609369, 37.851699544283896], [-88.06614179906374, 37.85178886211832], [-88.06626470476428, 37.85189242419678], [-88.06639762308698, 37.852015389257865], [-88.06650646117018, 37.852124287135965], [-88.06660123253432, 37.85224129009348], [-88.06673733987628, 37.85237537150653], [-88.06687347686264, 37.8525094221757], [-88.06696863629901, 37.85260985592744], [-88.06712140289791, 37.852777225585704], [-88.06718878552736, 37.852874590541276], [-88.06730447775618, 37.85298908990188], [-88.06746076125943, 37.85315648990829], [-88.06755565209951, 37.853267980706185], [-88.06767098769716, 37.85339902163287], [-88.06777946735255, 37.8535244589068], [-88.06788768020832, 37.853663695250916], [-88.06800966154243, 37.85380859431114], [-88.06812827419421, 37.85394797977872], [-88.06821601264802, 37.854067637545874], [-88.06830348250556, 37.85420112196403], [-88.06837766089014, 37.85430682979101], [-88.06847901780364, 37.85444049322516], [-88.0685977211853, 37.85457707795594], [-88.0686990780988, 37.854710711110215], [-88.06877325648338, 37.85481642033437], [-88.06886814732347, 37.85492791004054], [-88.06897594246263, 37.85508645952178], [-88.0690905926457, 37.85524783867775], [-88.06918545294309, 37.855362101000594], [-88.06919493016933, 37.85537226350631], [-88.06951995411386, 37.85597540301535], [-88.070942598063, 37.857021256191146], [-88.07190011681593, 37.85783271399414], [-88.07211192249193, 37.85801215316877], [-88.07269634665286, 37.85849328230915], [-88.07318087276427, 37.85954765881819], [-88.0732835421164, 37.86023302273085], [-88.07330073766757, 37.86034779151666], [-88.07337092214242, 37.860344364526796], [-88.07402207316262, 37.860312624436915], [-88.07698505114293, 37.860543056625346], [-88.08030643087048, 37.86059848901035], [-88.08185737400512, 37.86052702243901], [-88.08219485578601, 37.860507680417015], [-88.08304618918078, 37.86037300456841], [-88.08477800360632, 37.860328448738336], [-88.08676411941069, 37.86039598141707], [-88.08843007025793, 37.86078120657686], [-88.08845859086989, 37.86078546759363], [-88.08876328953278, 37.86083085719406], [-88.08912652062297, 37.86088494822222], [-88.08919932728013, 37.86089579578491], [-88.08973404136816, 37.86097545705906], [-88.08985900241406, 37.860994084062774], [-88.08987697321133, 37.86099676633959], [-88.0898824268834, 37.860998345776466], [-88.08998435063387, 37.86101694298706], [-88.090199285142, 37.861060901236684], [-88.0903929403577, 37.86111841975928], [-88.09067689781901, 37.86118803753005], [-88.0908709994974, 37.86122621482918], [-88.0911098363786, 37.86128981264787], [-88.09129693568936, 37.86133067215889], [-88.09143590326718, 37.861343367879265], [-88.09174808220145, 37.861394030881016], [-88.09190672018906, 37.86130209135457], [-88.09202032742809, 37.86119861767222], [-88.09211989579588, 37.861100448816224], [-88.09220951172861, 37.86098010742747], [-88.09229611830517, 37.86083768134101], [-88.0923650801729, 37.86070604441355], [-88.09242313469645, 37.860596342184415], [-88.09248852126935, 37.86047018927727], [-88.09251969550463, 37.860316050719064], [-88.09250699961474, 37.860095126474185], [-88.0925035419992, 37.859932286983025], [-88.09250372076394, 37.85976396333774], [-88.09253456621586, 37.85962362359833], [-88.09259262073941, 37.859513921176564], [-88.09264358216546, 37.85940967333387], [-88.09269147494653, 37.85928885470413], [-88.09274359879258, 37.85912944189664], [-88.09276017001463, 37.859008205773875], [-88.09280153563682, 37.85886247222632], [-88.09281142968138, 37.858727378464124], [-88.09281435010435, 37.85859219508938], [-88.09278299800262, 37.85843179917812], [-88.0927765013865, 37.858249557366946], [-88.09273212550978, 37.85804764689189], [-88.09267606794108, 37.85790343349903], [-88.09262325778218, 37.85777042601939], [-88.09258555728633, 37.85758234327994], [-88.09257405435913, 37.857471806572455], [-88.09251504492643, 37.85730285741742], [-88.0924612825533, 37.85705385873959], [-88.09243365486674, 37.856882435432325], [-88.09242325417237, 37.856719506568986], [-88.09240003811217, 37.856509548838716], [-88.09236794040875, 37.856382263331504], [-88.09233384664877, 37.85618869653612], [-88.09236534787084, 37.856020761532974], [-88.09240668474696, 37.855880540916885], [-88.09249245499197, 37.855776709243095], [-88.0926343735355, 37.85565148007205], [-88.09277557702006, 37.855559361028966], [-88.09297623640002, 37.85545415929259], [-88.09314521579317, 37.85536507995971], [-88.0933314203819, 37.85528449481794], [-88.0935490974466, 37.855196041572135], [-88.09376617623332, 37.855135214610335], [-88.0940353510183, 37.85508043845514], [-88.09418749238978, 37.85512639331717], [-88.09423955694702, 37.85529257064243], [-88.0942681970349, 37.85541705497464], [-88.09430011507526, 37.855549884417165], [-88.09431597034003, 37.855781835151674], [-88.09430646257107, 37.855900389153966], [-88.09428530365285, 37.85607395815632], [-88.09426032958964, 37.85626403778569], [-88.09423201738684, 37.85644583128507], [-88.09420781677309, 37.85660005808353], [-88.09413414593662, 37.85678676948835], [-88.09407224752198, 37.85691298331288], [-88.09400701006942, 37.857033622847915], [-88.09392275887555, 37.857228530050094], [-88.09389757550487, 37.857426893651315], [-88.09389483384663, 37.85755379293861], [-88.09390606907589, 37.857680839532165], [-88.09391939109155, 37.857868654632355], [-88.09390144904037, 37.85805605150567], [-88.09387862105238, 37.85830692772296], [-88.09385489834236, 37.85843901079568], [-88.09381868904988, 37.8586648827276], [-88.0937647173693, 37.85890702681487], [-88.09374474961717, 37.85902823260666], [-88.09372809036022, 37.859154983033804], [-88.09370424727595, 37.85929263919914], [-88.09365954441246, 37.85943011708888], [-88.09361120516873, 37.85957298987673], [-88.09354566947547, 37.85970742746594], [-88.09348368033099, 37.859839154831086], [-88.09344639845006, 37.85995457885113], [-88.09341570122017, 37.86008666322678], [-88.0933916811678, 37.86023263407326], [-88.09337809145417, 37.86038149757052], [-88.09337525996439, 37.86051113718676], [-88.09337421702035, 37.86072359771961], [-88.09336429333139, 37.86086146301301], [-88.09335401121466, 37.8610158699348], [-88.09335749757628, 37.86117870915966], [-88.09337129659735, 37.86134718205592], [-88.093422080157, 37.8615768684605], [-88.0934785266962, 37.861704482583896], [-88.09353863656511, 37.86182384052878], [-88.09360575149663, 37.86194054582495], [-88.09374805721403, 37.86212439692944], [-88.09387027660169, 37.86226935524428], [-88.0939587606572, 37.862364216922046], [-88.09419238012323, 37.86251051587602], [-88.0943719695182, 37.86257891249659], [-88.09456547651187, 37.86264745727768], [-88.09483533581313, 37.862725152160344], [-88.09497349850044, 37.86277650143156], [-88.09513243562704, 37.86283360302165], [-88.09514143584786, 37.86283676181663], [-88.09622925074116, 37.863427295238644], [-88.09811865841365, 37.86426816781825], [-88.09949645037898, 37.86468453580906], [-88.10160374352529, 37.865609153613875], [-88.10229542653113, 37.86600328853093], [-88.10291361656694, 37.86631224928833], [-88.10363676935381, 37.86664192211616], [-88.10371321239124, 37.86667676208634], [-88.10399383081462, 37.866845651459194], [-88.10568007640074, 37.867860152511355], [-88.10643389677311, 37.868297381885334], [-88.10684525779958, 37.868535979781704], [-88.1081892542456, 37.86909563680262], [-88.10899054968242, 37.86957456120755], [-88.10935190239533, 37.86959977323007], [-88.10939702387375, 37.87020026116331], [-88.10931846530384, 37.870386346699334], [-88.1093195971811, 37.87042294354414], [-88.10933303777438, 37.87061910311661], [-88.10933724009328, 37.87075717681902], [-88.10934120346032, 37.870906248104994], [-88.10933828303732, 37.871049806351536], [-88.10933813391699, 37.871232017929], [-88.10934132383456, 37.871419771549355], [-88.10934808814865, 37.871599271956235], [-88.10935795254879, 37.871803685364576], [-88.10936865148382, 37.871963903259285], [-88.10937297327867, 37.87209649369221], [-88.10937395693388, 37.8722207397454], [-88.10939797788458, 37.87241153364545], [-88.10939514639482, 37.87255226031695], [-88.10939461010058, 37.87275101239433], [-88.10940581568543, 37.87288917641268], [-88.10941034588942, 37.87301070950723], [-88.10941696108317, 37.87320126593878], [-88.10942026957835, 37.87338353672354], [-88.10944116169692, 37.87355770132557], [-88.10949879850388, 37.87381236312337], [-88.10957884827715, 37.87398998497643], [-88.10966730089162, 37.87409599131517], [-88.10982564063853, 37.874191776609955], [-88.11004796648481, 37.87422482680128], [-88.11030626357004, 37.87420310014369], [-88.11052286714798, 37.8741725835389], [-88.11080369398053, 37.87424223152292], [-88.11090207118224, 37.87437592474963], [-88.11096873875273, 37.8745258318233], [-88.11102730172274, 37.87473358188713], [-88.11103084737316, 37.87490476725549], [-88.11106214018608, 37.875079080714634], [-88.11070564376558, 37.876179055299865], [-88.10939776857713, 37.87658838935647], [-88.10915824807797, 37.88053877791818], [-88.10929849845003, 37.8853578442184], [-88.10945487178479, 37.88537906278697], [-88.10966387471711, 37.88538159599777], [-88.10981047258495, 37.88537232740931], [-88.11006870948306, 37.885353373344365], [-88.1102709489996, 37.88534750222005], [-88.11049023404867, 37.885361211907906], [-88.11071303690036, 37.885372178522026], [-88.11094242530143, 37.885402547271454], [-88.1112064734011, 37.885441618109034], [-88.11136987964622, 37.885460185044735], [-88.1115368027957, 37.885478752684755], [-88.11170339716176, 37.885511117185324], [-88.11188402950077, 37.88554091939805], [-88.11207169385185, 37.885565237597646], [-88.11228788061149, 37.88555957564085], [-88.11252477982663, 37.885562437105655], [-88.11268854360122, 37.885564374053565], [-88.11284882011591, 37.88556359913262], [-88.1130158025542, 37.88557939390563], [-88.11317581137092, 37.88559512982956], [-88.1133289651437, 37.885602491220524], [-88.11360401131739, 37.88561685525391], [-88.11377781825688, 37.88563828360729], [-88.11393743989973, 37.88567052963737], [-88.11417934452764, 37.885772871447145], [-88.11434346673005, 37.8859294523683], [-88.11512881796885, 37.88708733246851], [-88.11602905744432, 37.88842605254139], [-88.11624339547112, 37.88833754053113], [-88.1165437732375, 37.88882704362417], [-88.11679345727578, 37.889937060665744], [-88.11662516329719, 37.89068593340994], [-88.1167651756157, 37.89135293990339], [-88.11736348683257, 37.892280805885555], [-88.11761218721561, 37.89326797762705], [-88.11816654027238, 37.893956530567614], [-88.11823735087297, 37.89477454438888], [-88.11826643742357, 37.8956755585272], [-88.11876422626185, 37.89675476019964], [-88.11970833406589, 37.897738535304335], [-88.12054703175787, 37.898501564032586], [-88.12191191852584, 37.89909764118497], [-88.12289342858504, 37.899868597043444], [-88.12377486183003, 37.89997850802854], [-88.12441978572869, 37.9004983494068], [-88.12479651670097, 37.900922467189474], [-88.12503010742094, 37.90100466180302], [-88.12516821081944, 37.90117897586228], [-88.12544453799073, 37.901814987313195], [-88.12570888522939, 37.90219359519978], [-88.12628863006599, 37.901960362288555], [-88.12704641290706, 37.90241797700835], [-88.12829337333609, 37.90263785924669], [-88.1290989294823, 37.90349845988071], [-88.1293904857926, 37.904089917670895], [-88.13022918348456, 37.90380727257922], [-88.13070274296301, 37.90365486346724], [-88.13133777102051, 37.90388812573978], [-88.13233519473498, 37.90368532036473], [-88.13306314632209, 37.90432961734566], [-88.13398105835412, 37.905154873905595], [-88.1351324119858, 37.90562962507496], [-88.13650221613163, 37.906431248238505], [-88.13696060575985, 37.90740706558247], [-88.13730318458167, 37.90850987144834], [-88.1374679023671, 37.90926202106492], [-88.13831303558976, 37.9099822245917], [-88.1391375479851, 37.91086502996862], [-88.13996292276309, 37.911881735504025], [-88.14067048977978, 37.912776253128165], [-88.14093793710448, 37.9135358545086], [-88.14076848070592, 37.9142647595399]]]}, "properties": {"huc12": "051201130904", "name": "Willow Pond Slough-Wabash River"}}]}