{"type": "FeatureCollection", "features": [{"type": "Feature", "geometry": {"type": "Polygon", "coordinates": [[[-88.02345900231232, 37.99479324836635], [-88.02397869567048, 37.99576161557023], [-88.02449606329039, 37.99655838071836], [-88.02497480874297, 37.997183723548595], [-88.02515818274023, 37.99755240815018], [-88.02519573321742, 37.99759442871429], [-88.02534617497636, 37.997776074871716], [-88.02544184106256, 37.99789623715691], [-88.02553375129253, 37.99803007872769], [-88.02563641974633, 37.99814753004779], [-88.02578710045717, 37.99813572864616], [-88.02594868851216, 37.99809927956895], [-88.0261243441845, 37.99805743839293], [-88.02634610319383, 37.99798305142554], [-88.02658559404858, 37.99789510451302], [-88.02682159944003, 37.997807127763124], [-88.0270400508525, 37.997721654764554], [-88.02715684531418, 37.99764860964404], [-88.02735497144504, 37.997529727555005], [-88.02748237680684, 37.99745131843446], [-88.02763439870238, 37.99736492120187], [-88.02790205263959, 37.997266305367944], [-88.0280886453005, 37.99720249800839], [-88.02829940713416, 37.99715284737057], [-88.02853830330419, 37.99709526881393], [-88.0287595260193, 37.99704850991835], [-88.02897723093179, 37.99700171984488], [-88.02917047022751, 37.99695457295413], [-88.02935327738781, 37.99690453492066], [-88.0295431183568, 37.996851813864694], [-88.02973424122173, 37.99679006404789], [-88.03042711539364, 37.996620995094126], [-88.03111084022436, 37.996386063307455], [-88.03117995211073, 37.99615655555336], [-88.0311747364922, 37.99578459262385], [-88.03135110542686, 37.99546830124137], [-88.03148933009795, 37.99500925520178], [-88.03133748696717, 37.99449552256046], [-88.03122140666615, 37.993952852799616], [-88.0316422458172, 37.993374717306885], [-88.03171156521441, 37.99336622336967], [-88.03188975413586, 37.993374121216284], [-88.03210498598635, 37.993454378893], [-88.03228093900105, 37.99357829611462], [-88.03238396498436, 37.99367637674659], [-88.03253539129685, 37.9938027381167], [-88.03271396649386, 37.99397091235881], [-88.03281005029665, 37.99406613097487], [-88.03291593741413, 37.994197409719796], [-88.03301824923679, 37.99433140175158], [-88.03309957910936, 37.994465124523124], [-88.03323798164686, 37.99454156736151], [-88.0335103149084, 37.99456174350024], [-88.03375910422464, 37.99453191113035], [-88.03394143527787, 37.99450392645915], [-88.03416587665666, 37.994468223156886], [-88.03420044742207, 37.99446199544806], [-88.0342663999336, 37.99449844350115], [-88.03498707965849, 37.99432037421898], [-88.03505696589265, 37.99414805792157], [-88.03512166705097, 37.9936038075833], [-88.03544338429694, 37.99334345440259], [-88.03561850187843, 37.992941301542736], [-88.03524975782736, 37.99242947651614], [-88.03563778421601, 37.99173931325701], [-88.03573940972579, 37.991251956374974], [-88.03591494502388, 37.99087841457938], [-88.03616042764156, 37.99073378321634], [-88.03630940873985, 37.990646015224215], [-88.03732167531777, 37.990637104683245], [-88.03801630749268, 37.99040080149889], [-88.03818528688582, 37.990343313218524], [-88.03828569068683, 37.98977015470237], [-88.038062710867, 37.98934287852648], [-88.03772728443148, 37.98863048360766], [-88.0377180165127, 37.98797241923621], [-88.03777619051218, 37.98697037477149], [-88.03780548637023, 37.98648367298047], [-88.03790910793657, 37.986139366376015], [-88.0379400135756, 37.985767106260624], [-88.03771950591944, 37.985511521407844], [-88.03728206680026, 37.98525784379057], [-88.0367719710426, 37.9849761819465], [-88.03651403148686, 37.984722236259266], [-88.03636865532779, 37.98457912564686], [-88.03636522825498, 37.98455468795515], [-88.03624813555264, 37.983721741910074], [-88.0365694638281, 37.983432749475405], [-88.03690643895915, 37.98322282251273], [-88.03703533372769, 37.983142504787466], [-88.03754146701667, 37.983138033484465], [-88.0381965517595, 37.98344702430866], [-88.03898592565417, 37.98362172564], [-88.03906695908269, 37.98363963692995], [-88.03975178614627, 37.983490476116415], [-88.03988908555262, 37.98297424058154], [-88.03995575312311, 37.98257304197572], [-88.04019667499409, 37.98171246977717], [-88.04062416077993, 37.98169086265799], [-88.04088308219427, 37.98167777914631], [-88.04219128616613, 37.98215261962758], [-88.04338254475933, 37.9820276288118], [-88.04441662602561, 37.98226566041668], [-88.0445794959765, 37.982303151118856], [-88.04496469087539, 37.9822836605443], [-88.04595231037686, 37.982233712338825], [-88.04747011376236, 37.98219157181091], [-88.04905494134955, 37.98177681174125], [-88.04966374309232, 37.981370815134056], [-88.0497623592459, 37.98135597344729], [-88.05019196056422, 37.981291272126455], [-88.05067383395061, 37.98121870345708], [-88.05177053048713, 37.9820673549658], [-88.05286639159046, 37.98285878573394], [-88.05428605492949, 37.98353282477052], [-88.05533637953272, 37.98366645818819], [-88.05648168301094, 37.98365617674243], [-88.05660154791424, 37.98365510406205], [-88.05699633951532, 37.983451255566656], [-88.05699222702793, 37.98316515372085], [-88.05702018080297, 37.98259259124157], [-88.05703281740405, 37.981381454471205], [-88.05713384643248, 37.981325038918676], [-88.05733057029319, 37.981236286792296], [-88.05749573633794, 37.9811581753442], [-88.05769258057292, 37.981063910731336], [-88.05783655625844, 37.980999358554804], [-88.05801271768229, 37.98089654029556], [-88.05812560896403, 37.98082331698173], [-88.05824919918082, 37.980736442753], [-88.05836194134224, 37.980668761333064], [-88.05847176218236, 37.98057616571955], [-88.0585850109936, 37.98048640085483], [-88.05869164461109, 37.98037994663814], [-88.05880233052882, 37.98024595603138], [-88.05890201837252, 37.9801394426958], [-88.05899121748699, 37.980035550498485], [-88.05909066817544, 37.97993732276004], [-88.05921065255468, 37.979858674623536], [-88.05940636401407, 37.97981686127946], [-88.05955260435243, 37.97981033493454], [-88.05979951618974, 37.97981334426148], [-88.06001510646803, 37.97981596768644], [-88.06016802218727, 37.97982332885342], [-88.06033813345768, 37.97983921313898], [-88.06048401626657, 37.9798492267585], [-88.06072037828918, 37.97985766136608], [-88.06088038710591, 37.97985682654391], [-88.06114589676453, 37.979804821847246], [-88.06121602105223, 37.97913167686528], [-88.06100132459764, 37.97811392653515], [-88.05986177303218, 37.97707114267933], [-88.05873566206002, 37.975877977382446], [-88.05752264716891, 37.97449032180433], [-88.05678509887963, 37.97372371654669], [-88.05676179388621, 37.97210470440605], [-88.05707012892938, 37.97053191683794], [-88.05709128784758, 37.96886578762797], [-88.05682440825815, 37.967720275747624], [-88.05649372133406, 37.96645311104095], [-88.05629023136265, 37.96534562603888], [-88.0570465849841, 37.96435225505143], [-88.05785205129878, 37.963177178919885], [-88.05867292641551, 37.96193325988171], [-88.05925565186223, 37.960412894038896], [-88.05981620419277, 37.95879006750543], [-88.05980699466447, 37.957571807805614], [-88.05965592677978, 37.95613077470246], [-88.0591023786135, 37.954748245973356], [-88.05854453829677, 37.95389253110324], [-88.05768673703197, 37.953100654154], [-88.05682050238327, 37.95270291259034], [-88.05645584207349, 37.95166921858077], [-88.0564787006042, 37.950960876708734], [-88.0564940177781, 37.950485886882944], [-88.0568880646758, 37.94940245323029], [-88.05723830163542, 37.94824108664311], [-88.05794181455522, 37.947225184147364], [-88.05883278611189, 37.946178467739145], [-88.05962919381524, 37.94547867866971], [-88.06079741421468, 37.94503492201971], [-88.06158705760393, 37.9443184147019], [-88.06209029921598, 37.94293600442426], [-88.06225564312717, 37.94169089245701], [-88.0621730304604, 37.94061806858421], [-88.06228404336488, 37.93927204646344], [-88.06209998485137, 37.93835285250717], [-88.06199305389153, 37.937220304014424], [-88.0621080912485, 37.93696543505152], [-88.06188433528428, 37.936480968613715], [-88.06125210907216, 37.935227632047464], [-88.0611190703752, 37.93490674929019], [-88.0610275176747, 37.93468597441742], [-88.0608760626161, 37.934200881505625], [-88.06141584230404, 37.93405294305413], [-88.06314202249611, 37.933493672084545], [-88.0649731681342, 37.93270450647851], [-88.06704684362764, 37.93119773071729], [-88.06829582885933, 37.930127678600606], [-88.06951665100856, 37.928677050277365], [-88.06975194044271, 37.92839753304719], [-88.0698447157503, 37.927979168564875], [-88.07008235966883, 37.92690747670009], [-88.07015886199507, 37.92656242587529], [-88.07010408542399, 37.92527523252645], [-88.06988930003618, 37.92439683900201], [-88.07030009512403, 37.92403196919822], [-88.0709068100804, 37.92380800548795], [-88.07221110997403, 37.923891958122816], [-88.07375373830241, 37.92393531974802], [-88.07536696792393, 37.92415681142642], [-88.07706945594872, 37.924249495897655], [-88.07872071395116, 37.923949326953405], [-88.08065649445523, 37.923123832654326], [-88.0822847448066, 37.92251827875974], [-88.08396741419958, 37.922417337980804], [-88.08604991114913, 37.922390307271705], [-88.08863335631179, 37.92258199584995], [-88.09013771820571, 37.922937180271504], [-88.09167936287885, 37.92334249158266], [-88.09304565101866, 37.923712546930005], [-88.09443551274815, 37.92395585330252], [-88.09599193919931, 37.92407136675204], [-88.09652212308337, 37.924908900974664], [-88.09702116327483, 37.92590277982276], [-88.09801992907234, 37.92558353645363], [-88.09938886903888, 37.92557593742873], [-88.10053211627341, 37.925943191084265], [-88.10181066595942, 37.92532911466337], [-88.10332873614456, 37.92468270214962], [-88.10507241192512, 37.92391341430734], [-88.10667518066516, 37.92304092152893], [-88.10845980435131, 37.92213749295105], [-88.11019501530694, 37.92134597252243], [-88.11170086660759, 37.92068284131978], [-88.11325958915263, 37.919903629447624], [-88.11484349237338, 37.91906082033652], [-88.11446238121577, 37.91844313672288], [-88.11550283962224, 37.91750656847288], [-88.11641297314225, 37.916288935380614], [-88.11693588426577, 37.9151633005357], [-88.11724666452314, 37.91383632180038], [-88.1178866387046, 37.91269277682423], [-88.11825252072319, 37.911833039231624], [-88.11826518786701, 37.910674385308205], [-88.11790070542364, 37.90989907752167], [-88.11722601045813, 37.90903513765085], [-88.11665404323526, 37.90826632757368], [-88.11586064578643, 37.90784614397477], [-88.11374414311182, 37.90674122308026], [-88.11248955418938, 37.90655287198843], [-88.11174056226169, 37.905921300939596], [-88.11103746616017, 37.905175706144846], [-88.11025759823785, 37.90512766532383], [-88.10999143370738, 37.905883631615886], [-88.1100451969788, 37.906937501388796], [-88.10997849976391, 37.908173522315785], [-88.10904631260368, 37.907813033743096], [-88.10863563699176, 37.906913570154764], [-88.10765424551018, 37.90613975230086], [-88.10668280915856, 37.90539365151397], [-88.10574790998449, 37.9043912500056], [-88.10492760080638, 37.903583458511946], [-88.1043336401304, 37.90278669234447], [-88.10508012935173, 37.902588686198854], [-88.10571262416013, 37.90207802329208], [-88.10471361941075, 37.90105756226079], [-88.10401061224246, 37.90031193661688], [-88.10311782429227, 37.89947291301905], [-88.10231384648603, 37.89837818317563], [-88.10213121719214, 37.897580882167006], [-88.10198488792057, 37.89671709185487], [-88.10177940009595, 37.89601682560646], [-88.10104685991436, 37.89622117975549], [-88.0998440965973, 37.89632459432468], [-88.09974053431976, 37.89584364488165], [-88.09888321006036, 37.895581980297294], [-88.09805548079804, 37.89471956022001], [-88.0972798753817, 37.89403717691661], [-88.09659862271464, 37.89317165780939], [-88.0959743537793, 37.892161269009414], [-88.09519216191534, 37.89154710198597], [-88.0948532491182, 37.89134894721193], [-88.09446888875422, 37.891124178610795], [-88.09417268366232, 37.891021240936965], [-88.09399884707842, 37.890873450993915], [-88.09385633115524, 37.89056919920848], [-88.09378429974417, 37.89027698751136], [-88.0938029856004, 37.89004190620095], [-88.09390121368178, 37.88971816349312], [-88.09426688818954, 37.889453756903166], [-88.0946291958116, 37.889362949843395], [-88.0951093408394, 37.88939123192961], [-88.09573834838785, 37.88939895095998], [-88.09641596377635, 37.88908793393916], [-88.09742092884764, 37.88835810458141], [-88.09829202068707, 37.888537097218865], [-88.09900700868631, 37.88945685713204], [-88.10013410241541, 37.889989573487696], [-88.10125657790564, 37.89049183215168], [-88.10189992076941, 37.89107872898101], [-88.10198289096569, 37.89117081850817], [-88.10237204923159, 37.891602772639075], [-88.1039640902905, 37.8915475790943], [-88.10478860178752, 37.89170594911687], [-88.10614702158375, 37.891832846791445], [-88.10733440574313, 37.89170851117599], [-88.10862687392617, 37.89190633958602], [-88.10981840021735, 37.89157842453171], [-88.11093279895483, 37.8909237569464], [-88.11201423670795, 37.89017488378546], [-88.11309886258199, 37.88961379461777], [-88.1141377713946, 37.88924528978265], [-88.11519947944912, 37.888783234514584], [-88.11602905744432, 37.88842605254139], [-88.11624339547112, 37.88833754053113], [-88.1165437732375, 37.88882704362417], [-88.11679345727578, 37.889937060665744], [-88.11662516329719, 37.89068593340994], [-88.1167651756157, 37.89135293990339], [-88.11736348683257, 37.892280805885555], [-88.11761218721561, 37.89326797762705], [-88.11816654027238, 37.893956530567614], [-88.11823735087297, 37.89477454438888], [-88.11826643742357, 37.8956755585272], [-88.11876422626185, 37.89675476019964], [-88.11970833406589, 37.897738535304335], [-88.12054703175787, 37.898501564032586], [-88.12191191852584, 37.89909764118497], [-88.12289342858504, 37.899868597043444], [-88.12377486183003, 37.89997850802854], [-88.12441978572869, 37.9004983494068], [-88.12479651670097, 37.900922467189474], [-88.12503010742094, 37.90100466180302], [-88.12516821081944, 37.90117897586228], [-88.12544453799073, 37.901814987313195], [-88.12570888522939, 37.90219359519978], [-88.12628863006599, 37.901960362288555], [-88.12704641290706, 37.90241797700835], [-88.12829337333609, 37.90263785924669], [-88.1290989294823, 37.90349845988071], [-88.1293904857926, 37.904089917670895], [-88.13022918348456, 37.90380727257922], [-88.13070274296301, 37.90365486346724], [-88.13133777102051, 37.90388812573978], [-88.13233519473498, 37.90368532036473], [-88.13306314632209, 37.90432961734566], [-88.13398105835412, 37.905154873905595], [-88.1351324119858, 37.90562962507496], [-88.13650221613163, 37.906431248238505], [-88.13696060575985, 37.90740706558247], [-88.13730318458167, 37.90850987144834], [-88.1374679023671, 37.90926202106492], [-88.13831303558976, 37.9099822245917], [-88.1391375479851, 37.91086502996862], [-88.13996292276309, 37.911881735504025], [-88.14067048977978, 37.912776253128165], [-88.14093793710448, 37.9135358545086], [-88.14076848070592, 37.9142647595399], [-88.14140723407691, 37.91475748136467], [-88.14238311169927, 37.914504667737376], [-88.14312536805899, 37.914075843021685], [-88.14408521165186, 37.91357298766927], [-88.14455063508878, 37.91381689030444], [-88.14488167864401, 37.91455688238448], [-88.14506570930975, 37.914594939890684], [-88.14544437704977, 37.91466288843624], [-88.14610741817108, 37.91409366425897], [-88.14730428045505, 37.913323750414335], [-88.14846070058493, 37.913285544128314], [-88.14860339437453, 37.912582567319994], [-88.14875571361243, 37.911833455257515], [-88.1486403492687, 37.910959741179106], [-88.14895705750862, 37.91080679477132], [-88.15006305250667, 37.91120417907088], [-88.1513256876391, 37.911258330206245], [-88.15220285927637, 37.91069989369016], [-88.15298254843397, 37.91013204075319], [-88.15372185472627, 37.90958096531266], [-88.15436570423985, 37.90945600407848], [-88.15421320623722, 37.909051139307046], [-88.15489845101743, 37.90841038992894], [-88.15535922477441, 37.907838811032505], [-88.15575207870941, 37.906995881404455], [-88.15618158929789, 37.906238932112124], [-88.15659241492847, 37.90536581361088], [-88.1570592388389, 37.904661793615546], [-88.15804694727358, 37.90405769955493], [-88.15823616211681, 37.90328692225357], [-88.15833570263682, 37.90246816307767], [-88.15879650603821, 37.901352721024395], [-88.15903191405, 37.90079053045537], [-88.15905557747122, 37.90076808932818], [-88.1597344442129, 37.900303560215264], [-88.16031034426005, 37.90018339628019], [-88.16043006004304, 37.899937409096935], [-88.1605902476245, 37.89960836092314], [-88.16062502769736, 37.89948685683305], [-88.16079564561758, 37.89889096004696], [-88.16081913027406, 37.89808948583566], [-88.16054616998845, 37.89680452834884], [-88.16049973786805, 37.896146820759625], [-88.16001133822111, 37.895769314568795], [-88.15979714841636, 37.89539583223198], [-88.15881000502199, 37.894898431057584], [-88.15858174939652, 37.89444579355719], [-88.15913777152309, 37.89399127751326], [-88.15990598649955, 37.89373518685758], [-88.16085784317123, 37.89317204203973], [-88.16195695258261, 37.89256645851969], [-88.16307161991637, 37.89223431202017], [-88.16398962088164, 37.89143885715417], [-88.16349642153614, 37.89099146433715], [-88.16320543206278, 37.890358671524446], [-88.16381584268824, 37.889970973664816], [-88.16448553134265, 37.88975785662125], [-88.16518210118365, 37.890144154735296], [-88.16592477525994, 37.89030460993253], [-88.16728251053993, 37.890378311262836], [-88.16831867769429, 37.890321358630146], [-88.16960193634901, 37.89009873569393], [-88.17096121942623, 37.890089557025924], [-88.17250334200314, 37.88999973263584], [-88.17380841534622, 37.88973043888011], [-88.17487739526295, 37.88941423588547], [-88.17522870481102, 37.88890202325817], [-88.17567901858483, 37.88813425487896], [-88.17602493464793, 37.88681031726758], [-88.17633642816764, 37.885466767982265], [-88.17674710377956, 37.88403592696762], [-88.1768498620649, 37.88285280629775], [-88.17641465885248, 37.88210241316046], [-88.17546172869402, 37.88109762764094], [-88.17425756580174, 37.87992705231093], [-88.17363678322802, 37.87886257201323], [-88.17401494431824, 37.87804145867097], [-88.17505227479089, 37.87791265325884], [-88.17625742133839, 37.87811977901866], [-88.1774308878991, 37.8781581340275], [-88.17826326773968, 37.87726773081569], [-88.17826112166446, 37.8764671202667], [-88.17799641779463, 37.87555031168826], [-88.17778306252477, 37.8750454303102], [-88.1777946543852, 37.874620418905074], [-88.17743121578418, 37.874312561589086], [-88.17714830216524, 37.87398354425055], [-88.17685617901797, 37.87377314004203], [-88.17657478534849, 37.87354911553153], [-88.1769452586565, 37.873122673737996], [-88.17756034950459, 37.87302483206399], [-88.17810200667145, 37.87275774396249], [-88.17861135772576, 37.8723577971246], [-88.1790360416662, 37.87201206003565], [-88.17975612490976, 37.87152342163362], [-88.18001713400882, 37.870990853928056], [-88.18023772969988, 37.870386045318504], [-88.18054612493017, 37.86974085487717], [-88.18069159092076, 37.86923731367643], [-88.18079178541429, 37.86855108536767], [-88.1808787773681, 37.86800820634901], [-88.1814923770128, 37.86780268960058], [-88.18223243070344, 37.867907802796566], [-88.1830784290037, 37.86793957152733], [-88.18406768703225, 37.86794812464477], [-88.1848674625196, 37.86802629687296], [-88.18575065646255, 37.868119220825236], [-88.18631028263003, 37.86763421727856], [-88.18675034393152, 37.86721135159239], [-88.18764116546954, 37.86653135148122], [-88.18826621054929, 37.86590353539635], [-88.18879985115055, 37.865318844186476], [-88.18935813792996, 37.86472062203521], [-88.18990700767024, 37.86388213325494], [-88.19044994583469, 37.86317331525699], [-88.19085770102363, 37.86261204732831], [-88.19160094103856, 37.86236376373778], [-88.19236808252826, 37.862322785652324], [-88.19310879019243, 37.862391957611806], [-88.19367515372454, 37.86247015842884], [-88.1942744791394, 37.86227820121418], [-88.19502055064412, 37.862063058669605], [-88.19604622727257, 37.861983605660996], [-88.19685908582372, 37.86192102119695], [-88.19770606777924, 37.86189750653096], [-88.19857459672517, 37.86183554822954], [-88.19963073252998, 37.86180610308911], [-88.20045530331579, 37.86167461469885], [-88.20126807293371, 37.86142984850652], [-88.2012667901395, 37.86075622699946], [-88.2013021954398, 37.85998088921863], [-88.20146846371742, 37.85928986182237], [-88.20163651874414, 37.85868719909335], [-88.20185488032509, 37.858002252031184], [-88.20243480392644, 37.857542254069664], [-88.20321163105152, 37.85698232844427], [-88.20376810053911, 37.85665733326353], [-88.2040621900985, 37.856205142332286], [-88.20398523951295, 37.85597229641235], [-88.20386439185272, 37.8556066227837], [-88.20338347068055, 37.85506013747737], [-88.20275487995038, 37.85477421312347], [-88.2018862315285, 37.85484445821647], [-88.20112210029333, 37.854728198462205], [-88.20039399958586, 37.8545487895949], [-88.19963225247945, 37.85430554243668], [-88.1987886374096, 37.853600240512975], [-88.19838195480912, 37.852999425803574], [-88.19782465078663, 37.85225880782211], [-88.1971270083572, 37.85157174544109], [-88.19652419658075, 37.85102940243143], [-88.19592323174051, 37.85039044062572], [-88.19528680320948, 37.849784082592834], [-88.19478031239105, 37.849121338729724], [-88.19438063305653, 37.84852329438643], [-88.19401028012275, 37.84766051763469], [-88.1937615195526, 37.84681571089269], [-88.19357141088565, 37.84618414032573], [-88.19376125185464, 37.845352595410674], [-88.19393717432662, 37.84451813053166], [-88.19393109452878, 37.843734060362834], [-88.19394164434348, 37.84280384058621], [-88.19368728187919, 37.84188718071686], [-88.19344510775669, 37.841064547244095], [-88.19320436465044, 37.8405317715005], [-88.19258361261946, 37.84057993178914], [-88.1920188283256, 37.84061214717171], [-88.19125165719149, 37.84084907675713], [-88.19082381387618, 37.84119207131042], [-88.19035579879967, 37.841631179194714], [-88.18988259774902, 37.84197640899235], [-88.18902420000288, 37.84188104152036], [-88.1879672611042, 37.84197113456775], [-88.18700038370264, 37.84226927694446], [-88.18636940884372, 37.84248567117744], [-88.18596490106454, 37.842514191884], [-88.18517320322823, 37.842756336523394], [-88.18494187716111, 37.842466598250226], [-88.1844257905388, 37.84158561177129], [-88.1835291281548, 37.84093761957506], [-88.1831139807294, 37.840622370592136], [-88.18306450871006, 37.84060919812148], [-88.18305839926784, 37.8405801999492], [-88.18301423269857, 37.84037018348897], [-88.18290831503836, 37.83986676229143], [-88.18311839235575, 37.83946404329103], [-88.1835316308612, 37.83822939251456], [-88.18384580675034, 37.83756810842865], [-88.18462898226954, 37.83690208706871], [-88.18503882334656, 37.83660564271919], [-88.18520380882997, 37.83637416801059], [-88.18552820844536, 37.83597755827878], [-88.18539671934228, 37.83574971973416], [-88.18530898178678, 37.835602406347284], [-88.18465190098738, 37.83536300443894], [-88.18377273149692, 37.83508238646251], [-88.18321176144975, 37.83491585071198], [-88.18254019711303, 37.834703866359206], [-88.18199895586612, 37.83460107830148], [-88.18132423215454, 37.83492184078949], [-88.18077372209056, 37.83530474074509], [-88.17992426707306, 37.83602381166919], [-88.17921199198595, 37.83648768485357], [-88.17865331623604, 37.83674905139061], [-88.17802466621706, 37.83647954950336], [-88.17751293103399, 37.83610374245418], [-88.17716269317607, 37.83566353178982], [-88.1768530474909, 37.83528453577673], [-88.1760964261715, 37.83533382825597], [-88.1755858525101, 37.83526441948647], [-88.17484630726591, 37.83533320250465], [-88.17439840816357, 37.835264537967845], [-88.17394338631934, 37.83483967672063], [-88.17395235689577, 37.83437046783241], [-88.17402537196205, 37.833468591023326], [-88.17402692245425, 37.832657013366514], [-88.1739006795124, 37.8319764475983], [-88.17390857660207, 37.831200782332], [-88.1739149546406, 37.83050242481318], [-88.17406992660352, 37.829863759826736], [-88.17410458630212, 37.828961435556984], [-88.1738550513842, 37.8289006089502], [-88.17307876055331, 37.828891637645796], [-88.17235328202817, 37.828772846518106], [-88.17170976129799, 37.82855832921741], [-88.17114673500713, 37.82814050060549], [-88.17103584068026, 37.8275677885436], [-88.17087961646584, 37.826815101140774], [-88.17072711756488, 37.82605415816025], [-88.17011885211633, 37.82581800485624], [-88.16924546508135, 37.82596800004394], [-88.16840584392125, 37.82581469688671], [-88.16778336263333, 37.8254127533622], [-88.16732577789558, 37.82512584554746], [-88.16734711647685, 37.824560168913834], [-88.16756616347237, 37.82385051520065], [-88.16781489349981, 37.82304728293152], [-88.16828264087836, 37.822439851429245], [-88.16895465347442, 37.821892740707796], [-88.16954721367686, 37.82149654843288], [-88.17006535654284, 37.82098359048063], [-88.17076896019249, 37.82060244912875], [-88.17081226348078, 37.82057386743963], [-88.17129681833828, 37.81978038088822], [-88.17168135836532, 37.81900391114776], [-88.17214481449177, 37.818655938995], [-88.17274616560758, 37.81790596376317], [-88.17280630601921, 37.817747981539725], [-88.172583444777, 37.8172996651161], [-88.17213065794121, 37.816764385853496], [-88.17146126842577, 37.81608858786373], [-88.1708420058015, 37.81552103233474], [-88.16985623323627, 37.81464281752729], [-88.16906235878203, 37.81410634591098], [-88.16814450693711, 37.81350216354474], [-88.1672549960411, 37.81287354250718], [-88.16624192547101, 37.81235119789177], [-88.16528962233663, 37.8122905797281], [-88.1643890846205, 37.812432081173355], [-88.16365642406467, 37.81218361940154], [-88.16261313416841, 37.81181567977627], [-88.16144211102528, 37.81158444382658], [-88.1603202616608, 37.811679393416014], [-88.15934739429294, 37.811977446714494], [-88.15850419783801, 37.81239846462465], [-88.1584023926652, 37.81252998268416], [-88.1577732647425, 37.81280672638173], [-88.15715418178128, 37.81300598443781], [-88.15683428362378, 37.813309581372295], [-88.15649587837477, 37.8136020315726], [-88.15640721555455, 37.81367862348737], [-88.15583653112591, 37.81351253478643], [-88.15557635746006, 37.81329935842533], [-88.15537068907408, 37.81313079704837], [-88.15464071358262, 37.81315943697467], [-88.15399224403353, 37.81320867042692], [-88.153924681741, 37.813237638905356], [-88.15361184703657, 37.81324300267491], [-88.15282131072192, 37.81330588606632], [-88.15249667305297, 37.8132028893622], [-88.15271813471998, 37.81275290383348], [-88.1529790836319, 37.812573731381825], [-88.15327379931706, 37.81227904726142], [-88.15303570893585, 37.81186252955174], [-88.15312881033189, 37.81139731494548], [-88.15337387523297, 37.81098345009863], [-88.15366391159381, 37.81062868302772], [-88.1536651333026, 37.810617656322044], [-88.15396008704131, 37.81025707780977], [-88.15428806195153, 37.81008693605712], [-88.15467334668195, 37.80999949672412], [-88.15494702022988, 37.80993741887955], [-88.15518478362434, 37.80976820043848], [-88.15499071069203, 37.809617967221875], [-88.15491096005776, 37.80955621623589], [-88.15463642143219, 37.80929660787704], [-88.15445131907632, 37.80898842241296], [-88.154175259603, 37.808633447743205], [-88.15419856459641, 37.80829286608443], [-88.1541997575591, 37.808275491215866], [-88.15421948635938, 37.807859003441955], [-88.15422237713796, 37.80779832623104], [-88.15448541283631, 37.80731883660997], [-88.15474734540346, 37.8067678209502], [-88.15519104218693, 37.806310385728345], [-88.15542847769629, 37.80611729578046], [-88.15551564931316, 37.80592563760598], [-88.15536929039718, 37.80580106335852], [-88.15515122615858, 37.80580282212538], [-88.15435362639086, 37.805725097081805], [-88.15369451719555, 37.80567368892222], [-88.15289498066008, 37.80552694150028], [-88.15253696518843, 37.80488303244229], [-88.15214637680457, 37.80397951556039], [-88.15188813900816, 37.80306368999712], [-88.15156463411476, 37.801956861031115], [-88.15153375901846, 37.80113735692855], [-88.15154880939274, 37.80028250748927], [-88.15168473707165, 37.79930209972968], [-88.15185154164348, 37.79834139148957], [-88.15186822964651, 37.79757484687161], [-88.15239787723634, 37.79685801069598], [-88.15297485077029, 37.795882490928065], [-88.15351221668504, 37.795129952502606], [-88.15374619368058, 37.79395761888926], [-88.15310389465915, 37.79315912492079], [-88.15254092855545, 37.7925435280927], [-88.1519043805485, 37.791800347463614], [-88.15114507596132, 37.79095929540261], [-88.15032634691981, 37.78997689189137], [-88.14950991217552, 37.78936683779805], [-88.1487989468321, 37.789011624001006], [-88.14792341462022, 37.788403686728365], [-88.14715564700477, 37.787945803402636], [-88.14664561053593, 37.78792646151681], [-88.14615318643649, 37.78789764284298], [-88.14566439692074, 37.788461444356415], [-88.14521021050972, 37.78897106376888], [-88.14513364799636, 37.789086219586636], [-88.14474067458544, 37.7893420129339], [-88.1439324657142, 37.789540616582954], [-88.14312526834598, 37.789810773311174], [-88.14252883550637, 37.79010271741067], [-88.14214671104912, 37.79065489455676], [-88.1417964435468, 37.791325984465225], [-88.1413868099806, 37.79204532342066], [-88.14094642169235, 37.79271730579547], [-88.14026344066666, 37.7932485327943], [-88.13871678968243, 37.79428887161617], [-88.1374419949543, 37.79542195650826], [-88.13727945288849, 37.7957333616738], [-88.13679012887513, 37.796024440493944], [-88.13601216807615, 37.79624652700329], [-88.13445118267492, 37.796356975158844], [-88.13258755215953, 37.7963271723806], [-88.12994596354011, 37.79651951703546], [-88.1290792815304, 37.79683783637274], [-88.12740716285043, 37.797545372527026], [-88.12621506972232, 37.798200607650436], [-88.12550294285725, 37.79880359708086], [-88.12575492209106, 37.799564272285345], [-88.12571471888886, 37.800876200711386], [-88.12539938057972, 37.80188077794349], [-88.1255952402611, 37.802904279166206], [-88.1253217975802, 37.80402055871373], [-88.12467846729284, 37.80380032536871], [-88.12404978762946, 37.803685523948864], [-88.12171697692264, 37.803703334278275], [-88.12149735320872, 37.80375462030903], [-88.11768550052257, 37.80506180266841], [-88.1163417529099, 37.80591192804711], [-88.11477862053513, 37.80755733232001], [-88.11429414023779, 37.8081332231032], [-88.11359027338175, 37.80925758254921], [-88.11297898330565, 37.81038374385804], [-88.11199223606833, 37.81111908197933], [-88.11091449488262, 37.811716917167125], [-88.11018764552836, 37.81216034578369], [-88.10957756188967, 37.812470886949036], [-88.10894792821546, 37.81275111826405], [-88.1081463650807, 37.81309396382721], [-88.10736405284247, 37.813235226699305], [-88.10654276090744, 37.81326723473027], [-88.10641681620629, 37.81322068320264], [-88.10621404129384, 37.81322259011614], [-88.10585161509414, 37.81310674875596], [-88.10572945499528, 37.81288400680584], [-88.10560443466056, 37.81265598908276], [-88.10565173006195, 37.811797085771055], [-88.10534515392011, 37.8113945755081], [-88.10446828052352, 37.81104511401709], [-88.1036872492829, 37.8110762869688], [-88.10233556595296, 37.811136637152615], [-88.10116844688807, 37.81148139007424], [-88.09996878365705, 37.81165951837468], [-88.09913327588266, 37.81190813023623], [-88.09783052648119, 37.811948183928486], [-88.09646775524574, 37.811915877963905], [-88.09619235154256, 37.811851505159396], [-88.09570293679936, 37.81181851429713], [-88.09516196594538, 37.811823551000494], [-88.0946507068694, 37.811804448146056], [-88.09422855617804, 37.81171295422616], [-88.09344433861311, 37.81152952106582], [-88.09289952207139, 37.81127223752517], [-88.09277509642139, 37.81098723707252], [-88.0927362353022, 37.81039145909912], [-88.09272851607895, 37.80986690887718], [-88.0926299295698, 37.80929550923207], [-88.09237544762958, 37.80834400982125], [-88.09205435740769, 37.80744922388019], [-88.09192775603806, 37.80726242448393], [-88.09121807348889, 37.80631891121699], [-88.09062822619862, 37.80557054600851], [-88.08933551996203, 37.8039513547173], [-88.08892770458598, 37.80358740913569], [-88.08823173122634, 37.80294305375029], [-88.08754824444915, 37.80221867778796], [-88.0871357201044, 37.801598670559805], [-88.08739812967697, 37.8010257802428], [-88.08752651869402, 37.800525429542084], [-88.08733706489892, 37.799778492680865], [-88.0863982311039, 37.798450292647665], [-88.08585764652548, 37.79772731854805], [-88.08517204421581, 37.79674548062013], [-88.08412827731414, 37.79566189755864], [-88.08293785325583, 37.79451435860837], [-88.08278654641927, 37.794422747435625], [-88.08210079409093, 37.79417017245535], [-88.08171524256088, 37.79381156089679], [-88.08125694186586, 37.79361861999976], [-88.08040480358059, 37.79390764285917], [-88.07959349462332, 37.794515164300634], [-88.07881797903855, 37.79515907359332], [-88.07842661451029, 37.79550135273711], [-88.0776198654014, 37.79638421681133], [-88.07681880891646, 37.79709568767357], [-88.07654459727766, 37.79726979255037], [-88.07601486075461, 37.797606082296014], [-88.07589645651197, 37.797590108250034], [-88.07545591910338, 37.79753068255417], [-88.0742049656629, 37.79693851059889], [-88.07344494601676, 37.7969856878199], [-88.07282678652366, 37.79732766888849], [-88.0720511128354, 37.798103042055196], [-88.07147409258906, 37.798632472810326], [-88.07121830090516, 37.7990131859919], [-88.0708732786658, 37.79882282893658], [-88.07034979801038, 37.79853729420835], [-88.0696419076002, 37.798430218134534], [-88.06832130597911, 37.798061401488376], [-88.067494443591, 37.79770448330817], [-88.06632850670901, 37.79741894780627], [-88.06517446801297, 37.79710366836192], [-88.06402637796073, 37.796919259796816], [-88.06224178122403, 37.79708582236897], [-88.0612899973159, 37.797121514350565], [-88.05576369733359, 37.79719289897181], [-88.05573395411453, 37.797633099181226], [-88.05499037273978, 37.79816847809679], [-88.05370546298157, 37.79897154664797], [-88.05195655810775, 37.799804358169254], [-88.05149851253428, 37.80000066301852], [-88.05046344671446, 37.80060742597094], [-88.04989237511191, 37.80097029385621], [-88.04939507226221, 37.801367222327805], [-88.04881069840695, 37.80137244287122], [-88.04820109087537, 37.80129731030807], [-88.04715812886421, 37.80147827112076], [-88.0466070537599, 37.80157384696639], [-88.04590389747125, 37.80177838069179], [-88.04541692704395, 37.80258420583371], [-88.04505572345134, 37.8035541817752], [-88.0449408352147, 37.80447611659448], [-88.045346266462, 37.805439536514], [-88.04485592825068, 37.80576491919976], [-88.04243186667729, 37.806089614833596], [-88.04237440773679, 37.80608580063807], [-88.04102772981965, 37.80636013050702], [-88.03969929039769, 37.80696112424881], [-88.03952372455689, 37.80715123392307], [-88.03916889900282, 37.80727223094056], [-88.0378021644003, 37.807260697690076], [-88.0364941697359, 37.807201510439654], [-88.0351538698573, 37.80695400199326], [-88.03416800746052, 37.80656198233555], [-88.03354060969305, 37.806308215319916], [-88.03294095639312, 37.80591279891219], [-88.03230896823456, 37.80532903096313], [-88.03230046478207, 37.8053143546041], [-88.03141196089747, 37.805253180601106], [-88.03086944314457, 37.8046535569988], [-88.02997000766129, 37.802797577089564], [-88.02951314966062, 37.80209801602814], [-88.02907572132122, 37.80156746876444], [-88.02236063041781, 37.803378543689554], [-88.02197643175057, 37.803521143199795], [-88.02065939194958, 37.80392750855891], [-88.02053306187118, 37.803968272801455], [-88.01891978643559, 37.80439657528278], [-88.01729223497348, 37.80428236176721], [-88.0160358790649, 37.8042395315646], [-88.01252379418905, 37.803711290830215], [-88.01018240367296, 37.80321160421927], [-88.00849774451164, 37.80245493569254], [-88.00714145192597, 37.80208374005746], [-88.00609008887028, 37.801447630012085], [-88.00538897355396, 37.80166101377874], [-88.00470817902769, 37.80180834949122], [-88.00386480919792, 37.80198108756301], [-88.00334151359546, 37.802153827360165], [-88.00323482158748, 37.80225543764771], [-88.00319417641414, 37.80277365390226], [-88.00293507084515, 37.803195338957195], [-88.00259467223455, 37.80355097572519], [-88.00234064574019, 37.80381516527605], [-88.00217806864008, 37.80386089017188], [-88.00167001385473, 37.80377452090051], [-88.00120768331733, 37.80390153449989], [-88.00084188484207, 37.80401330699651], [-88.00023729979124, 37.80434354154271], [-88.00015601124117, 37.8044451530764], [-88.00015092947162, 37.80490748229893], [-88.00025762237792, 37.805263120758994], [-88.00037955430469, 37.80561367850432], [-88.00049132718391, 37.80593375219307], [-88.0009028526021, 37.80624874695559], [-88.00125340846361, 37.80639608274285], [-88.00159888525052, 37.8065993042807], [-88.00187323612818, 37.80675172042204], [-88.00214250523628, 37.80686349215369], [-88.00210186096126, 37.808057421044175], [-88.00218314861301, 37.80875853602104], [-88.00224919454932, 37.80889571137754], [-88.00256101954737, 37.8089293259724], [-88.0028537813968, 37.80933771833751], [-88.00290966648892, 37.80978988717966], [-88.00308349229304, 37.81115392831293], [-88.003055954438, 37.81398598176642], [-88.00314852043815, 37.81421245042658], [-88.00345649885016, 37.814758310160066], [-88.0039771444225, 37.81546924423051], [-88.0046183421094, 37.81620303717436], [-88.00504719782603, 37.816795507424736], [-88.0053567851207, 37.81746060537104], [-88.00524276106337, 37.81791464403294], [-88.00503557542288, 37.818154880312335], [-88.00462123378628, 37.81863535336406], [-88.00426670467624, 37.81909144838929], [-88.0036710749305, 37.81950191624564], [-88.00307374647052, 37.8197931745937], [-88.00272017316794, 37.820320794329035], [-88.00251686106296, 37.82084716351173], [-88.00249513530783, 37.821467349736224], [-88.00181069901137, 37.821546665455344], [-88.00121010966693, 37.82177328548238], [-87.99941564673347, 37.82313357147361], [-87.99791563897374, 37.823699245560015], [-87.99763803529642, 37.82434720823553], [-87.99775502559082, 37.82576402362864], [-87.99785853307111, 37.8260531278822], [-87.99791920977698, 37.82654210815068], [-87.99791207086541, 37.82712067413621], [-87.99827612840566, 37.828134324078505], [-87.99863304703435, 37.82913012894289], [-87.9988332231207, 37.829583307537945], [-87.99879040761762, 37.82981050668996], [-87.99843317368028, 37.83018089953549], [-87.99831182026854, 37.830523540689356], [-87.9983225272884, 37.830880459881435], [-87.99839748091908, 37.83130876446413], [-87.99857288057156, 37.83156387306938], [-87.99857481823763, 37.831706953108515], [-87.99848991127361, 37.831862909623645], [-87.99845745693904, 37.83192257304405], [-87.9983349393107, 37.83198882413162], [-87.99809923305823, 37.83211637807828], [-87.99764990204132, 37.83223940236676], [-87.99741166253976, 37.83240835148161], [-87.99720379238303, 37.832600873891955], [-87.99711715616208, 37.832863939953604], [-87.99718111171873, 37.833149534924736], [-87.99721502761228, 37.83343542819384], [-87.99724864436685, 37.833697480264526], [-87.99716293251232, 37.83403201203623], [-87.99692594526228, 37.83429632877213], [-87.99447354004505, 37.83527092461036], [-87.99387513989495, 37.83549059795789], [-87.99360712752993, 37.83568365719429], [-87.99340116269991, 37.83601923138231], [-87.99313502871215, 37.83635531272579], [-87.99301572974747, 37.83646581865909], [-87.99292715765708, 37.83654783547815], [-87.9924499626967, 37.836838021255474], [-87.9924419748772, 37.83684132802134], [-87.99215089647063, 37.836959762783344], [-87.9915208154354, 37.83706043551596], [-87.99110054222298, 37.83711169482719], [-87.99053027461264, 37.83718801900447], [-87.98998909445118, 37.83719257864469], [-87.9898406783932, 37.837183996418226], [-87.98915757968823, 37.837306632700596], [-87.98804031981653, 37.83760963306871], [-87.98660728415616, 37.837996693436416], [-87.98643566551272, 37.838032273415166], [-87.98545673361838, 37.838380896279794], [-87.9849719173511, 37.83840766625915], [-87.98453469203096, 37.83836602572024], [-87.98416885043656, 37.838300590540086], [-87.98402608208677, 37.838199463329424], [-87.98353777945789, 37.83729229330234], [-87.98326167956037, 37.837188191400976], [-87.98353777766127, 37.83700921731731], [-87.98414454022834, 37.83643814554446], [-87.98434679591456, 37.835878972019145], [-87.98426963961481, 37.83550421475946], [-87.98385357051792, 37.835220972282166], [-87.983535318074, 37.835093076062314], [-87.9833330632861, 37.835113896194265], [-87.98316650125939, 37.83513769113039], [-87.98301778426578, 37.835185279560704], [-87.98278569552897, 37.83537812604623], [-87.98253840460262, 37.83546256690577], [-87.98239563715116, 37.835212723277124], [-87.98244322540333, 37.834451295768936], [-87.98226064372015, 37.834380604142666], [-87.98152713335804, 37.83468924195565], [-87.98137655146192, 37.834740617849384], [-87.98078168618245, 37.83421713672531], [-87.98009461782225, 37.83370257932862], [-87.9799369769646, 37.8335360156313], [-87.98165607573729, 37.832639747818476], [-87.98369244329868, 37.83140558519356], [-87.98471683443798, 37.83064988673889], [-87.9851439141853, 37.830334827220454], [-87.98635106756913, 37.82913308129009], [-87.98661636792033, 37.82886896743016], [-87.98676305651801, 37.82875686786151], [-87.9869087991897, 37.8286825103004], [-87.98701884999853, 37.828643843601135], [-87.98698868636794, 37.82846854049793], [-87.98663940611411, 37.828112411416804], [-87.9862682105606, 37.827905397711575], [-87.98603978245858, 37.82789825902845], [-87.98580421544499, 37.82807671880395], [-87.98525693931603, 37.82873820858936], [-87.98462828570379, 37.829251491531366], [-87.98424164541561, 37.82960168349637], [-87.98385951916174, 37.82994778767127], [-87.98320219312227, 37.830474244286634], [-87.98236462281595, 37.831015570608955], [-87.98207908791302, 37.83116428733961], [-87.98100401202875, 37.83168232552748], [-87.9804342843059, 37.83187515208014], [-87.98016956965628, 37.83193166459514], [-87.97997623693578, 37.831931663176164], [-87.97974423982713, 37.83192274048642], [-87.97953901161563, 37.83187812560259], [-87.97918804073245, 37.831759154102606], [-87.9789054801514, 37.831714537700826], [-87.97870620148204, 37.83165505077872], [-87.97833143422697, 37.83150633503726], [-87.97825410185742, 37.83124162091438], [-87.9781886667755, 37.830994750739414], [-87.97795964488706, 37.830738960453154], [-87.97763841632462, 37.830557525736076], [-87.97701856710047, 37.83021101644848], [-87.97684308210805, 37.830106915197334], [-87.9767181596897, 37.82997307071846], [-87.9765248278675, 37.829767842424424], [-87.97622442225332, 37.82961317636155], [-87.97584073382919, 37.8293633327906], [-87.97576934920514, 37.829253283087354], [-87.97579611810228, 37.82906292664825], [-87.9761173448681, 37.82867031627197], [-87.97632257397792, 37.828481742098745], [-87.97679846727945, 37.82836871812651], [-87.97709589947003, 37.82794636370644], [-87.97714645485759, 37.827797357383055], [-87.97720892370243, 37.82761323903709], [-87.97717918048339, 37.8273990873287], [-87.97698882298312, 37.826997553328965], [-87.97696205408594, 37.82685478629333], [-87.97697097705168, 37.82671201756242], [-87.97715241068792, 37.82618556319639], [-87.97721487234627, 37.825929770429745], [-87.97722379441366, 37.82584648943356], [-87.97702995055175, 37.825652047773815], [-87.9767524250279, 37.82556879058937], [-87.97645887894923, 37.82548072672869], [-87.97554516564283, 37.825138084154815], [-87.9753916103231, 37.825059185263484], [-87.97485325715985, 37.82489559643519], [-87.97460638844169, 37.82494913552727], [-87.97460524937789, 37.82486604429857], [-87.97460043800123, 37.824514883289474], [-87.9745825911715, 37.82438698625024], [-87.97449038809073, 37.82427693622128], [-87.97417213564681, 37.82412524667582], [-87.9737587040036, 37.82400032493003], [-87.97360106404429, 37.82397058226804], [-87.97308650545628, 37.82470226558673], [-87.97238753980844, 37.82550533438317], [-87.97230319518978, 37.825661047144976], [-87.97215554180148, 37.82593363752664], [-87.97194093697505, 37.82625008669946], [-87.9715939887477, 37.82676168899298], [-87.97103184100921, 37.827276248675744], [-87.97070948326444, 37.827450322132776], [-87.97043697572974, 37.82759747583049], [-87.97018415746943, 37.827683730670714], [-87.96947329453398, 37.82784731828517], [-87.9691282722946, 37.82800793327776], [-87.96899145258863, 37.82803767573164], [-87.96876901445292, 37.82792761766548], [-87.9684257888441, 37.82753852697084], [-87.9680099245631, 37.82689107339046], [-87.96726931661195, 37.82606718351315], [-87.96722948710888, 37.825545565893854], [-87.96722306145966, 37.8254614202157], [-87.96696891009945, 37.824111861224836], [-87.96685291154515, 37.82404047849808], [-87.96675994489641, 37.82397827622101], [-87.96669824590774, 37.8236240718512], [-87.96641568532668, 37.82332366576077], [-87.96570779581481, 37.82240162353537], [-87.96555907882122, 37.82205065516383], [-87.96545497755451, 37.822056601581274], [-87.96505701130724, 37.82227225823144], [-87.96462343584209, 37.82279669476811], [-87.96462870176629, 37.82285986946783], [-87.96453293506879, 37.82317494883875], [-87.96438719329541, 37.82324038466193], [-87.96414329979746, 37.82328499980141], [-87.9639559175174, 37.823290948248136], [-87.96394342464674, 37.82332604499632], [-87.96389583459792, 37.82369783562348], [-87.96388096388672, 37.82410829276425], [-87.96380804044858, 37.824243721009374], [-87.96355267995602, 37.82409588013985], [-87.96333852608387, 37.82366757697435], [-87.96298160745519, 37.823581917036364], [-87.96233915302524, 37.823896005591294], [-87.96163959179437, 37.824152987561156], [-87.96106342764249, 37.82435138266097], [-87.95967404291841, 37.82517616233191], [-87.95924715451224, 37.82535733071251], [-87.95791788145371, 37.82552705481793], [-87.95707647264622, 37.82543776761942], [-87.9560682601652, 37.82681457536384], [-87.95467911349466, 37.828234268807364], [-87.9547691767884, 37.82896523083249], [-87.95489103774828, 37.82917298302109], [-87.95568100812429, 37.82984624742112], [-87.95601077068194, 37.83003501535365], [-87.9567741877565, 37.83077464894014], [-87.9577363265449, 37.8312640016314], [-87.95762146795268, 37.83145092405928], [-87.95738284127724, 37.83159594126505], [-87.95729638471936, 37.831882789158286], [-87.95718319519693, 37.8324321948266], [-87.95717821763192, 37.83246590087172], [-87.95698968910156, 37.83374531581479], [-87.95706032003909, 37.83455552143403], [-87.95704982951321, 37.834641173600076], [-87.95697869192587, 37.8352238981353], [-87.95713089258614, 37.83536572737849], [-87.95739756286811, 37.835340038234825], [-87.95741547437656, 37.835351928927416], [-87.95819111033559, 37.835260286827555], [-87.95956550127926, 37.83520827206341], [-87.95970918860559, 37.83529960773723], [-87.95975082911227, 37.83570709011947], [-87.95963780487985, 37.836462569342494], [-87.95956939637433, 37.83656964560119], [-87.95937903887405, 37.83663210685775], [-87.95914931360477, 37.83663632173668], [-87.95905483778633, 37.836638054937964], [-87.95843617703329, 37.836649951806436], [-87.95761526239069, 37.83668266978114], [-87.95733567613156, 37.83677784887442], [-87.95722562532274, 37.83692656463165], [-87.9571482947498, 37.8370514871968], [-87.95687644029033, 37.83705922093405], [-87.95686454210438, 37.83735367771251], [-87.95687108633122, 37.837558311672126], [-87.95670154818598, 37.83828999717954], [-87.95662124239283, 37.838498199144325], [-87.9572131342487, 37.838748042996514], [-87.95737969717374, 37.838849170164586], [-87.95706739247532, 37.83897111694678], [-87.95657365414066, 37.83914065437199], [-87.95626952231468, 37.839271340860016], [-87.95606242021753, 37.83969848860517], [-87.9557801021816, 37.839998449199335], [-87.95507221266972, 37.84067362246224], [-87.95471231971915, 37.84112571923818], [-87.95458144955529, 37.841542125725574], [-87.95446247757737, 37.84186632702632], [-87.95440596456285, 37.84192729972197], [-87.95394494376914, 37.84195704436804], [-87.95324300290109, 37.842013554835106], [-87.95322515607134, 37.84204329873699], [-87.95327274612015, 37.842706575126456], [-87.9536058710719, 37.843968878719295], [-87.9538735600434, 37.84465892323613], [-87.95392709873603, 37.84511994292431], [-87.95405499367965, 37.8466088901224], [-87.954474374865, 37.847980055037816], [-87.95448034866163, 37.848149971825094], [-87.95391362490508, 37.84814899505651], [-87.951947069916, 37.84813109046746], [-87.95173968754446, 37.8482991689966], [-87.95140716176901, 37.84860309103804], [-87.95135309127375, 37.848672366667955], [-87.95129274335127, 37.84874968756311], [-87.9512248082579, 37.84884622720178], [-87.95015929404153, 37.84889270944142], [-87.94974810549158, 37.84890701253614], [-87.94792242789863, 37.84893561729859], [-87.94639209121826, 37.848971373590665], [-87.94400362269307, 37.84894634461363], [-87.94346661610443, 37.84883822586106], [-87.94303926596422, 37.84875218372912], [-87.94238624195663, 37.84868312452293], [-87.94204359935445, 37.848606983192084], [-87.94139638565011, 37.84875926719385], [-87.9405017076446, 37.84902576769615], [-87.94017793056167, 37.84928016457095], [-87.93960497698862, 37.850006852909544], [-87.93930820685642, 37.85008551445147], [-87.93850295973067, 37.85032019483541], [-87.93827129769365, 37.850425191810274], [-87.93802458528232, 37.850664755498855], [-87.93774568982764, 37.85067548043439], [-87.9374882506335, 37.850618272248376], [-87.93700955818154, 37.85071371779596], [-87.93528571001595, 37.851939080424685], [-87.93544660996142, 37.852142888004074], [-87.93629044062693, 37.85254692587609], [-87.93788560692471, 37.852864744039074], [-87.93863671887648, 37.85289732998402], [-87.93895494257431, 37.85280078926582], [-87.9392374115272, 37.85260413469351], [-87.93945909597637, 37.85253619837558], [-87.93986706496435, 37.85246214850504], [-87.94088242264515, 37.85205244208977], [-87.94125402244052, 37.85203562085257], [-87.94138989442386, 37.85257195363088], [-87.94141849857914, 37.853131885093184], [-87.9417510243546, 37.85363961406299], [-87.94206056403858, 37.85426837654199], [-87.94170811812168, 37.85555611042572], [-87.94169381514574, 37.85580782925486], [-87.94162230475754, 37.856658809240905], [-87.94163303154036, 37.85738822216026], [-87.94122899358007, 37.85753482107673], [-87.94080231537968, 37.85777429853965], [-87.93977462383003, 37.858351100363045], [-87.93970302720358, 37.85841657732912], [-87.93967085134672, 37.85843741640981], [-87.93915517435619, 37.85886635603712], [-87.93900161274827, 37.85900365670253], [-87.9388512509394, 37.859138098876436], [-87.93860096413155, 37.85933117777283], [-87.9392088064736, 37.85993723387616], [-87.94008839368068, 37.86079179032356], [-87.94185471688786, 37.862553107302574], [-87.94267351869291, 37.863429117878475], [-87.94291307961626, 37.86364365149081], [-87.94318839797947, 37.86406199101865], [-87.94350662077899, 37.86440881926728], [-87.94433615026517, 37.8651847153982], [-87.94458286267648, 37.865282326362305], [-87.94506913870609, 37.86576145071893], [-87.94520500889281, 37.86601531540495], [-87.94514064909428, 37.86610827947938], [-87.9449261170314, 37.8662799061367], [-87.94526579429484, 37.866565949677316], [-87.94559474477546, 37.866726849833384], [-87.94536948503143, 37.866873446486146], [-87.9450190809852, 37.86719524794067], [-87.94497617475228, 37.86731180999011], [-87.94515137677541, 37.86830581440552], [-87.9448331530776, 37.86891365821463], [-87.94515707478925, 37.86960963451606], [-87.9452729448845, 37.86992375117134], [-87.94677110211474, 37.87030633464964], [-87.94704998858627, 37.87051706290386], [-87.9476210601888, 37.87124041891192], [-87.94789026192326, 37.87224808742143], [-87.94790883638838, 37.872893382128105], [-87.94781742292676, 37.87302836128453], [-87.94768286877192, 37.87307881983073], [-87.94725380195119, 37.8738797416259], [-87.94708932671088, 37.87444468050318], [-87.94676395152509, 37.8750932844198], [-87.94638494242524, 37.8757404595024], [-87.9457745973768, 37.876227770199385], [-87.9461060496655, 37.876444843320606], [-87.94631986756775, 37.87699047233825], [-87.94770003108543, 37.878249067644546], [-87.94924828107087, 37.87824987596808], [-87.95082483427596, 37.87827035065825], [-87.95226386619085, 37.8780345340129], [-87.95259259568591, 37.87795953267753], [-87.9527126698967, 37.8779744441766], [-87.95271916741113, 37.87797274527271], [-87.95281572642271, 37.87791129328374], [-87.95281945802441, 37.87790777209675], [-87.95300043082491, 37.87786648286974], [-87.95340804318171, 37.87785933058713], [-87.95458812403784, 37.87796001838259], [-87.95525437304305, 37.878321696187], [-87.95614905015027, 37.878531089057205], [-87.95727215625782, 37.87851205310851], [-87.95780515546197, 37.87830265947512], [-87.9582239419626, 37.878150375529735], [-87.95883175645687, 37.878037293665734], [-87.95890724278853, 37.87805241148484], [-87.95900020764064, 37.87817398002281], [-87.95907887041513, 37.87833130459112], [-87.95937564054734, 37.878563716124425], [-87.95976537642997, 37.87864952846831], [-87.96064853713526, 37.87863522618159], [-87.96137795117964, 37.87862092389209], [-87.9619035563507, 37.878427843775576], [-87.9624109796204, 37.87832504718103], [-87.96273308583689, 37.878259793529814], [-87.96359979838931, 37.8776769779896], [-87.96404316728768, 37.8776769779896], [-87.96430060648181, 37.877748489616735], [-87.96441144870639, 37.877902238599994], [-87.96447938379976, 37.878134647941906], [-87.9645544712794, 37.8783527570451], [-87.96464028374524, 37.87847075074821], [-87.964771307521, 37.87854266647394], [-87.96501929284508, 37.87846002418465], [-87.96623855641727, 37.87833130388204], [-87.96701588210735, 37.878309850712746], [-87.96726259541698, 37.87818828239909], [-87.96743422124696, 37.87808101557282], [-87.96760584707692, 37.87805598584424], [-87.96772026549466, 37.87813107287725], [-87.9679347984559, 37.87829912341669], [-87.96808139542543, 37.87843141882577], [-87.96822441710013, 37.87857801629789], [-87.96833883641618, 37.878595894346994], [-87.96855694557053, 37.87847075074821], [-87.96915048673326, 37.87847432579637], [-87.96931138757706, 37.87851723203285], [-87.96947586281739, 37.878742492200765], [-87.96959027943849, 37.8788855154438], [-87.9696769138628, 37.8790279789701], [-87.96975117938396, 37.879150105336], [-87.96995498556237, 37.879285975643455], [-87.97024818039974, 37.879296702795735], [-87.97052349966128, 37.87925737202342], [-87.97114268682705, 37.87917622804293], [-87.97138600809816, 37.87914434007416], [-87.97183941836478, 37.87918316606557], [-87.97189380776199, 37.8791878443558], [-87.97221115919565, 37.87933960926228], [-87.97260447127147, 37.87939681713638], [-87.972915542583, 37.87951123629646], [-87.97320923059546, 37.87956830151962], [-87.97346617930943, 37.87951123629646], [-87.97403953802267, 37.87922162333241], [-87.97446375753412, 37.87905714140896], [-87.97472170786966, 37.87904905400763], [-87.97484250702084, 37.87908382216943], [-87.97496456381344, 37.87921396634033], [-87.97510197640752, 37.87936782996608], [-87.97528372804739, 37.879461708876825], [-87.97543523969983, 37.87954391610775], [-87.9755409193065, 37.879572848612426], [-87.97554178528242, 37.87963841804228], [-87.97548272105247, 37.879722370736246], [-87.97541629333216, 37.87981830612199], [-87.9753569155902, 37.87987841288908], [-87.97516968602375, 37.87993957962109], [-87.97506486969809, 37.87997621851677], [-87.97492299966356, 37.880054894871535], [-87.97477408054903, 37.88016939667573], [-87.97473757750745, 37.88025316157885], [-87.97474611868918, 37.880330591153026], [-87.97477730190765, 37.88041379431718], [-87.9748541590684, 37.88053835178897], [-87.9749006962917, 37.88064527470087], [-87.97497097688625, 37.880841424780115], [-87.97503349873172, 37.88101975431186], [-87.97524604461952, 37.881167032971064], [-87.97547950238881, 37.88118894475789], [-87.97567496142159, 37.88118136312726], [-87.97610325030129, 37.88114800479387], [-87.9762607132925, 37.88111092901072], [-87.97675660758384, 37.88107104687395], [-87.97707287115773, 37.881098230315004], [-87.97723879897386, 37.88113262172464], [-87.9773748820613, 37.88118514649786], [-87.97771607388431, 37.88139096837462], [-87.97792759838762, 37.88146075062951], [-87.97811703691137, 37.88156648458743], [-87.97826261339473, 37.88176796831195], [-87.97830963031839, 37.88191065527646], [-87.97833011190687, 37.88232183353891], [-87.97831117901394, 37.88259622383918], [-87.97828464367876, 37.88286471485241], [-87.97823546630686, 37.8831274335557], [-87.97813966547338, 37.883277268934485], [-87.97804355022956, 37.88340325942787], [-87.97790230721913, 37.88352962760527], [-87.97776834954563, 37.88363804713561], [-87.97764998303222, 37.8837880700702], [-87.97724818277531, 37.88411929326954], [-87.97651568840782, 37.88447114321564], [-87.97632077105914, 37.88452045244094], [-87.9763217151885, 37.8845919836564], [-87.97647355382772, 37.88469803145695], [-87.97661066368953, 37.88482804943253], [-87.97659625291574, 37.88487586102791], [-87.97655207107512, 37.884947766954454], [-87.97655348771832, 37.88505506277448], [-87.97666051659454, 37.88518532968374], [-87.97673745909523, 37.88531584663523], [-87.97689119048478, 37.885564956839474], [-87.97699900718348, 37.88575483278292], [-87.97706232673292, 37.88599276937755], [-87.97722968376867, 37.886134457711684], [-87.97767064428376, 37.886488491602385], [-87.97779256183749, 37.88660671048709], [-87.97792967888583, 37.886736725092604], [-87.97826077274671, 37.88674589637989], [-87.97842608342025, 37.886732599572696], [-87.9786035968086, 37.886504583947065], [-87.97866076918653, 37.886277569401855], [-87.97900216762206, 37.88592896033496], [-87.97907453859631, 37.88571374150763], [-87.97919234995086, 37.885521990899996], [-87.97928086814234, 37.8853900995881], [-87.97953658706268, 37.88538797262715], [-87.9799278437931, 37.885396639283705], [-87.98045495723552, 37.885439942064956], [-87.98105854695302, 37.88557799082401], [-87.98145027979055, 37.8856224179484], [-87.98190155027015, 37.885618654657286], [-87.98211325084327, 37.88570035021915], [-87.98247648552673, 37.88586424303055], [-87.98286837916268, 37.885920587259506], [-87.98308470695783, 37.8860134808418], [-87.9830811792737, 37.88613381183107], [-87.98306652325984, 37.88663357639098], [-87.98305818958895, 37.886917751459166], [-87.98304423156605, 37.88739376666542], [-87.98302396647158, 37.88813319143813], [-87.98308890568346, 37.88849034292891], [-87.98339515394024, 37.88889315070873], [-87.98382460613823, 37.889509553204974], [-87.98427792926825, 37.88993524931582], [-87.98437708081774, 37.89002832215836], [-87.98506348891621, 37.89061405648171], [-87.9853490256158, 37.89099883440473], [-87.98569809925712, 37.89177429098551], [-87.98576220483241, 37.89236312570332], [-87.98624342244865, 37.89324843365364], [-87.98655023754236, 37.89368113412529], [-87.98722880784, 37.89432182389424], [-87.98786896168451, 37.89493646754065], [-87.98841562516245, 37.89531340734505], [-87.9885689585983, 37.89552673231575], [-87.98851197666319, 37.89576568719375], [-87.98833429528989, 37.895981783302986], [-87.98816963679326, 37.8962250899523], [-87.98839023428093, 37.896723176153735], [-87.98828056076454, 37.89719122190072], [-87.98843529557222, 37.89768036911156], [-87.98851960605491, 37.89824711803544], [-87.98893582606875, 37.89899476924234], [-87.98929652301153, 37.8996356091146], [-87.98987212481804, 37.900145824675285], [-87.99052563032261, 37.9006406924384], [-87.99059057043281, 37.90072499545482], [-87.98989765853166, 37.900922141124234], [-87.98976152693521, 37.90099871466355], [-87.98968495364207, 37.90125396134576], [-87.98968495454038, 37.90179848435893], [-87.9896807001192, 37.90196864918938], [-87.98949777438126, 37.90189207382393], [-87.98915319141805, 37.9019175987183], [-87.98882562793622, 37.90193461483711], [-87.98858739831614, 37.90187080330807], [-87.98842999641036, 37.90176019766088], [-87.98817900532336, 37.90167511540824], [-87.98791950539398, 37.901628319843816], [-87.98730266193276, 37.90167086242714], [-87.98696233518739, 37.90167086242714], [-87.98670283525799, 37.901556001365186], [-87.9863242214169, 37.90105401878901], [-87.98586265265087, 37.90095277210896], [-87.98547978349025, 37.90082940315829], [-87.98504586666529, 37.90070178025488], [-87.9847608411071, 37.900586918389344], [-87.98450985091841, 37.900603936233516], [-87.98448857971078, 37.90083791063515], [-87.98447581824388, 37.90110591904424], [-87.98448857971078, 37.90150154892402], [-87.98426886167378, 37.90183276828184], [-87.98418398794742, 37.90176530335842], [-87.98404360282808, 37.901680221111675], [-87.98386493061301, 37.90163768066029], [-87.98360117716075, 37.90163768066029], [-87.98318002180272, 37.9016334262594], [-87.98278864559637, 37.90150154821518], [-87.98258019422966, 37.90143773772832], [-87.9825078753577, 37.90151431144004], [-87.98230367841214, 37.90152707324505], [-87.9821462774047, 37.901650443152704], [-87.98202716259465, 37.90180359005382], [-87.98183572801433, 37.90186314725347], [-87.98162727844424, 37.901722762956204], [-87.98152943304518, 37.901556852671575], [-87.98141882707752, 37.901356909520075], [-87.98121463013196, 37.9011867468193], [-87.98094236873564, 37.90097404076361], [-87.98068286970457, 37.90083791063515], [-87.98033403411681, 37.90081663981466], [-87.98023193519488, 37.90091023052825], [-87.98023618961606, 37.901646188752544], [-87.98024044313894, 37.90246297449662], [-87.98012983806957, 37.90246297449662], [-87.97950448576601, 37.90248849848415], [-87.97891742145649, 37.90249275283567], [-87.97868514856503, 37.90258208848934], [-87.97848095251781, 37.9027522529256], [-87.97825123084179, 37.902922416259564], [-87.97811935366649, 37.90295985318928], [-87.97793217350737, 37.90325763827985], [-87.97768118331867, 37.90324955495408], [-87.97759610028486, 37.90312618701828], [-87.97748974784004, 37.902943261180646], [-87.97731107562498, 37.90276458922407], [-87.97721748554541, 37.90267525379195], [-87.97716643608446, 37.90251359787845], [-87.97716364232392, 37.902220977819695], [-87.97706433985746, 37.90202437788203], [-87.97678356872048, 37.901998853024686], [-87.9765212247249, 37.90209382657232], [-87.97591147975106, 37.9020158691247], [-87.97589020854346, 37.901764878060874], [-87.97588595502059, 37.90165427154559], [-87.97586893913248, 37.90146283677215], [-87.97581363525033, 37.901382010009094], [-87.97557540652856, 37.901326706838944], [-87.97545841803078, 37.90128033564459], [-87.97514786864045, 37.90131862330109], [-87.97485008341195, 37.9013016077487], [-87.97460334584781, 37.901229288240245], [-87.97412263308476, 37.90066349298628], [-87.97401628153827, 37.90018703477907], [-87.97389716672824, 37.89984245332308], [-87.97377805191819, 37.89967654376167], [-87.97361214206838, 37.899591462644466], [-87.97337816776779, 37.899591462644466], [-87.97325535189876, 37.89958941619383], [-87.97306329837923, 37.899319724407725], [-87.97301135060299, 37.899309549533264], [-87.97251373603787, 37.898807433255655], [-87.972398875649, 37.89876914712816], [-87.9722329657992, 37.898824449384676], [-87.97179904807591, 37.89902864617047], [-87.9711269025292, 37.899088204197966], [-87.97068873038475, 37.89916903135358], [-87.97062678885098, 37.89934397567728], [-87.97015696995737, 37.89961145647126], [-87.96969454869013, 37.899509358603254], [-87.96934996842187, 37.89942853040371], [-87.96903941903152, 37.89963272764012], [-87.96854594569986, 37.900287857915245], [-87.9679844043242, 37.90050609279088], [-87.96783976568199, 37.90076559137982], [-87.96755048660093, 37.90116122308909], [-87.96728247872748, 37.901429230320815], [-87.9667507174018, 37.902003532700675], [-87.9667081767832, 37.90228217631871], [-87.96672944709249, 37.902618249005414], [-87.96643166186401, 37.902588470717156], [-87.96621470165492, 37.902579962025], [-87.96587374069892, 37.90270107824572], [-87.96572266023783, 37.902829430601045], [-87.96490888450677, 37.903835942505296], [-87.96482560349341, 37.90427376423135], [-87.96615810240212, 37.906712711635585], [-87.96615202260428, 37.90704298116554], [-87.96645576815466, 37.90754079499215], [-87.96666520946485, 37.90763212113053], [-87.96688642409514, 37.90775974406449], [-87.96708636482286, 37.9078788594064], [-87.96747348840468, 37.90834680869409], [-87.96757984174778, 37.908572275994494], [-87.96752028344446, 37.908989177433085], [-87.96743518424095, 37.90912446181824], [-87.96836007169118, 37.91038467521105], [-87.96907177095817, 37.91135440877267], [-87.96896173811565, 37.9114304477005], [-87.96823482947258, 37.91207563861125], [-87.96709065876992, 37.91349107002797], [-87.96684985547655, 37.91367697742859], [-87.96654190850558, 37.91386395664177], [-87.96652796036416, 37.91398704009916], [-87.96657641998215, 37.91412711042764], [-87.96660860661879, 37.914220004560065], [-87.96659549301228, 37.91440457137], [-87.96648960499648, 37.91461446827383], [-87.96609031373414, 37.914937465773875], [-87.96601083978096, 37.91522424660413], [-87.96586212368568, 37.91581911179602], [-87.96553494917437, 37.916154914300286], [-87.96507392658403, 37.916502910364], [-87.96488654520229, 37.91677060092209], [-87.96460398282461, 37.9170948008001], [-87.96438685822382, 37.91724054386571], [-87.96415188499661, 37.917303004078704], [-87.96329527938947, 37.91721377488303], [-87.96299487197868, 37.91715131317688], [-87.96259036330119, 37.91708397497888], [-87.96202256515954, 37.91716321122247], [-87.959077981083, 37.91710967389978], [-87.95890249519225, 37.91718403155749], [-87.95884895829624, 37.91726136347014], [-87.95884710866508, 37.917391545747776], [-87.95888613776923, 37.91745528995739], [-87.95899321335784, 37.91759805728365], [-87.9590348529662, 37.91805907842584], [-87.95900212105218, 37.91838078165241], [-87.95868388387966, 37.918656918351566], [-87.95830018018412, 37.9187377006268], [-87.95791946518356, 37.91870200866557], [-87.95764878751709, 37.918571613981136], [-87.95752984428529, 37.91853497019853], [-87.95743169166239, 37.918499279556286], [-87.95736923090237, 37.918395177557755], [-87.95719077158803, 37.918282153254886], [-87.95689333849913, 37.918308922557365], [-87.95639365152066, 37.918181026659276], [-87.95544821870156, 37.918250477817004], [-87.95534618535665, 37.91828376193616], [-87.95533050975496, 37.91828805293387], [-87.9547893888823, 37.9184358133409], [-87.95463674175934, 37.918633819361126], [-87.95454566606426, 37.91879442434089], [-87.95445637801659, 37.91909021211521], [-87.95445131151838, 37.919328452687836], [-87.95444669148287, 37.91954532361824], [-87.95444859860623, 37.919692845516806], [-87.95437164981732, 37.91974264563297], [-87.95415453958955, 37.91975671245537], [-87.95406078242335, 37.91970825312672], [-87.9540560132675, 37.919692100718684], [-87.95402829664773, 37.91959789539387], [-87.95397983882636, 37.9194507021226], [-87.95372943972913, 37.91929286872964], [-87.95343374038873, 37.91923379973211], [-87.9530918182354, 37.91919967698785], [-87.95265739026905, 37.919215471630096], [-87.95230074562653, 37.91924300949008], [-87.95205320766347, 37.91930645800107], [-87.95179076844647, 37.9194192603369], [-87.95145090253682, 37.91954496645462], [-87.95109455523665, 37.91959703154037], [-87.95058332670341, 37.919674964691566], [-87.95025722927211, 37.919665278061686], [-87.94996269235172, 37.91969225024523], [-87.94974507727078, 37.919837178171136], [-87.9497027567394, 37.920001746857544], [-87.9497208173682, 37.92019838238155], [-87.94986443552423, 37.92050463125262], [-87.94991381771204, 37.920725556425545], [-87.9499182877289, 37.921069832455075], [-87.94976653442964, 37.92134157044655], [-87.9496305169192, 37.92162549742519], [-87.94958661714958, 37.92164683592855], [-87.94958438214115, 37.921703757943256], [-87.94957377303764, 37.921705516072144], [-87.94951154583961, 37.92203223890284], [-87.94946910673063, 37.92235228568721], [-87.94923119421587, 37.92316577040001], [-87.9490330393389, 37.92345020408563], [-87.94878752797511, 37.92367351341377], [-87.94852589364862, 37.92384776739069], [-87.94837336510327, 37.924058022833094], [-87.9482350820417, 37.92416984070308], [-87.94814275499344, 37.924232038513566], [-87.94809715650959, 37.924306216777836], [-87.94812990998317, 37.92444119025886], [-87.94841118417672, 37.92458650706475], [-87.94869138488352, 37.92464572269682], [-87.94889210445061, 37.92480153144847], [-87.94901614202841, 37.924897792861074], [-87.9493081448014, 37.92518273216786], [-87.94933112280806, 37.9253057272415], [-87.94957261061766, 37.925573142710675], [-87.94979654534666, 37.92608779916136], [-87.94984691208799, 37.92638254431546], [-87.94981964193093, 37.92667782610739], [-87.94965352457027, 37.92703581162608], [-87.94953202024155, 37.92724579861124], [-87.9493625045542, 37.92734554730321], [-87.94917817744441, 37.92749458905065], [-87.9491333542067, 37.92763021920165], [-87.9491191087229, 37.92772868626097], [-87.94904305285938, 37.92785227795009], [-87.94882719488312, 37.927972408742455], [-87.9488220098073, 37.92797956182497], [-87.94851012821539, 37.92816710767602], [-87.94819097476123, 37.92821714651184], [-87.94767730191211, 37.92819038435873], [-87.94688536422562, 37.927894356840326], [-87.9467535786785, 37.927933040204714], [-87.94635998004011, 37.92848623070799], [-87.94632135607617, 37.92867347908441], [-87.94629438505808, 37.9289934069763], [-87.94645370756193, 37.92931181573225], [-87.9464408921961, 37.929520968617005], [-87.9463826589078, 37.92966410860588], [-87.94638069249562, 37.92966899696458], [-87.9463345882603, 37.92970627928054], [-87.94608940388328, 37.92995417498862], [-87.94586123719101, 37.93032488577688], [-87.9458021388251, 37.93055895342768], [-87.94578452645564, 37.93070313650763], [-87.94576762824684, 37.930741551979345], [-87.94537310524203, 37.93122098234994], [-87.94512452433494, 37.931361590234985], [-87.94480417881641, 37.93142778027322], [-87.94452695782141, 37.93160215474809], [-87.94394083584463, 37.93190196581491], [-87.94355763610399, 37.93228623735806], [-87.9432042101251, 37.932571892700174], [-87.9423551126371, 37.93294757974907], [-87.94192625692045, 37.93340600003153], [-87.94182007156229, 37.93355364078835], [-87.94171269324144, 37.933702831493825], [-87.94155980806494, 37.93388850004678], [-87.94115714812028, 37.93396550831348], [-87.94093386916146, 37.93394834302063], [-87.94072200419666, 37.933932100215934], [-87.94042734959694, 37.933959041659904], [-87.94005541562828, 37.93401119573282], [-87.93983934924289, 37.934111271791856], [-87.9394993342129, 37.934236978300916], [-87.93940748327172, 37.93433610109929], [-87.93919248947476, 37.93452221654195], [-87.93903820292643, 37.93459725872986], [-87.93884266933345, 37.93477193034656], [-87.93874652714018, 37.93485782028377], [-87.93848417775472, 37.93498287085359], [-87.93834464244163, 37.93499628151525], [-87.93736706700336, 37.93504095583501], [-87.93671537968893, 37.935070728780666], [-87.93648312925538, 37.935121779626535], [-87.93639032520167, 37.93514717112826], [-87.93631507422865, 37.935332154450435], [-87.93616072839149, 37.935407167471276], [-87.93581966951913, 37.93544677431546], [-87.93564780024573, 37.93536201584132], [-87.9353823507742, 37.93524119711891], [-87.93505446569549, 37.935096239329354], [-87.93492288855751, 37.935053412833554], [-87.93464915392416, 37.93496421509451], [-87.93449388372055, 37.934965437273235], [-87.93438534297972, 37.93497860987894], [-87.93430177809871, 37.93502089936863], [-87.9342619620704, 37.93504104510713], [-87.93418545884585, 37.93512771125443], [-87.934046491268, 37.93519032560828], [-87.93381376472735, 37.935204481581565], [-87.933472557633, 37.93523178106361], [-87.93322403601469, 37.93522143898858], [-87.93285085159116, 37.935175215272885], [-87.93261752946746, 37.93514019728707], [-87.93236897730644, 37.93512985661614], [-87.93218205765876, 37.93508214355843], [-87.93199498889074, 37.93502212154642], [-87.93179191483928, 37.934925352634146], [-87.9317632154626, 37.93491504098193], [-87.93086726723925, 37.93490100469112], [-87.93081359379936, 37.93490854465443], [-87.93061287602887, 37.934996193660105], [-87.9304585589378, 37.9350712056068], [-87.93027274152296, 37.9351095614068], [-87.93005539324167, 37.935111260408995], [-87.92983634534784, 37.9349777454976], [-87.92969541045954, 37.93488047065061], [-87.92955444502853, 37.934783225432376], [-87.9292892937977, 37.934686933742775], [-87.92897821709627, 37.93464023427907], [-87.9287450440929, 37.93461746551653], [-87.92854304352824, 37.93460673650699], [-87.92804614851366, 37.9345984213996], [-87.92789195179684, 37.93468568321893], [-87.92779977386888, 37.934760188188356], [-87.92778472349463, 37.9347971738903], [-87.92769400532902, 37.934994643442145], [-87.92773674178035, 37.93520826642639], [-87.9277580210728, 37.935314690487175], [-87.92803080079703, 37.93609926675862], [-87.92798994272296, 37.936479127235685], [-87.92759655339206, 37.93673995772238], [-87.92733300924726, 37.93675363658195], [-87.92698104392906, 37.93677786559322], [-87.92657567286889, 37.93686691447373], [-87.92611695445726, 37.93702075464841], [-87.9257676724068, 37.93725959106233], [-87.92552648193953, 37.937476073995256], [-87.92539424813307, 37.93773466922366], [-87.92553107143232, 37.93784088487532], [-87.92577518142426, 37.93786043613341], [-87.92604507216654, 37.937772458973384], [-87.92623419717825, 37.93772805341175], [-87.92642898606782, 37.937743640031215], [-87.92657683528887, 37.93790102644436], [-87.92704550613553, 37.938241309133765], [-87.92711435032395, 37.93828240650425], [-87.92739562361919, 37.93842772216703], [-87.9278482631313, 37.93862090136456], [-87.92792717833237, 37.93871865231483], [-87.9279749812819, 37.93881664330715], [-87.92790014802549, 37.93903861088089], [-87.92779703221063, 37.93948206934514], [-87.92767335216233, 37.939682967320294], [-87.92756877658516, 37.93985275050569], [-87.9274323117137, 37.940112061417956], [-87.92741833392789, 37.940235174624455], [-87.92744360623178, 37.9403453830716], [-87.92742891338699, 37.940387762281404], [-87.92747153126071, 37.94085556991894], [-87.92763189760691, 37.94118008655612], [-87.92784048372093, 37.9413559497245], [-87.92818777061314, 37.94141054765124], [-87.9284444884601, 37.94136065948533], [-87.9288812700125, 37.941106921397484], [-87.92954782983477, 37.94115558907673], [-87.92965777104914, 37.94113997271756], [-87.92985252939599, 37.941187358081436], [-87.93030460027452, 37.94133133328445], [-87.93057174846024, 37.941587424762155], [-87.93069831928715, 37.941770858095126], [-87.93082560427469, 37.942015833304204], [-87.93093691721648, 37.942223973105804], [-87.93112601168548, 37.94244382491298], [-87.93159766404058, 37.942907340528315], [-87.93174685444632, 37.942996330266865], [-87.93191941003262, 37.9431944855122], [-87.93213356929466, 37.94336561084976], [-87.93219621420933, 37.94357890558937], [-87.93215398440782, 37.94392356979831], [-87.93207864360326, 37.944108612500436], [-87.93202628080536, 37.94418049597145], [-87.93161646937273, 37.944395072000155], [-87.93111063522277, 37.94491554027536], [-87.93081904836974, 37.94518835051223], [-87.93065182787792, 37.94547251622772], [-87.93059296846387, 37.9457312009151], [-87.93055088688439, 37.94608814226568], [-87.93059591853127, 37.94719446475562], [-87.93061639293322, 37.94758779596828], [-87.93063719432195, 37.9480057137859], [-87.93056262966178, 37.94825220964747], [-87.93044172181443, 37.94851142929189], [-87.93027417253921, 37.94877094837326], [-87.92997090489256, 37.949351289047485], [-87.9299441117409, 37.949380942148345], [-87.92967994416529, 37.94967330375546], [-87.92943243584664, 37.94974903033999], [-87.92921598138904, 37.949824550711845], [-87.92881335198712, 37.94991377858436], [-87.9280094936568, 37.95020295043983], [-87.92795948534325, 37.950213917307394], [-87.92731262557514, 37.950355984917515], [-87.92669696968674, 37.95044223278154], [-87.92666159313255, 37.95044718067741], [-87.92616517692004, 37.95048798008604], [-87.92566795491868, 37.95046732643753], [-87.92532609205416, 37.95044542252747], [-87.9250937526874, 37.950496414525276], [-87.92508138468256, 37.95050589166884], [-87.92479167620681, 37.95084891541662], [-87.92470232976864, 37.95128391005562], [-87.9251899254234, 37.952053823823796], [-87.92530189233872, 37.952477463713], [-87.9248586132719, 37.95301193873699], [-87.92437337120317, 37.95337582532792], [-87.92407502003607, 37.95348627331585], [-87.92336685743635, 37.953498193814845], [-87.92287800953008, 37.95367235867855], [-87.92256305839484, 37.95428077327893], [-87.92230809944922, 37.95524431245541], [-87.92211426546879, 37.95553625619903], [-87.92169139971847, 37.95586151830401], [-87.92153225597936, 37.95613692208435], [-87.92156777985727, 37.95653868733051], [-87.92197192920865, 37.95724822059971], [-87.9219046355124, 37.958299557380315], [-87.92200983901196, 37.95882783367803], [-87.9224273687695, 37.959273140300084], [-87.92290125523469, 37.96011463918931], [-87.92322806862326, 37.960345427606896], [-87.92433963497267, 37.96061373832765], [-87.92620782443814, 37.960765462082236], [-87.92788277460788, 37.96148432329907], [-87.9285705831799, 37.961659561351105], [-87.92894597296745, 37.96184621314661], [-87.92938350101986, 37.96188418172356], [-87.9296060649197, 37.96204901819619], [-87.92942644588032, 37.962489586256915], [-87.92933066211484, 37.963161181251834], [-87.92906175592611, 37.96405319465548], [-87.929118201567, 37.964476954433195], [-87.92914615534201, 37.964564960526296], [-87.92966712879945, 37.9646413438627], [-87.93077810226077, 37.964595865291024], [-87.93118105954778, 37.964683394607626], [-87.9312854267158, 37.96478782199552], [-87.93172986910093, 37.968007099251864], [-87.93163444196662, 37.9688438587527], [-87.93181608670695, 37.969349992379435], [-87.93265046350241, 37.969822239264914], [-87.93321426324273, 37.97041590208472], [-87.93373583497814, 37.97073994256434], [-87.93527783718079, 37.970864456889466], [-87.93623562363166, 37.970598947595136], [-87.93669392432669, 37.9705762976164], [-87.93786104339158, 37.97075636347974], [-87.94113244534829, 37.97095541332076], [-87.94151597117737, 37.97163737972282], [-87.94149668883979, 37.97230888609012], [-87.94162260479486, 37.972710501961394], [-87.94176887477762, 37.97290844888138], [-87.94201221042178, 37.97300718455933], [-87.94247056950731, 37.97300652881933], [-87.94364335065345, 37.97261409143705], [-87.94416399802245, 37.97252525088034], [-87.94451810941585, 37.9724917236422], [-87.94472961595288, 37.97258190476112], [-87.94545467765973, 37.97206656336795], [-87.94609977852652, 37.97174088299233], [-87.94696702557654, 37.97137634099483], [-87.9478276879755, 37.97116042320837], [-87.94785507581189, 37.97107283292146], [-87.94786944077161, 37.97090209646464], [-87.94775798050608, 37.970761906281446], [-87.94764899240424, 37.97062487566533], [-87.94756492087343, 37.97041089533977], [-87.94764374803962, 37.97021715033657], [-87.94766878228995, 37.97015566774361], [-87.94772260485018, 37.97002334533566], [-87.94793807565257, 37.969914328647015], [-87.94802521762503, 37.969812523126556], [-87.94807754988021, 37.969751339752335], [-87.94817846122935, 37.96963338124122], [-87.94839366343543, 37.96950287719704], [-87.94861047632082, 37.96950111879505], [-87.9489366321426, 37.96956286962662], [-87.94929181702278, 37.96977464504634], [-87.94959273108341, 37.96998680722511], [-87.94989257255558, 37.97011316902813], [-87.95008315822795, 37.97017602196541], [-87.950104556098, 37.970178257657736], [-87.95097129649821, 37.97019256268765], [-87.95183890197602, 37.96999863864899], [-87.95201950467063, 37.970014881271034], [-87.95371084639936, 37.97098539407677], [-87.95391585721855, 37.970960509257004], [-87.95423947979124, 37.970829140779735], [-87.95448123709546, 37.97065548257447], [-87.95472215896645, 37.97041745084718], [-87.9548839563289, 37.97035173640898], [-87.95512765040087, 37.97032831232586], [-87.95553457105488, 37.97034646126394], [-87.9562111129566, 37.970255147869025], [-87.9562807314928, 37.97026143499426], [-87.95642294827702, 37.970239352154984], [-87.95757436119749, 37.96968166106444], [-87.95896317908463, 37.96962444052977], [-87.95904635858835, 37.96958030349651], [-87.95906021599994, 37.96905321922574], [-87.95892998004666, 37.968773614073136], [-87.95890092314049, 37.96862361925579], [-87.95906271960462, 37.96855790462825], [-87.9592224894695, 37.968577663709176], [-87.95938854754132, 37.96859819753927], [-87.95952814304154, 37.96860624393807], [-87.95971410867838, 37.96861700268427], [-87.95985626617379, 37.96878985554987], [-87.96039267807771, 37.96920941327469], [-87.96096410810806, 37.96998457152701], [-87.96140217245465, 37.97020403574459], [-87.96211945475113, 37.970316569476196], [-87.96228429201253, 37.97029144648499], [-87.96255397254902, 37.970181922436694], [-87.96276884776836, 37.97002993062085], [-87.96287473578415, 37.96983591833912], [-87.96298709077169, 37.96983499417316], [-87.96302964845826, 37.969834606802415], [-87.963037426072, 37.96983457635098], [-87.96322828034063, 37.969918858117644], [-87.96339290829455, 37.97006774979118], [-87.9635306847063, 37.970238309021646], [-87.96359613056799, 37.97028906208068], [-87.96393751822374, 37.97041467837116], [-87.96449333014455, 37.97050733354346], [-87.96376636221267, 37.9713671321036], [-87.96371280645207, 37.9721377892266], [-87.96426987242099, 37.972709309444426], [-87.9651800652298, 37.9728729829203], [-87.96604945835504, 37.97336141361788], [-87.96575256784857, 37.97402239977351], [-87.9658649228361, 37.97449005767245], [-87.96626135386256, 37.9747095523245], [-87.96708109620371, 37.974796306224874], [-87.96849041903553, 37.97459034273001], [-87.96813732094174, 37.97500921370695], [-87.96776455423482, 37.97586296180482], [-87.96793216100221, 37.97622044006032], [-87.9689687764159, 37.97687922163086], [-87.96926820017146, 37.977170449153355], [-87.96931078750245, 37.97752262375228], [-87.96913802440532, 37.97784216406752], [-87.96905606661039, 37.978365134953215], [-87.96921035495537, 37.97893733955306], [-87.97133943224733, 37.9803208226484], [-87.97195136372055, 37.980589491587374], [-87.97312140410675, 37.98175437479681], [-87.97392874879868, 37.98235295412629], [-87.97433191449483, 37.98246784262067], [-87.97599908705084, 37.982536566756046], [-87.97637507331974, 37.98286618058197], [-87.97719997199063, 37.98376626977406], [-87.97769188944022, 37.98402590784145], [-87.97834417323601, 37.98394126913702], [-87.97863593795546, 37.98376531675387], [-87.97910130120525, 37.983309281716856], [-87.97985735658602, 37.983333302077995], [-87.98016923817794, 37.983539832252205], [-87.98081022655735, 37.98506928886712], [-87.98078862027813, 37.985232127632486], [-87.9803901626524, 37.98572592217261], [-87.98035407193754, 37.98595316504459], [-87.98073247197962, 37.98652042236283], [-87.98090815729637, 37.98736480984423], [-87.98140680941565, 37.98771218696109], [-87.98305955862143, 37.98813824142817], [-87.98354512677861, 37.9886469373361], [-87.98446256180522, 37.989087027890896], [-87.98503291924712, 37.98955531264654], [-87.98521623305724, 37.99235166512176], [-87.98580786979156, 37.993007732730796], [-87.98598280950664, 37.99334572124676], [-87.98602858585687, 37.994003309823476], [-87.98658711068983, 37.993872119223845], [-87.98789012868754, 37.99374316548789], [-87.9882819693229, 37.993502571544326], [-87.98866534692996, 37.99341751475701], [-87.98933032571735, 37.99290220356472], [-87.9896680760945, 37.99244017725782], [-87.99079621276766, 37.99171630874157], [-87.9912128199554, 37.991704745596394], [-87.99302352083592, 37.992076767444985], [-87.9944336467616, 37.991708530362025], [-87.99482960168095, 37.99113805367419], [-87.9963559875707, 37.99087528747521], [-87.9972020460581, 37.990520757810906], [-87.9975627726453, 37.990514022149846], [-87.99903375673651, 37.99080540087427], [-87.99958179104357, 37.99084727238217], [-88.00001875315733, 37.99079067791106], [-88.00158567013439, 37.99107210150336], [-88.00301940019247, 37.99079607194183], [-88.0043732017498, 37.990699839513056], [-88.00541214110514, 37.9907438286238], [-88.00651798608452, 37.99091388033514], [-88.00686410965844, 37.990909856234666], [-88.00749550223398, 37.990769397715965], [-88.00827122712622, 37.991256130545544], [-88.00991965363889, 37.99105284830365], [-88.01006458243693, 37.99107531851109], [-88.01057116218858, 37.991494785663676], [-88.0113438175375, 37.99165130859248], [-88.01242045649036, 37.9913254206099], [-88.01361889801258, 37.991264236053546], [-88.01528162929783, 37.99128831681937], [-88.0164857930884, 37.991514486180684], [-88.01690916459026, 37.991505783886645], [-88.01728595574966, 37.99133194663863], [-88.0175498852717, 37.99131695616994], [-88.01778532382619, 37.9912886141652], [-88.01826144529983, 37.9912207541591], [-88.01949836166567, 37.991070103616856], [-88.01983456155065, 37.99105108900198], [-88.02008785142648, 37.991029780563665], [-88.02036537156044, 37.99101780031667], [-88.0206069483033, 37.99102528071464], [-88.02099339545367, 37.991031479688495], [-88.02134324434107, 37.991009335133285], [-88.02181543299041, 37.9910017662376], [-88.02196557650868, 37.99140105822411], [-88.02205060294864, 37.99231601953226], [-88.02257023611968, 37.993284386166884], [-88.02345900231232, 37.99479324836635]]]}, "properties": {"huc10": "0512011309", "name": "Levy Slough-Wabash River"}}]}